;FLAVOR:Marlin
;TIME:423
;Filament used: 1.47902m
;Layer height: 0.8
;MINX:92.5
;MINY:92.5
;MINZ:0.4
;MAXX:127.5
;MAXY:127.5
;MAXZ:19.6
;TARGET_MACHINE.NAME:Creality Ender-3 Pro
;Generated with Cura_SteamEngine 5.8.1
M82 ;absolute extrusion mode
; Ender 3 Custom Start G-code
G92 E0 ; Reset Extruder
G28 ; Home all axes
G1 Z5.0 F3000 ; Move Z Axis up a bit during heating to not damage bed
M104 S200.0 ; Start heating up the nozzle most of the way
M190 S120 ; Start heating the bed, wait until target temperature reached
M109 S235 ; Finish heating the nozzle
G1 Z2.0 F3000 ; Move Z Axis up little to prevent scratching of Heat Bed
G1 X0.1 Y20 Z0.3 F5000.0 ; Move to start position
G1 X0.1 Y200.0 Z0.3 F1500.0 E15 ; Draw the first line
G1 X0.4 Y200.0 Z0.3 F5000.0 ; Move to side a little
G1 X0.4 Y20 Z0.3 F1500.0 E30 ; Draw the second line
G92 E0 ; Reset Extruder
G29 A L0
G1 Z2.0 F3000 ; Move Z Axis up little to prevent scratching of Heat Bed
G1 X5 Y20 Z0.3 F5000.0 ; Move over to prevent blob squish

M300 S2637 P150
M300 S2637 P150
M300 S0 P75
M300 S2637 P300
M300 S2093 P150
M300 S2637 P300
M300 S3135 P300
M300 S0 P300
M300 S1567 P300
M300 S0 P300
M300 S2093 P300
M300 S0 P150
M300 S1567 P300
M300 S0 P150
M300 S1318 P300
M300 S0 P150
M300 S880 P300
M300 S987 P300
M300 S932 P150
M300 S880 P300
M300 S1567 P225
M300 S2637 P150
M300 S3135 P150
M300 S1760 P300
M300 S2793 P150
M300 S3135 P300
M300 S2637 P300
M300 S2093 P150
M300 S2349 P150
M300 S987 P300
M300 S0 P150
M300 S2093 P300
M300 S0 P150
M300 S1567 P300
M300 S0 P150
M300 S1318 P300
M300 S0 P150
M300 S880 P300
M300 S987 P300
M300 S932 P150
M300 S880 P300
M300 S1567 P225
M300 S2637 P150
M300 S3135 P150
M300 S1760 P300
M300 S2793 P150
M300 S3135 P300
M300 S2637 P300
M300 S2093 P150
M300 S2349 P150
M300 S987 P300
M300 S0 P300
M300 S3135 P150
M300 S2959 P150
M300 S2793 P150
M300 S2489 P150
M300 S0 P150
M300 S2637 P150
M300 S0 P150
M300 S1661 P150
M300 S880 P150
M300 S2093 P150
M300 S0 P150
M300 S880 P150
M300 S2093 P150
M300 S2349 P150
M300 S0 P300
M300 S3135 P150
M300 S2959 P150
M300 S2793 P150
M300 S2489 P150
M300 S0 P150
M300 S2637 P150
M300 S0 P150
M300 S4186 P150
M300 S0 P150
M300 S4186 P150
M300 S4186 P150
M300 S0 P600
M300 S3135 P150
M300 S2959 P150
M300 S2793 P150
M300 S2489 P150
M300 S0 P150
M300 S2637 P150
M300 S0 P150
M300 S1661 P150
M300 S880 P150
M300 S2093 P150
M300 S0 P150
M300 S880 P150
M300 S2093 P150
M300 S2349 P150
M300 S0 P300
M300 S2489 P150
M300 S0 P300
M300 S2349 P150
M300 S0 P300
M300 S2093 P150
G92 E0
G92 E0
G1 F3600 E-4
;LAYER_COUNT:25
;LAYER:0
M107
G0 F6000 X94.355 Y95.052 Z0.4
;TYPE:SKIRT
G1 F3600 E0
G1 F1200 X95.374 Y94.073 E0.235
G1 X96.505 Y93.341 E0.45904
G1 X98.076 Y92.712 E0.74046
G1 X99.598 Y92.5 E0.99601
G1 X120.482 Y92.5 E4.46904
G1 X121.611 Y92.69 E4.65943
G1 X122.406 Y92.893 E4.79588
G1 X123.449 Y93.338 E4.98446
G1 X124.33 Y93.888 E5.15718
G1 X124.948 Y94.355 E5.286
G1 X125.927 Y95.374 E5.52099
G1 X126.659 Y96.505 E5.74503
G1 X127.288 Y98.076 E6.02646
G1 X127.5 Y99.598 E6.28201
G1 X127.5 Y120.484 E9.75536
G1 X127.309 Y121.615 E9.94611
G1 X127.107 Y122.402 E10.08123
G1 X126.66 Y123.461 E10.27239
G1 X126.092 Y124.359 E10.4491
G1 X125.647 Y124.945 E10.57146
G1 X124.599 Y125.954 E10.81339
G1 X123.489 Y126.652 E11.03145
G1 X122.417 Y127.141 E11.2274
G1 X120.735 Y127.5 E11.51342
G1 X99.518 Y127.5 E15.04182
G1 X98.389 Y127.31 E15.23221
G1 X97.594 Y127.107 E15.36866
G1 X96.551 Y126.662 E15.55724
G1 X95.67 Y126.112 E15.72996
G1 X95.052 Y125.645 E15.85878
G1 X94.073 Y124.626 E16.09377
G1 X93.341 Y123.495 E16.31781
G1 X92.712 Y121.924 E16.59924
G1 X92.5 Y120.402 E16.85479
G1 X92.5 Y99.518 E20.32781
G1 X92.69 Y98.389 E20.51821
G1 X92.893 Y97.594 E20.65466
G1 X93.338 Y96.551 E20.84324
G1 X93.888 Y95.67 E21.01595
G1 X94.355 Y95.052 E21.14477
G0 F6000 X95.106 Y95.717
G1 F1200 X95.997 Y94.861 E21.35025
G1 X96.969 Y94.232 E21.54278
G1 X98.335 Y93.685 E21.78749
G1 X99.664 Y93.5 E22.01063
G1 X120.397 Y93.5 E25.45854
G1 X121.364 Y93.659 E25.62151
G1 X122.081 Y93.842 E25.74457
G1 X122.99 Y94.23 E25.90894
G1 X123.727 Y94.686 E26.05306
G1 X124.283 Y95.106 E26.16894
G1 X125.139 Y95.997 E26.37442
G1 X125.768 Y96.969 E26.56696
G1 X126.315 Y98.335 E26.81166
G1 X126.5 Y99.664 E27.0348
G1 X126.5 Y120.398 E30.48288
G1 X126.34 Y121.366 E30.64604
G1 X126.155 Y122.086 E30.76967
G1 X125.772 Y122.994 E30.93355
G1 X125.247 Y123.824 E31.09688
G1 X124.898 Y124.278 E31.19211
G1 X123.98 Y125.162 E31.40405
G1 X123.013 Y125.77 E31.59401
G1 X122.101 Y126.186 E31.76071
G1 X120.629 Y126.5 E32.01101
G1 X99.603 Y126.5 E35.50765
G1 X98.636 Y126.341 E35.67062
G1 X97.919 Y126.158 E35.79368
G1 X97.01 Y125.77 E35.95804
G1 X96.273 Y125.314 E36.10217
G1 X95.717 Y124.894 E36.21805
G1 X94.861 Y124.003 E36.42352
G1 X94.232 Y123.031 E36.61606
G1 X93.685 Y121.665 E36.86076
G1 X93.5 Y120.336 E37.08391
G1 X93.5 Y99.603 E40.53182
G1 X93.659 Y98.636 E40.69479
G1 X93.842 Y97.919 E40.81785
G1 X94.23 Y97.01 E40.98221
G1 X94.686 Y96.273 E41.12634
G1 X95.106 Y95.717 E41.24222
G0 F6000 X95.857 Y96.382
G1 F1200 X96.62 Y95.649 E41.41817
G1 X97.433 Y95.123 E41.5792
G1 X98.594 Y94.658 E41.78719
G1 X99.73 Y94.5 E41.97793
G1 X120.314 Y94.5 E45.40106
G1 X121.202 Y94.646 E45.55072
G1 X121.756 Y94.791 E45.64595
G1 X122.526 Y95.119 E45.78514
G1 X123.124 Y95.484 E45.90165
G1 X123.618 Y95.857 E46.00459
G1 X124.351 Y96.62 E46.18054
G1 X124.877 Y97.433 E46.34157
G1 X125.342 Y98.594 E46.54956
G1 X125.5 Y99.73 E46.74029
G1 X125.5 Y120.314 E50.16343
G1 X125.353 Y121.203 E50.31328
G1 X125.206 Y121.764 E50.40972
G1 X124.883 Y122.528 E50.54766
G1 X124.454 Y123.214 E50.68221
G1 X124.148 Y123.612 E50.7657
G1 X123.361 Y124.37 E50.94742
G1 X122.539 Y124.886 E51.10882
G1 X121.782 Y125.232 E51.24723
G1 X120.524 Y125.5 E51.46113
G1 X99.686 Y125.5 E54.92651
G1 X98.798 Y125.354 E55.07616
G1 X98.244 Y125.209 E55.1714
G1 X97.474 Y124.881 E55.31058
G1 X96.876 Y124.516 E55.42709
G1 X96.382 Y124.143 E55.53003
G1 X95.649 Y123.38 E55.70599
G1 X95.123 Y122.567 E55.86702
G1 X94.658 Y121.406 E56.075
G1 X94.5 Y120.27 E56.26574
G1 X94.5 Y99.686 E59.68887
G1 X94.646 Y98.798 E59.83853
G1 X94.791 Y98.244 E59.93377
G1 X95.119 Y97.474 E60.07295
G1 X95.484 Y96.876 E60.18946
G1 X95.857 Y96.382 E60.2924
G0 F6000 X96.605 Y97.05
G1 F1200 X97.243 Y96.437 E60.43954
G1 X97.897 Y96.014 E60.56906
G1 X98.85 Y95.632 E60.73981
G1 X99.802 Y95.5 E60.89964
G1 X120.235 Y95.5 E64.29766
G1 X120.949 Y95.614 E64.4179
G1 X121.435 Y95.741 E64.50144
G1 X122.067 Y96.01 E64.61567
G1 X122.602 Y96.337 E64.71994
G1 X122.95 Y96.605 E64.79299
G1 X123.563 Y97.243 E64.94012
G1 X123.986 Y97.897 E65.06965
G1 X124.368 Y98.85 E65.24039
G1 X124.5 Y99.802 E65.40023
G1 X124.5 Y120.235 E68.79825
G1 X124.386 Y120.949 E68.91849
G1 X124.257 Y121.441 E69.00308
G1 X123.994 Y122.063 E69.11538
G1 X123.661 Y122.604 E69.22103
G1 X123.398 Y122.946 E69.29278
G1 X122.741 Y123.579 E69.4445
G1 X122.063 Y124.004 E69.57757
G1 X121.467 Y124.277 E69.68659
G1 X120.419 Y124.5 E69.86477
G1 X99.765 Y124.5 E73.29955
G1 X99.051 Y124.386 E73.41979
G1 X98.565 Y124.259 E73.50332
G1 X97.933 Y123.99 E73.61755
G1 X97.398 Y123.663 E73.72182
G1 X97.05 Y123.395 E73.79487
G1 X96.437 Y122.757 E73.94201
G1 X96.014 Y122.103 E74.07153
G1 X95.632 Y121.15 E74.24228
G1 X95.5 Y120.198 E74.40211
G1 X95.5 Y99.765 E77.80013
G1 X95.614 Y99.051 E77.92037
G1 X95.741 Y98.565 E78.00391
G1 X96.01 Y97.933 E78.11814
G1 X96.337 Y97.398 E78.22241
G1 X96.605 Y97.05 E78.29546
G0 F6000 X97.35 Y97.721
G1 F1200 X97.19 Y97.92 E78.33792
G1 X96.9 Y98.394 E78.43033
G1 X96.692 Y98.883 E78.5187
G1 X96.582 Y99.304 E78.59106
G1 X96.5 Y99.846 E78.68222
G1 X96.5 Y120.132 E82.0558
G1 X96.605 Y120.888 E82.18273
G1 X96.908 Y121.646 E82.31848
G1 X97.222 Y122.131 E82.41457
G1 X97.721 Y122.65 E82.5343
G1 X97.92 Y122.81 E82.57676
G1 X98.394 Y123.1 E82.66917
G1 X98.883 Y123.308 E82.75755
G1 X99.304 Y123.418 E82.82991
G1 X99.846 Y123.5 E82.92107
G1 X120.314 Y123.5 E86.32491
G1 X121.15 Y123.322 E86.46706
G1 X121.584 Y123.123 E86.54646
G1 X122.124 Y122.785 E86.6524
G1 X122.651 Y122.277 E86.77413
G1 X122.809 Y122.08 E86.81612
G1 X123.101 Y121.605 E86.90885
G1 X123.308 Y121.117 E86.997
G1 X123.418 Y120.696 E87.06937
G1 X123.5 Y120.154 E87.16053
G1 X123.5 Y99.868 E90.5341
G1 X123.395 Y99.112 E90.66103
G1 X123.092 Y98.354 E90.79679
G1 X122.778 Y97.869 E90.89287
G1 X122.279 Y97.35 E91.0126
G1 X122.08 Y97.19 E91.05507
G1 X121.606 Y96.9 E91.14748
G1 X121.117 Y96.692 E91.23585
G1 X120.696 Y96.582 E91.30821
G1 X120.154 Y96.5 E91.39937
G1 X99.868 Y96.5 E94.77295
G1 X99.112 Y96.605 E94.89988
G1 X98.354 Y96.908 E95.03563
G1 X97.869 Y97.222 E95.13171
G1 X97.35 Y97.721 E95.25145
G0 F6000 X98.043 Y98.442
G1 F1200 X98.492 Y98.01 E95.35506
G1 X98.815 Y97.801 E95.41904
G1 X99.373 Y97.578 E95.51898
G1 X99.934 Y97.5 E95.61317
G1 X120.077 Y97.5 E98.96296
G1 X120.546 Y97.571 E99.04185
G1 X120.787 Y97.639 E99.08349
G1 X121.15 Y97.793 E99.14906
G1 X121.558 Y98.043 E99.22864
G1 X121.99 Y98.492 E99.33226
G1 X122.199 Y98.815 E99.39624
G1 X122.422 Y99.373 E99.49617
G1 X122.5 Y99.934 E99.59036
G1 X122.5 Y120.077 E102.94016
G1 X122.429 Y120.546 E103.01904
G1 X122.361 Y120.787 E103.06068
G1 X122.207 Y121.15 E103.12626
G1 X121.957 Y121.557 E103.20569
G1 X121.505 Y121.993 E103.31013
G1 X121.054 Y122.275 E103.39859
G1 X120.834 Y122.367 E103.43824
G1 X120.209 Y122.5 E103.54451
G1 X99.923 Y122.5 E106.91808
G1 X99.454 Y122.429 E106.99697
G1 X99.213 Y122.361 E107.03861
G1 X98.85 Y122.207 E107.10419
G1 X98.442 Y121.957 E107.18376
G1 X98.01 Y121.508 E107.28738
G1 X97.801 Y121.185 E107.35136
G1 X97.578 Y120.627 E107.45129
G1 X97.5 Y120.066 E107.54548
G1 X97.5 Y99.923 E110.89528
G1 X97.571 Y99.454 E110.97416
G1 X97.639 Y99.213 E111.0158
G1 X97.793 Y98.85 E111.08138
G1 X98.043 Y98.442 E111.16095
G1 F3600 E107.16095
G0 F6000 X99.652 Y99.641
G1 F3600 E111.16095
G1 F1200 X99.82 Y99.534 E111.19408
G1 X100 Y99.5 E111.22454
G1 X120 Y99.5 E114.55055
G1 X120.195 Y99.54 E114.58366
G1 X120.359 Y99.652 E114.61668
G1 X120.466 Y99.82 E114.64981
G1 X120.5 Y100 E114.68027
G1 X120.5 Y120 E118.00629
G1 X120.46 Y120.195 E118.03939
G1 X120.348 Y120.359 E118.07242
G1 X120.18 Y120.466 E118.10554
G1 X120 Y120.5 E118.136
G1 X100 Y120.5 E121.46202
G1 X99.805 Y120.46 E121.49512
G1 X99.641 Y120.348 E121.52815
G1 X99.534 Y120.18 E121.56127
G1 X99.5 Y120 E121.59173
G1 X99.5 Y100 E124.91775
G1 X99.54 Y99.805 E124.95085
G1 X99.652 Y99.641 E124.98388
G0 F6000 X98.826 Y99.077
G1 F1200 X99.186 Y98.73 E125.06703
G1 X99.634 Y98.551 E125.14726
G1 X100 Y98.5 E125.20871
G1 X120 Y98.5 E128.53473
G1 X120.396 Y98.56 E128.60133
G1 X120.759 Y98.714 E128.66691
G1 X120.923 Y98.826 E128.69994
G1 X121.27 Y99.186 E128.78309
G1 X121.449 Y99.634 E128.86332
G1 X121.5 Y100 E128.92477
G1 X121.5 Y120 E132.25078
G1 X121.44 Y120.396 E132.31739
G1 X121.286 Y120.759 E132.38297
G1 X121.174 Y120.923 E132.41599
G1 X120.885 Y121.202 E132.4828
G1 X120.561 Y121.405 E132.54638
G1 X120.104 Y121.5 E132.624
G1 X100 Y121.5 E135.96731
G1 X99.604 Y121.44 E136.03392
G1 X99.241 Y121.286 E136.09949
G1 X99.077 Y121.174 E136.13252
G1 X98.73 Y120.814 E136.21567
G1 X98.551 Y120.366 E136.2959
G1 X98.5 Y120 E136.35736
G1 X98.5 Y100 E139.68337
G1 X98.56 Y99.604 E139.74998
G1 X98.714 Y99.241 E139.81555
G1 X98.826 Y99.077 E139.84858
G1 F3600 E135.84858
;MESH:xyzCalibration_cube.stl
G0 F6000 X99.347 Y120.653
G0 X119.5 Y120.665
G0 X119.5 Y119.5
;TYPE:WALL-OUTER
G1 F3600 E139.84858
G1 F1200 X119.5 Y100.5 E143.00829
G1 X100.5 Y100.5 E146.168
G1 X100.5 Y119.5 E149.32772
G1 X119.5 Y119.5 E152.48743
G0 F6000 X118.6 Y118.6
;TYPE:SKIN
G1 F1200 X118.6 Y101.4 E155.3478
G1 X101.4 Y101.4 E158.20817
G1 X101.4 Y118.6 E161.06854
G1 X118.6 Y118.6 E163.92892
G1 F3600 E159.92892
G0 F6000 X120.665 Y118.6
G0 X120.653 Y99.347
G0 X117.456 Y99.335
G0 X117.456 Y101.9
G1 F3600 E163.92892
G1 F1200 X118.1 Y102.544 E164.08037
G0 F6000 X118.1 Y103.958
G1 F1200 X116.042 Y101.9 E164.56438
G0 F6000 X114.628 Y101.9
G1 F1200 X118.1 Y105.372 E165.38095
G0 F6000 X118.1 Y106.787
G1 F1200 X113.213 Y101.9 E166.53029
G0 F6000 X111.799 Y101.9
G1 F1200 X118.1 Y108.201 E168.01219
G0 F6000 X118.1 Y109.615
G1 F1200 X110.385 Y101.9 E169.82664
G0 F6000 X108.971 Y101.9
G1 F1200 X118.1 Y111.029 E171.97364
G0 F6000 X118.1 Y112.443
G1 F1200 X107.557 Y101.9 E174.45319
G0 F6000 X106.142 Y101.9
G1 F1200 X118.1 Y113.858 E177.26553
G0 F6000 X118.1 Y115.272
G1 F1200 X104.728 Y101.9 E180.41042
G0 F6000 X103.314 Y101.9
G1 F1200 X118.1 Y116.686 E183.88786
G0 F6000 X118.1 Y118.1
G1 F1200 X101.9 Y101.9 E187.69785
G0 F6000 X101.9 Y103.314
G1 F1200 X116.685 Y118.1 E191.17518
G0 F6000 X115.271 Y118.1
G1 F1200 X101.9 Y104.728 E194.31995
G0 F6000 X101.9 Y106.142
G1 F1200 X113.857 Y118.1 E197.13217
G0 F6000 X112.443 Y118.1
G1 F1200 X101.9 Y107.557 E199.61172
G0 F6000 X101.9 Y108.971
G1 F1200 X111.028 Y118.1 E201.7586
M104 S225
G0 F6000 X109.614 Y118.1
G1 F1200 X101.9 Y110.385 E203.57294
G0 F6000 X101.9 Y111.799
G1 F1200 X108.2 Y118.1 E205.05472
G0 F6000 X106.786 Y118.1
G1 F1200 X101.9 Y113.213 E206.20395
G0 F6000 X101.9 Y114.628
G1 F1200 X105.372 Y118.1 E207.02051
G0 F6000 X103.957 Y118.1
G1 F1200 X101.9 Y116.042 E207.5044
G0 F6000 X101.9 Y117.456
G1 F1200 X102.543 Y118.1 E207.65574
G1 F3600 E203.65574
;MESH:NONMESH
G0 F300 X102.543 Y118.1 Z1.2
G0 F6000 X102.543 Y120.665
G0 X119.5 Y120.665
G0 X119.5 Y119.5
;TIME_ELAPSED:73.511201
;LAYER:1
M140 S110
;TYPE:WALL-OUTER
;MESH:xyzCalibration_cube.stl
G1 F3600 E207.65574
G1 F1350 X119.5 Y100.5 E213.97517
G1 X100.5 Y100.5 E220.29459
G1 X100.5 Y119.5 E226.61402
G1 X119.5 Y119.5 E232.93345
G0 F7500 X118.6 Y118.6
;TYPE:SKIN
G1 F1350 X118.6 Y101.4 E238.65419
G1 X101.4 Y101.4 E244.37493
G1 X101.4 Y118.6 E250.09567
G1 X118.6 Y118.6 E255.81642
G1 F3600 E251.81642
G0 F7500 X118.1 Y116.66
G1 F3600 E255.81642
G1 F1350 X116.659 Y118.1 E256.49399
G0 F7500 X115.245 Y118.1
G1 F1350 X118.1 Y115.246 E257.83665
G0 F7500 X118.1 Y113.831
G1 F1350 X113.831 Y118.1 E259.84466
G0 F7500 X112.417 Y118.1
G1 F1350 X118.1 Y112.417 E262.51777
G0 F7500 X118.1 Y111.003
G1 F1350 X111.002 Y118.1 E265.85622
G0 F7500 X109.588 Y118.1
G1 F1350 X118.1 Y109.589 E269.85977
G0 F7500 X118.1 Y108.175
G1 F1350 X108.174 Y118.1 E274.52842
G0 F7500 X106.76 Y118.1
G1 F1350 X118.1 Y106.76 E279.8624
G0 F7500 X118.1 Y105.346
G1 F1350 X105.345 Y118.1 E285.86173
G0 F7500 X103.931 Y118.1
G1 F1350 X118.1 Y103.932 E292.52616
G0 F7500 X118.1 Y102.518
G1 F1350 X102.517 Y118.1 E299.85569
G0 F7500 X101.9 Y117.303
G1 F1350 X117.303 Y101.9 E307.10079
G0 F7500 X115.889 Y101.9
G1 F1350 X101.9 Y115.889 E313.68078
G0 F7500 X101.9 Y114.475
G1 F1350 X114.475 Y101.9 E319.59568
G0 F7500 X113.061 Y101.9
G1 F1350 X101.9 Y113.061 E324.84547
G0 F7500 X101.9 Y111.647
G1 F1350 X111.647 Y101.9 E329.43016
G0 F7500 X110.232 Y101.9
G1 F1350 X101.9 Y110.232 E333.34928
G0 F7500 X101.9 Y108.818
G1 F1350 X108.818 Y101.9 E336.60329
G0 F7500 X107.404 Y101.9
G1 F1350 X101.9 Y107.404 E339.19221
G0 F7500 X101.9 Y105.99
G1 F1350 X105.99 Y101.9 E341.11602
G0 F7500 X104.575 Y101.9
G1 F1350 X101.9 Y104.575 E342.37425
G0 F7500 X101.9 Y103.161
G1 F1350 X103.161 Y101.9 E342.96739
G1 F3600 E338.96739
;MESH:NONMESH
G0 F300 X103.161 Y101.9 Z2
G0 F7500 X103.161 Y99.335
G0 X120.653 Y99.347
G0 X120.665 Y119.5
G0 X119.5 Y119.5
;TIME_ELAPSED:96.107405
;LAYER:2
;note -- min layer time used
;TYPE:WALL-OUTER
;MESH:xyzCalibration_cube.stl
G1 F3600 E342.96739
G1 F618.3 X119.5 Y100.5 E349.28682
G1 X100.5 Y100.5 E355.60624
G1 X100.5 Y119.5 E361.92567
G1 X119.5 Y119.5 E368.24509
G0 F9000 X118.93 Y118.93
G0 X117.93 Y111.606
G0 X118.563 Y111.067
;TYPE:SKIN
G1 F575.7 X118.563 Y108.261 E369.24744
G1 X117.489 Y108.261 E369.63108
G1 X117.489 Y111.067 E370.63342
G1 X118.563 Y111.067 E371.01707
G0 F9000 X117.93 Y111.576
G0 X117.027 Y111.534
G0 X114.689 Y102.992
G0 X114.689 Y102.469
G1 F591.1 X114.689 Y101.423 E371.38098
G1 X111.759 Y101.423 E372.40033
G1 X111.759 Y102.469 E372.76423
G1 X114.689 Y102.469 E373.78358
G0 F9000 X114.689 Y102.992
G0 X107.418 Y102.99
G0 X107.418 Y102.466
G1 F591.7 X107.418 Y101.422 E374.14644
G1 F591.1 X104.64 Y101.423 E375.11291
G1 X104.642 Y102.468 E375.47647
G1 X107.418 Y102.466 E376.44224
G0 F9000 X107.419 Y103.89
;MESH:NONMESH
G0 F300 X107.419 Y103.89 Z2.8
G0 F9000 X118.93 Y118.93
G0 X119.5 Y119.5
;TIME_ELAPSED:107.725299
;LAYER:3
;note -- min layer time used
;TYPE:WALL-OUTER
;MESH:xyzCalibration_cube.stl
G1 F628.2 X119.5 Y100.5 E382.76167
G1 X100.5 Y100.5 E389.08109
G1 X100.5 Y119.5 E395.40052
G1 X119.5 Y119.5 E401.71995
G0 F9000 X118.93 Y118.93
G0 X117.93 Y111.606
G0 X118.564 Y111.068
;TYPE:SKIN
G1 F585.5 X118.564 Y108.252 E402.72492
G1 X117.492 Y108.252 E403.1075
G1 X117.489 Y111.068 E404.11248
G1 X118.564 Y111.068 E404.49612
G0 F9000 X117.93 Y111.576
G0 X117.027 Y111.534
G0 X114.689 Y102.992
G0 X114.689 Y102.469
G1 F600.6 X114.689 Y101.423 E404.86003
G1 X111.274 Y101.423 E406.04811
G1 X111.272 Y102.469 E406.41202
G1 X114.689 Y102.469 E407.60079
G0 F9000 X114.689 Y102.992
G0 X110.823 Y102.921
G0 X108.417 Y102.466
G0 X107.894 Y102.466
G1 F601.7 X107.894 Y101.422 E407.96331
G1 F601.2 X104.64 Y101.423 E409.0943
G1 F600.6 X104.642 Y102.469 E409.4582
G1 F601.2 X107.894 Y102.466 E410.58849
G0 F9000 X109.317 Y103
;MESH:NONMESH
G0 F300 X109.317 Y103 Z3.6
G0 F9000 X118.93 Y118.93
G0 X119.5 Y119.5
;TIME_ELAPSED:119.163463
;LAYER:4
;note -- min layer time used
;TYPE:WALL-OUTER
;MESH:xyzCalibration_cube.stl
G1 F639.8 X119.5 Y100.5 E416.90792
G1 X100.5 Y100.5 E423.22735
G1 X100.5 Y119.5 E429.54677
G1 X119.5 Y119.5 E435.8662
G0 F9000 X118.93 Y118.93
G0 X117.93 Y111.606
G0 X118.564 Y111.068
;TYPE:SKIN
G1 F596.3 X118.564 Y108.244 E436.87403
G1 X117.492 Y108.244 E437.25661
G1 X117.489 Y111.068 E438.26444
G1 X118.564 Y111.068 E438.64809
G0 F9000 X117.93 Y111.576
G0 X117.027 Y111.534
G0 X114.689 Y102.992
G0 X114.689 Y102.469
G1 F611.7 X114.689 Y101.423 E439.01199
G1 F612.3 X110.786 Y101.422 E440.36855
G1 F612.9 X110.786 Y102.466 E440.73106
G1 F612.3 X114.689 Y102.469 E442.08762
G0 F9000 X114.689 Y102.992
G0 X110.336 Y102.919
G0 X108.891 Y102.466
G0 X108.366 Y102.466
G1 F612.9 X108.366 Y101.422 E442.45014
G1 F612.3 X104.64 Y101.423 E443.74518
G1 F611.7 X104.642 Y102.469 E444.10908
G1 F612.3 X108.366 Y102.466 E445.40343
G0 F9000 X109.791 Y103
;MESH:NONMESH
G0 F300 X109.791 Y103 Z4.4
G0 F9000 X117.027 Y111.534
G0 X117.798 Y111.606
G0 X117.798 Y110.936
;TIME_ELAPSED:130.606203
;LAYER:5
;note -- min layer time used
;TYPE:WALL-OUTER
;MESH:xyzCalibration_cube.stl
G1 F600 X117.606 Y110.732 E445.49661
G1 X117.552 Y110.53 E445.56615
G1 X117.553 Y108.78 E446.1482
G1 X117.582 Y108.65 E446.1925
G1 X117.692 Y108.476 E446.26097
G1 X117.934 Y108.324 E446.35602
G1 X119.5 Y108.324 E446.87687
G1 X119.5 Y100.5 E449.47915
G1 X114.612 Y100.5 E451.1049
G1 X114.612 Y101.892 E451.56788
G1 X114.575 Y102.083 E451.63259
G1 X114.436 Y102.274 E451.71116
G1 X114.167 Y102.39 E451.80859
G1 X112.283 Y102.39 E452.43521
G1 X112.006 Y102.269 E452.53575
G1 X111.868 Y102.071 E452.61602
G1 X111.836 Y101.89 E452.67716
G1 X111.838 Y100.5 E453.13947
G1 X107.34 Y100.5 E454.63552
G1 X107.34 Y101.888 E455.09717
G1 X107.307 Y102.068 E455.15803
G1 X107.17 Y102.265 E455.23784
G1 X106.935 Y102.388 E455.32606
G1 X105.141 Y102.387 E455.92275
G1 X104.964 Y102.325 E455.98513
G1 X104.793 Y102.16 E456.06416
G1 X104.716 Y101.892 E456.1569
G1 X104.716 Y100.5 E456.61989
G1 X100.5 Y100.5 E458.02213
G1 X100.5 Y119.5 E464.34156
G1 X119.5 Y119.5 E470.66098
G1 X119.5 Y111.004 E473.48676
G1 X118.052 Y111.004 E473.96837
G1 X117.798 Y110.936 E474.05583
G0 F9000 X117.797 Y112.605
G0 X116.027 Y112.533
G0 X110.31 Y103.92
G0 X109.849 Y102.922
G0 X109.807 Y102.07
G0 X110.823 Y101.938
;TYPE:SKIN
G1 F357.8 X110.718 Y101.757 E474.17254
G1 X110.509 Y101.757 E474.28912
G1 X110.405 Y101.938 E474.40555
G1 X110.51 Y102.119 E474.52227
G1 X110.719 Y102.119 E474.63884
G1 X110.823 Y101.938 E474.75528
G0 F9000 X109.807 Y102.07
G0 X109.334 Y102.07
G0 X108.747 Y101.936
G1 F365.2 X108.644 Y101.758 E474.86766
G1 X108.439 Y101.758 E474.97968
G1 X108.337 Y101.936 E475.09179
G1 X108.44 Y102.114 E475.20417
G1 X108.645 Y102.114 E475.3162
G1 X108.747 Y101.936 E475.42831
;MESH:NONMESH
G0 F300 X108.747 Y101.936 Z5.2
G0 F9000 X109.334 Y102.07
G0 X110.31 Y103.92
G0 X115.955 Y110.832
G0 X117.684 Y110.832
;TIME_ELAPSED:140.905150
;LAYER:6
;note -- min layer time used
;TYPE:WALL-OUTER
;MESH:xyzCalibration_cube.stl
G1 F600 X117.586 Y110.67 E475.49128
G1 X117.556 Y110.523 E475.54118
G1 X117.558 Y108.761 E476.12723
G1 X117.63 Y108.553 E476.20043
G1 X117.726 Y108.439 E476.25
G1 X117.939 Y108.316 E476.33181
G1 X119.5 Y108.316 E476.851
G1 X119.5 Y100.5 E479.45061
G1 X114.107 Y100.5 E481.24433
G1 X114.104 Y101.894 E481.70798
G1 X114.054 Y102.112 E481.78237
G1 X113.881 Y102.309 E481.86957
G1 X113.667 Y102.388 E481.94544
G1 X111.823 Y102.392 E482.55876
G1 X111.67 Y102.359 E482.61082
G1 X111.473 Y102.22 E482.69101
G1 X111.352 Y101.959 E482.7867
G1 X111.352 Y100.5 E483.27196
G1 X107.816 Y100.5 E484.44804
G1 X107.816 Y101.956 E484.93231
G1 X107.694 Y102.216 E485.02783
G1 X107.55 Y102.331 E485.08912
G1 X107.367 Y102.386 E485.15268
G1 X105.588 Y102.387 E485.74438
G1 X105.419 Y102.331 E485.80359
G1 X105.252 Y102.182 E485.87803
G1 X105.16 Y101.892 E485.97922
G1 X105.16 Y100.5 E486.4422
G1 X100.5 Y100.5 E487.99213
G1 X100.5 Y119.5 E494.31155
G1 X119.5 Y119.5 E500.63098
G1 X119.5 Y110.996 E503.45942
G1 X117.938 Y110.996 E503.97894
G1 X117.684 Y110.832 E504.0795
G0 F9000 X115.956 Y110.832
G0 X109.821 Y103.921
G0 X109.78 Y102.965
G0 X110.556 Y102.468
;TYPE:SKIN
G1 F573.6 X110.429 Y102.092 E504.21757
G1 X110.429 Y101.423 E504.45032
G1 X108.739 Y101.423 E505.03827
G1 X108.739 Y102.095 E505.27206
G1 X108.61 Y102.469 E505.4097
G1 X110.556 Y102.468 E506.08671
;MESH:NONMESH
G0 F300 X110.556 Y102.468 Z6
G0 F9000 X109.78 Y102.965
G0 X109.821 Y103.921
G0 X116.028 Y112.524
G0 X117.735 Y112.596
G0 X117.736 Y110.873
;TIME_ELAPSED:151.315381
;LAYER:7
;note -- min layer time used
;TYPE:WALL-OUTER
;MESH:xyzCalibration_cube.stl
G1 F600 X117.642 Y110.77 E506.13309
G1 X117.556 Y110.579 E506.20276
G1 X117.556 Y108.791 E506.79745
G1 X117.65 Y108.514 E506.89475
G1 X117.784 Y108.388 E506.95592
G1 X118.056 Y108.308 E507.05022
G1 X119.5 Y108.308 E507.5305
G1 X119.5 Y100.5 E510.12745
G1 X113.6 Y100.5 E512.0898
G1 X113.6 Y101.892 E512.55278
G1 X113.537 Y102.136 E512.63659
G1 X113.411 Y102.285 E512.7015
G1 X113.169 Y102.388 E512.78897
G1 X111.3 Y102.389 E513.41061
G1 X111.126 Y102.333 E513.4714
G1 X110.91 Y102.103 E513.57635
G1 X110.865 Y101.936 E513.63387
G1 X110.864 Y100.5 E514.11149
G1 X108.288 Y100.5 E514.96827
G1 X108.287 Y101.936 E515.44588
G1 X108.242 Y102.103 E515.50341
G1 X108.08 Y102.298 E515.58773
G1 X107.876 Y102.392 E515.66244
G1 X106.034 Y102.388 E516.27509
G1 X105.872 Y102.336 E516.33168
G1 X105.647 Y102.096 E516.4411
G1 X105.604 Y101.892 E516.51044
G1 X105.604 Y100.5 E516.97342
G1 X100.5 Y100.5 E518.67102
G1 X100.5 Y119.5 E524.99044
G1 X119.5 Y119.5 E531.30987
G1 X119.5 Y110.988 E534.14097
G1 X117.945 Y110.988 E534.65816
G1 X117.736 Y110.873 E534.73751
G0 F9000 X117.735 Y112.588
G0 X116.028 Y112.516
G0 X115.212 Y102.352
G0 X114.571 Y102.351
;TYPE:SKIN
G1 F481.2 X114.606 Y101.884 E534.93174
G1 F495 X114.606 Y101.506 E535.08412
G0 F9000 X115.183 Y102.07
G0 X115.126 Y103.923
G0 X110.185 Y103.992
G0 X110.186 Y102.541
G1 F666.7 X110.113 Y102.39 E535.13432
G1 X110.019 Y102.026 E535.24686
G1 F670.4 X110.019 Y101.345 E535.44958
G1 F674.2 X109.131 Y101.345 E535.71244
G1 F670.4 X109.129 Y102.026 E535.91516
G1 F666.7 X109.036 Y102.39 E536.02762
G1 X108.961 Y102.542 E536.07835
G1 X110.186 Y102.541 E536.44505
G0 F9000 X110.185 Y104.892
;MESH:NONMESH
G0 F300 X110.185 Y104.892 Z6.8
G0 F9000 X116.028 Y112.516
G0 X117.735 Y112.588
G0 X117.736 Y110.865
;TIME_ELAPSED:162.132323
;LAYER:8
;note -- min layer time used
;TYPE:WALL-OUTER
;MESH:xyzCalibration_cube.stl
G1 F600 X117.642 Y110.762 E536.49143
G1 X117.556 Y110.568 E536.56201
G1 X117.559 Y108.744 E537.16867
G1 X117.67 Y108.481 E537.26362
G1 X117.88 Y108.331 E537.34945
G1 X118.056 Y108.3 E537.40889
G1 X119.5 Y108.3 E537.88917
G1 X119.5 Y100.5 E540.48346
G1 X113.096 Y100.5 E542.61344
G1 X113.096 Y102.014 E543.117
G1 X112.935 Y102.26 E543.21478
G1 X112.818 Y102.341 E543.26211
G1 X112.644 Y102.39 E543.32224
G1 X110.835 Y102.391 E543.92391
G1 X110.645 Y102.336 E543.9897
G1 F575.8 X110.419 Y102.185 E544.0839
G1 F500.8 X110.223 Y101.949 E544.20614
G1 F458.7 X110.223 Y100.653 E544.76995
G1 F459.4 X108.917 Y100.653 E545.33725
G1 F458.7 X108.917 Y101.949 E545.90106
G1 F500.8 X108.721 Y102.185 E546.0233
G1 F575.8 X108.495 Y102.336 E546.1175
G1 F600 X108.307 Y102.391 E546.18265
G1 X106.48 Y102.388 E546.79031
G1 X106.325 Y102.34 E546.84428
G1 X106.102 Y102.119 E546.9487
G1 X106.048 Y101.892 E547.02631
G1 X106.048 Y100.5 E547.48929
G1 X100.5 Y100.5 E549.33457
G1 X100.501 Y119.499 E555.65366
G1 X119.5 Y119.5 E561.97275
G1 X119.5 Y110.98 E564.80652
G1 X117.945 Y110.98 E565.32371
G1 X117.736 Y110.865 E565.40305
G0 F9000 X117.735 Y112.579
G0 X116.031 Y112.507
G0 X114.706 Y102.352
G0 X114.064 Y102.351
;TYPE:SKIN
G1 F481.5 X114.101 Y101.88 E565.59885
G1 F495.9 X114.101 Y101.505 E565.74976
G0 F9000 X115.606 Y102.708
;MESH:NONMESH
G0 F300 X115.606 Y102.708 Z7.6
G0 F9000 X115.312 Y103.6
G0 X109.848 Y102.922
G0 X109.562 Y101.1
G0 X109.562 Y100.826
;TIME_ELAPSED:172.116905
;LAYER:9
;note -- min layer time used
;TYPE:WALL-OUTER
;MESH:xyzCalibration_cube.stl
G1 F362.5 X109.562 Y101.964 E566.37618
G1 F3600 E562.37618
G0 F9000 X109.562 Y103.995
G0 X116.032 Y112.498
G0 X117.738 Y112.57
G0 X117.739 Y110.853
G1 F3600 E566.37618
G1 F600 X117.646 Y110.75 E566.42234
G1 X117.56 Y110.557 E566.49261
G1 X117.56 Y108.703 E567.10926
G1 X117.71 Y108.43 E567.21286
G1 X117.877 Y108.322 E567.27901
G1 X118.06 Y108.288 E567.34092
G1 X119.5 Y108.288 E567.81986
G1 X119.5 Y100.5 E570.41016
G1 X112.591 Y100.5 E572.7081
G1 X112.588 Y101.894 E573.17175
G1 X112.502 Y102.174 E573.26917
G1 X112.382 Y102.298 E573.32657
G1 X112.138 Y102.39 E573.4133
G1 X110.305 Y102.386 E574.02296
G1 F535.2 X109.915 Y102.295 E574.17227
G1 F413.8 X109.562 Y101.964 E574.40565
G1 X109.209 Y102.295 E574.63903
G1 F535.2 X108.765 Y102.392 E574.80848
G1 F600 X106.926 Y102.388 E575.42013
G1 X106.777 Y102.344 E575.4718
G1 X106.622 Y102.229 E575.536
G1 X106.492 Y102.003 E575.62271
G1 X106.492 Y100.5 E576.12261
G1 X100.5 Y100.5 E578.11556
G1 X100.5 Y119.5 E584.43499
G1 X119.5 Y119.5 E590.75441
G1 X119.5 Y110.971 E593.59117
G1 X117.947 Y110.968 E594.1077
G1 X117.739 Y110.853 E594.18675
G0 F9000 X117.738 Y112.57
G0 X116.032 Y112.498
G0 X114.2 Y102.349
G0 X113.556 Y102.348
;TYPE:SKIN
G1 F478.5 X113.59 Y101.993 E594.33549
G1 F493.4 X113.594 Y101.506 E594.53246
G0 F9000 X115.1 Y102.708
;MESH:NONMESH
G0 F300 X115.1 Y102.708 Z8.4
G0 F9000 X116.032 Y112.498
G0 X117.738 Y112.57
G0 X117.739 Y110.844
;TIME_ELAPSED:182.878469
;LAYER:10
;note -- min layer time used
;TYPE:WALL-OUTER
;MESH:xyzCalibration_cube.stl
G1 F600 X117.646 Y110.742 E594.57837
G1 X117.56 Y110.549 E594.64865
G1 X117.56 Y108.749 E595.24733
G1 X117.643 Y108.503 E595.33368
G1 X117.87 Y108.317 E595.43129
G1 X118.06 Y108.28 E595.49567
G1 X119.5 Y108.28 E595.97462
G1 X119.5 Y100.5 E598.56226
G1 X112.084 Y100.5 E601.02883
G1 X112.084 Y101.896 E601.49314
G1 X112.047 Y102.086 E601.55752
G1 X111.969 Y102.217 E601.60823
G1 X111.763 Y102.364 E601.6924
G1 X111.635 Y102.394 E601.73613
G1 X107.381 Y102.39 E603.15102
G1 X107.129 Y102.288 E603.24144
G1 X107.011 Y102.157 E603.30008
G1 X106.936 Y101.892 E603.39168
G1 X106.936 Y100.5 E603.85466
G1 X100.5 Y100.5 E605.99528
G1 X100.5 Y119.5 E612.31471
G1 X119.5 Y119.5 E618.63413
G1 X119.5 Y110.963 E621.47355
G1 X117.947 Y110.96 E621.99008
G1 X117.739 Y110.844 E622.0693
G0 F9000 X117.738 Y112.562
G0 X116.033 Y112.49
G0 X113.695 Y102.347
G0 X113.05 Y102.346
;TYPE:SKIN
G1 F477.7 X113.086 Y101.993 E622.21753
G1 F493.4 X113.09 Y101.506 E622.4145
G0 F9000 X114.595 Y102.708
;MESH:NONMESH
G0 F300 X114.595 Y102.708 Z9.2
G0 F9000 X116.033 Y112.49
G0 X117.738 Y112.562
G0 X117.739 Y110.836
;TIME_ELAPSED:192.526917
;LAYER:11
;note -- min layer time used
;TYPE:WALL-OUTER
;MESH:xyzCalibration_cube.stl
G1 F600 X117.591 Y110.627 E622.49967
G1 X117.56 Y110.479 E622.54997
G1 X117.561 Y108.734 E623.13036
G1 X117.618 Y108.537 E623.19857
G1 X117.695 Y108.429 E623.24268
G1 X117.866 Y108.31 E623.31197
G1 X118.06 Y108.272 E623.37772
G1 X119.5 Y108.272 E623.85667
G1 X119.5 Y100.5 E626.44165
G1 X111.579 Y100.5 E629.07618
G1 X111.576 Y101.898 E629.54116
G1 X111.535 Y102.096 E629.60841
G1 X111.373 Y102.299 E629.6948
G1 X111.175 Y102.396 E629.76813
G1 X107.827 Y102.394 E630.88168
G1 X107.582 Y102.299 E630.96908
G1 X107.411 Y102.072 E631.0636
G1 X107.38 Y101.896 E631.12304
G1 X107.38 Y100.5 E631.58735
G1 X100.5 Y100.5 E633.87565
G1 X100.5 Y119.5 E640.19508
G1 X119.5 Y119.5 E646.5145
G1 X119.5 Y110.952 E649.35758
G1 X117.947 Y110.952 E649.87411
G1 X117.739 Y110.836 E649.95332
G0 F9000 X115.962 Y110.836
G0 X116.034 Y112.481
G0 X117.647 Y112.663
G0 X117.649 Y111.977
;TYPE:SKIN
G1 F447.8 X118.072 Y112.007 E650.14232
G1 F458 X118.445 Y112.007 E650.30484
G0 F9000 X117.93 Y112.634
G0 X116.034 Y112.481
G0 X116.034 Y106.746
G0 X116.848 Y106.59
G0 X117.93 Y106.512
G0 X118.404 Y107.176
G1 F429.2 X117.951 Y107.181 E650.51548
G1 F420.5 X117.69 Y107.206 E650.63993
G0 F9000 X117.69 Y106.482
G0 X113.189 Y102.345
G0 X112.54 Y102.344
G1 F476.9 X112.578 Y101.989 E650.78931
G1 F493.4 X112.582 Y101.506 E650.98467
G0 F9000 X114.089 Y102.708
;MESH:NONMESH
G0 F300 X114.089 Y102.708 Z10
G0 F9000 X116.034 Y112.481
G0 X117.685 Y112.663
G0 X117.689 Y110.993
;TIME_ELAPSED:202.989496
;LAYER:12
;note -- min layer time used
;TYPE:WALL-OUTER
;MESH:xyzCalibration_cube.stl
G1 F600 X117.564 Y110.721 E651.08423
G1 X117.562 Y108.488 E651.82693
G1 X117.658 Y108.237 E651.91631
G1 X117.872 Y108.072 E652.00619
G1 X118.06 Y108.036 E652.06985
G1 X119.5 Y108.036 E652.5488
G1 X119.5 Y100.5 E655.05528
G1 X111.072 Y100.5 E657.85845
G1 X111.072 Y101.896 E658.32276
G1 X111.008 Y102.142 E658.4073
G1 X110.911 Y102.264 E658.45914
G1 X110.632 Y102.393 E658.56137
G1 X108.273 Y102.394 E659.34598
G1 X108.035 Y102.305 E659.43049
G1 X107.86 Y102.083 E659.52451
G1 X107.824 Y101.896 E659.58785
G1 X107.824 Y100.5 E660.05216
G1 X100.5 Y100.5 E662.48814
G1 X100.501 Y119.499 E668.80723
G1 X119.5 Y119.5 E675.12632
G1 X119.5 Y111.159 E677.90055
G1 X117.942 Y111.156 E678.41874
G1 X117.689 Y110.993 E678.51885
G0 F9000 X115.962 Y110.992
G0 X116.033 Y112.683
G0 X117.93 Y117.93
G0 X119.3 Y118.983
;TYPE:FILL
G1 F600 X118.983 Y119.3 E678.66795
G0 F9000 X117.93 Y117.93
G0 X102.07 Y117.93
G0 X101.014 Y119.299
G1 F600 X100.7 Y118.984 E678.81588
G0 F9000 X102.07 Y117.93
G0 X102.07 Y102.07
G0 X100.7 Y101.014
G1 F600 X101.015 Y100.7 E678.96381
G0 F9000 X102.07 Y102.07
G0 X106.302 Y103.925
G0 X112.598 Y103.925
G0 X117.93 Y102.07
G0 X118.984 Y100.7
G1 F600 X119.3 Y101.016 E679.11245
G0 F9000 X117.93 Y102.07
G0 X117.93 Y106.034
G0 X118.207 Y106.826
;TYPE:SKIN
G1 F363.6 X118.104 Y106.648 E679.22531
G1 X117.898 Y106.648 E679.33836
G1 X117.795 Y106.826 E679.45122
G1 X117.898 Y107.004 E679.56408
G1 X118.104 Y107.004 E679.67714
G1 X118.207 Y106.826 E679.79
G0 F9000 X117.93 Y106.034
G0 X117.04 Y106.076
G0 X116.036 Y106.513
G0 X116.033 Y112.683
G0 X116.937 Y113.007
G0 X117.93 Y113.087
G0 X118.238 Y112.326
G1 F380.5 X118.139 Y112.155 E679.89363
G1 X117.942 Y112.155 E679.99696
G1 X117.844 Y112.326 E680.10034
G1 X117.943 Y112.497 E680.20398
G1 X118.14 Y112.497 E680.30731
G1 X118.238 Y112.326 E680.41069
G0 F9000 X117.93 Y113.087
G0 X117.037 Y113.043
G0 X116.033 Y112.683
G0 X112.683 Y102.355
G0 X112.042 Y102.354
G1 F480.8 X112.078 Y101.884 E680.60635
G1 F495 X112.078 Y101.506 E680.75872
G0 F9000 X113.583 Y102.708
;MESH:NONMESH
G0 F300 X113.583 Y102.708 Z10.8
G0 F9000 X116.033 Y112.683
G0 X116.995 Y112.727
G0 X117.694 Y111.45
;TIME_ELAPSED:215.886034
;LAYER:13
;note -- min layer time used
;TYPE:WALL-OUTER
;MESH:xyzCalibration_cube.stl
G1 F633.8 X117.56 Y111.182 E680.85838
G1 X117.566 Y108.013 E681.9124
G1 X117.644 Y107.787 E681.99192
G1 X117.783 Y107.646 E682.05777
G1 X118.062 Y107.56 E682.15487
G1 X119.5 Y107.557 E682.63316
G1 X119.5 Y100.5 E684.98032
G1 X111.046 Y100.5 E687.79214
G1 X111.048 Y101.894 E688.25578
G1 X111.008 Y102.093 E688.32329
G1 X110.846 Y102.298 E688.4102
G1 X110.596 Y102.394 E688.49927
G1 X108.345 Y102.394 E689.24795
G1 X108.108 Y102.306 E689.33204
G1 X107.932 Y102.085 E689.426
G1 X107.896 Y101.896 E689.49
G1 X107.896 Y100.5 E689.95431
G1 X100.501 Y100.501 E692.41389
G1 X100.5 Y119.5 E698.73299
G1 X119.5 Y119.5 E705.05241
G1 X119.5 Y111.611 E707.67631
G1 X118.058 Y111.608 E708.15592
G1 X117.863 Y111.568 E708.22213
G1 X117.694 Y111.45 E708.29068
G0 F9000 X115.963 Y111.449
G0 X116.034 Y113.135
G0 X117.93 Y117.93
G0 X119.3 Y118.184
;TYPE:FILL
G1 F633.8 X118.184 Y119.3 E708.81561
G0 F9000 X117.93 Y117.93
G0 X102.07 Y117.93
G0 X101.814 Y119.3
G1 F633.8 X100.7 Y118.185 E709.33984
G0 F9000 X102.07 Y117.93
G0 X102.07 Y102.07
G0 X100.701 Y101.813
G1 F633.8 X101.813 Y100.7 E709.86313
G0 F9000 X102.07 Y102.07
G0 X106.368 Y103.927
G0 X112.58 Y103.924
G0 X117.93 Y102.07
G0 X118.185 Y100.7
G1 F633.8 X119.3 Y101.815 E710.38759
G0 F9000 X117.93 Y102.07
G0 X117.93 Y105.556
G0 X118.248 Y106.35
;TYPE:SKIN
G1 F383.4 X118.145 Y106.172 E710.50065
G1 X117.939 Y106.172 E710.61391
G1 X117.836 Y106.35 E710.72698
G1 X117.939 Y106.528 E710.84004
G1 X118.145 Y106.528 E710.9533
G1 X118.248 Y106.35 E711.06636
G0 F9000 X117.93 Y105.556
G0 X112.621 Y102.969
G0 X111.707 Y102.555
G1 F718.6 X112.743 Y102.555 E711.37028
G1 F724.3 X112.75 Y101.334 E711.72563
G1 F730.1 X111.88 Y101.334 E711.97679
G1 F726.8 X111.878 Y101.973 E712.16212
G1 F720.2 X111.804 Y102.342 E712.27228
G1 F718.6 X111.707 Y102.555 E712.34094
G0 F9000 X112.621 Y102.969
G0 X112.58 Y103.924
G0 X106.368 Y103.927
G0 X106.055 Y103.028
G0 X105.978 Y102.07
G0 X106.929 Y101.939
G1 F403.4 X106.831 Y101.769 E712.44347
G1 X106.635 Y101.769 E712.54588
G1 X106.537 Y101.939 E712.64841
G1 X106.635 Y102.109 E712.75094
G1 X106.831 Y102.109 E712.85335
G1 X106.929 Y101.939 E712.95588
G0 F9000 X105.978 Y102.07
G0 X106.02 Y102.928
G0 X106.368 Y103.927
G0 X116.034 Y113.135
G0 X116.934 Y113.463
G0 X117.93 Y113.541
G0 X118.24 Y112.777
G1 F400.4 X118.141 Y112.606 E713.05992
G1 X117.944 Y112.606 E713.16364
G1 X117.846 Y112.777 E713.26741
G1 X117.945 Y112.948 E713.37144
G1 X118.142 Y112.948 E713.47516
G1 X118.24 Y112.777 E713.57893
G0 F9000 X117.293 Y114.471
;MESH:NONMESH
G0 F300 X117.293 Y114.471 Z11.6
G0 F9000 X116.993 Y113.179
G0 X117.652 Y111.854
;TIME_ELAPSED:229.282885
;LAYER:14
;note -- min layer time used
;TYPE:WALL-OUTER
;MESH:xyzCalibration_cube.stl
G1 F658.2 X117.562 Y111.615 E713.66388
G1 X117.566 Y107.532 E715.02189
G1 X117.649 Y107.299 E715.10415
G1 X117.8 Y107.155 E715.17355
G1 X118.064 Y107.08 E715.26483
G1 X119.5 Y107.08 E715.74245
G1 X119.5 Y100.5 E717.93097
G1 X111.56 Y100.5 E720.57182
G1 X111.56 Y101.896 E721.03613
G1 X111.526 Y102.08 E721.09837
G1 X111.369 Y102.29 E721.18558
G1 X111.06 Y102.397 E721.29434
G1 X107.896 Y102.394 E722.34669
G1 X107.652 Y102.3 E722.43366
G1 X107.48 Y102.074 E722.52812
G1 X107.448 Y101.896 E722.58827
G1 X107.448 Y100.5 E723.05258
G1 X100.5 Y100.5 E725.3635
G1 X100.5 Y119.5 E731.68292
G1 X119.5 Y119.5 E738.00235
G1 X119.5 Y112.067 E740.47457
G1 X118.058 Y112.064 E740.95418
G1 X117.874 Y112.029 E741.01648
G1 X117.652 Y111.854 E741.1105
G0 F9000 X115.964 Y111.853
G0 X116.035 Y113.588
G0 X117.9 Y117.385
G0 X119.3 Y117.385
;TYPE:FILL
G1 F658.2 X117.384 Y119.3 E742.01149
G0 F9000 X117.384 Y117.9
G0 X102.615 Y117.9
G0 X102.615 Y119.3
G1 F658.2 X100.7 Y117.385 E742.91225
G0 F9000 X102.1 Y117.385
G0 X102.1 Y102.615
G0 X100.7 Y102.615
G1 F658.2 X102.615 Y100.7 E743.81301
G0 F9000 X102.615 Y102.1
G0 X105.92 Y103.928
G0 X113.09 Y103.925
G0 X117.385 Y102.1
G0 X117.385 Y100.7
G1 F658.2 X119.3 Y102.615 E744.71377
G0 F9000 X117.9 Y102.615
G0 X117.93 Y105.077
G0 X118.248 Y105.87
;TYPE:SKIN
G1 F398.2 X118.145 Y105.692 E744.82683
G1 X117.939 Y105.692 E744.94009
G1 X117.836 Y105.87 E745.05315
G1 X117.939 Y106.048 E745.16622
G1 X118.145 Y106.048 E745.27948
G1 X118.248 Y105.87 E745.39254
G0 F9000 X117.93 Y105.077
G0 X113.131 Y102.97
G0 X112.203 Y102.56
G1 F747.9 X113.252 Y102.56 E745.69957
G1 F753.9 X113.259 Y101.333 E746.05585
G1 F760 X112.393 Y101.333 E746.30529
G1 F756.5 X112.389 Y101.97 E746.48962
G1 F750.5 X112.328 Y102.307 E746.58951
G1 F747.9 X112.203 Y102.56 E746.67211
G0 F9000 X113.131 Y102.97
G0 X113.09 Y103.925
G0 X105.92 Y103.928
G0 X105.605 Y103.029
G0 X105.528 Y102.07
G0 X106.478 Y101.939
G1 F418.2 X106.38 Y101.769 E746.77483
G1 X106.184 Y101.769 E746.87744
G1 X106.086 Y101.939 E746.98017
G1 X106.184 Y102.109 E747.0829
G1 X106.38 Y102.109 E747.18551
G1 X106.478 Y101.939 E747.28823
G0 F9000 X105.528 Y102.07
G0 X105.57 Y102.929
G0 X105.92 Y103.928
G0 X116.035 Y113.588
G0 X116.939 Y113.914
G0 X117.93 Y113.994
G0 X118.239 Y113.232
G1 F416.8 X118.14 Y113.061 E747.392
G1 X117.943 Y113.061 E747.49546
G1 X117.845 Y113.232 E747.59897
G1 X117.944 Y113.403 E747.70274
G1 X118.141 Y113.403 E747.8062
G1 X118.239 Y113.232 E747.90971
G0 F9000 X117 Y114.63
;MESH:NONMESH
G0 F300 X117 Y114.63 Z12.4
G0 F9000 X116.035 Y113.588
G0 X115.966 Y109.564
G0 X118.001 Y109.566
;TIME_ELAPSED:242.906710
;LAYER:15
;note -- min layer time used
;TYPE:WALL-OUTER
;MESH:xyzCalibration_cube.stl
G1 F454 X119.226 Y109.566 E748.54164
G1 F3600 E744.54164
G0 F9000 X117.048 Y109.562
G0 X115.965 Y112.375
G0 X117.717 Y112.377
G1 F3600 E748.54164
G1 F704.2 X117.621 Y112.25 E748.59459
G1 X117.566 Y112.068 E748.65783
G1 X117.574 Y110.256 E749.26051
G1 F649.6 X117.658 Y109.924 E749.38398
G1 F517.4 X118.001 Y109.566 E749.60841
G1 X117.658 Y109.208 E749.83284
G1 F649.6 X117.574 Y108.876 E749.95631
G1 F704.2 X117.57 Y106.977 E750.58793
G1 X117.709 Y106.75 E750.67646
G1 X117.956 Y106.6 E750.77257
G1 X119.5 Y106.6 E751.28611
G1 X119.5 Y100.5 E753.31498
G1 X112.07 Y100.5 E755.7862
G1 X112.072 Y101.894 E756.24985
G1 X112.043 Y102.066 E756.30787
G1 X111.934 Y102.242 E756.37672
G1 X111.781 Y102.351 E756.4392
G1 X111.625 Y102.394 E756.49302
G1 X107.442 Y102.394 E757.88429
G1 X107.19 Y102.293 E757.97459
G1 X107.072 Y102.163 E758.03299
G1 X106.996 Y101.896 E758.12532
G1 X106.996 Y100.5 E758.58963
G1 X100.501 Y100.501 E760.74987
G1 X100.5 Y119.5 E767.06897
G1 X119.5 Y119.5 E773.38839
G1 X119.5 Y112.519 E775.71028
G1 X118.062 Y112.516 E776.18857
G1 X117.89 Y112.485 E776.24669
G1 X117.717 Y112.377 E776.31453
G0 F9000 X115.965 Y112.375
G0 X116.035 Y114.041
G0 X117.9 Y116.584
G0 X119.3 Y116.584
;TYPE:FILL
G1 F704.2 X116.584 Y119.3 E777.59205
G0 F9000 X116.584 Y117.9
G0 X103.415 Y117.9
G0 X103.415 Y119.3
G1 F704.2 X100.7 Y116.584 E778.86934
G0 F9000 X102.1 Y116.584
G0 X102.1 Y103.414
G0 X100.701 Y103.414
G1 F704.2 X103.414 Y100.7 E780.14568
G0 F9000 X103.414 Y102.1
G0 X105.47 Y103.927
G0 X113.601 Y103.925
G0 X116.585 Y102.1
G0 X116.585 Y100.7
G1 F704.2 X119.3 Y103.415 E781.42274
G0 F9000 X117.9 Y103.415
G0 X117.93 Y104.599
G0 X118.249 Y105.391
;TYPE:SKIN
G1 F427 X118.146 Y105.213 E781.53553
G1 X117.94 Y105.213 E781.64851
G1 X117.837 Y105.391 E781.7613
G1 X117.94 Y105.569 E781.8741
G1 X118.146 Y105.569 E781.98708
G1 X118.249 Y105.391 E782.09987
G0 F9000 X117.93 Y104.599
G0 X113.642 Y102.97
G0 X112.732 Y102.559
G1 F798.4 X113.766 Y102.559 E782.4032
G1 F805.7 X113.771 Y101.333 E782.75959
G1 F812.2 X112.903 Y101.333 E783.00989
G1 F809.4 X112.903 Y101.96 E783.19133
G1 F802 X112.852 Y102.281 E783.28624
G1 F798.4 X112.732 Y102.559 E783.37507
G0 F9000 X113.642 Y102.97
G0 X113.601 Y103.925
G0 X105.47 Y103.927
G0 X105.155 Y103.029
G0 X105.078 Y102.07
G0 X106.028 Y101.939
G1 F448.5 X105.93 Y101.769 E783.47753
G1 X105.734 Y101.769 E783.57988
G1 X105.636 Y101.939 E783.68235
G1 X105.734 Y102.109 E783.78481
G1 X105.93 Y102.109 E783.88716
G1 X106.028 Y101.939 E783.98962
G0 F9000 X105.078 Y102.07
G0 X105.12 Y102.929
G0 X105.47 Y103.927
G0 X116.035 Y114.041
G0 X116.94 Y114.367
G0 X117.93 Y114.447
G0 X118.241 Y113.686
G1 F445.7 X118.142 Y113.515 E784.09346
G1 X117.945 Y113.515 E784.19698
G1 X117.847 Y113.686 E784.30056
G1 X117.946 Y113.857 E784.40439
G1 X118.143 Y113.857 E784.50792
G1 X118.241 Y113.686 E784.61149
G0 F9000 X117 Y115.083
;MESH:NONMESH
G0 F300 X117 Y115.083 Z13.2
G0 F9000 X116.132 Y114.145
G0 X110.195 Y103.999
G0 X110.195 Y102.325
;TIME_ELAPSED:257.143942
;LAYER:16
;note -- min layer time used
;TYPE:WALL-OUTER
;MESH:xyzCalibration_cube.stl
G1 F776.5 X110.088 Y102.199 E784.66526
G1 F827.2 X110.021 Y101.938 E784.74754
G1 F864.9 X110.019 Y100.438 E785.18557
G1 F866.9 X109.145 Y100.438 E785.44022
G1 F864.9 X109.143 Y101.938 E785.87826
G1 F827.2 X109.076 Y102.199 E785.96053
G1 F776.5 X108.969 Y102.325 E786.0143
G1 F759.4 X108.723 Y102.4 E786.09984
G1 X106.982 Y102.396 E786.6789
G1 X106.833 Y102.352 E786.73057
G1 X106.678 Y102.238 E786.79457
G1 X106.548 Y102.012 E786.88129
G1 X106.548 Y100.5 E787.38418
G1 X100.5 Y100.5 E789.39575
G1 X100.5 Y119.5 E795.71518
G1 X119.5 Y119.5 E802.0346
G1 X119.5 Y112.971 E804.20616
G1 X118.062 Y112.968 E804.68444
G1 X117.801 Y112.894 E804.77467
G1 X117.669 Y112.776 E804.83356
G1 X117.566 Y112.522 E804.92472
G1 X117.564 Y110.758 E805.51143
G1 X117.625 Y110.544 E805.58544
G1 F738.7 X117.788 Y110.332 E805.67688
G1 F664.4 X118.067 Y110.169 E805.79972
G1 F617.4 X119.385 Y110.172 E806.33891
G1 F616.9 X119.385 Y108.939 E806.84374
G1 F617.4 X118.068 Y108.939 E807.38253
G1 F664.4 X117.791 Y108.774 E807.5051
G1 F738.7 X117.628 Y108.563 E807.59626
G1 F759.4 X117.568 Y108.399 E807.65434
G1 X117.574 Y106.544 E808.27132
G1 X117.65 Y106.349 E808.34093
G1 X117.844 Y106.176 E808.42739
G1 X118.066 Y106.124 E808.50322
G1 X119.5 Y106.121 E808.98017
G1 X119.5 Y100.5 E810.84973
G1 X112.582 Y100.5 E813.15066
G1 X112.584 Y102 E813.64956
G1 X112.502 Y102.171 E813.71264
G1 X112.361 Y102.313 E813.7792
G1 X112.141 Y102.393 E813.85706
G1 X110.433 Y102.4 E814.42515
G1 X110.195 Y102.325 E814.50814
G0 F9000 X110.195 Y104.001
G0 X114.113 Y103.926
G0 X115.786 Y102.1
G0 X115.786 Y100.7
;TYPE:FILL
G1 F759.4 X119.3 Y104.214 E816.16102
G0 F9000 X117.93 Y104.121
G0 X117.045 Y104.163
G0 X116.041 Y104.6
G0 X116.036 Y114.496
G0 X117.9 Y115.785
G0 X119.3 Y115.785
G1 F759.4 X115.784 Y119.3 E817.8146
G0 F9000 X115.784 Y117.9
G0 X104.214 Y117.9
G0 X104.214 Y119.3
G1 F759.4 X100.7 Y115.785 E819.46772
G0 F9000 X102.1 Y115.785
G0 X102.1 Y104.214
G0 X100.7 Y104.214
G1 F759.4 X104.214 Y100.7 E821.12059
G0 F9000 X104.214 Y102.1
G0 X104.628 Y102.07
G0 X105.577 Y101.94
;TYPE:SKIN
G1 F483.4 X105.479 Y101.77 E821.22313
G1 X105.283 Y101.77 E821.32554
G1 X105.185 Y101.94 E821.42807
G1 X105.283 Y102.11 E821.5306
G1 X105.479 Y102.11 E821.63301
G1 X105.577 Y101.94 E821.73554
G0 F9000 X104.628 Y102.07
G0 X104.67 Y102.93
G0 X105.019 Y103.928
G0 X114.113 Y103.926
G0 X114.154 Y102.971
G0 X113.216 Y102.561
G1 F863.9 X114.277 Y102.561 E822.04573
G1 F870.8 X114.283 Y101.333 E822.40189
G1 F876.9 X113.415 Y101.333 E822.65191
G1 F874.9 X113.415 Y101.956 E822.83176
G1 F867.9 X113.374 Y102.237 E822.91441
G1 F863.9 X113.216 Y102.561 E823.01979
G0 F9000 X114.154 Y102.971
G0 X117.93 Y104.121
G0 X118.252 Y104.916
G1 F458.8 X118.149 Y104.738 E823.133
G1 X117.943 Y104.738 E823.24639
G1 X117.84 Y104.916 E823.35959
G1 X117.943 Y105.094 E823.4728
G1 X118.149 Y105.094 E823.58619
G1 X118.252 Y104.916 E823.69939
G0 F9000 X117.93 Y104.121
G0 X117.045 Y104.163
G0 X116.041 Y104.6
G0 X116.036 Y114.496
G0 X116.938 Y114.823
G0 X117.93 Y114.901
G0 X118.24 Y114.139
G1 F480 X118.141 Y113.968 E823.80336
G1 X117.944 Y113.968 E823.90702
G1 X117.846 Y114.139 E824.01072
G1 X117.945 Y114.31 E824.11469
G1 X118.142 Y114.31 E824.21834
G1 X118.24 Y114.139 E824.32205
G0 F9000 X117.293 Y115.831
;MESH:NONMESH
G0 F300 X117.293 Y115.831 Z14
G0 F9000 X116.997 Y114.54
G0 X117.744 Y113.306
;TIME_ELAPSED:270.551502
;LAYER:17
;note -- min layer time used
;TYPE:WALL-OUTER
;MESH:xyzCalibration_cube.stl
G1 F730 X117.634 Y113.174 E824.3792
G1 X117.571 Y112.98 E824.44704
G1 X117.57 Y111.173 E825.04805
G1 X117.632 Y110.982 E825.11484
G1 X117.865 Y110.77 E825.21961
G1 X118.024 Y110.729 E825.27423
G1 X119.5 Y110.73 E825.76515
G1 X119.5 Y108.356 E826.55474
G1 X118.024 Y108.355 E827.04566
G1 X117.736 Y108.231 E827.14995
G1 X117.612 Y108.062 E827.21967
G1 X117.568 Y107.92 E827.26912
G1 X117.574 Y106.06 E827.88776
G1 X117.647 Y105.873 E827.95452
G1 X117.869 Y105.685 E828.05128
G1 X118.068 Y105.644 E828.11886
G1 X119.5 Y105.644 E828.59514
G1 X119.5 Y100.5 E830.30605
G1 X113.092 Y100.5 E832.43736
G1 X113.092 Y101.993 E832.93393
G1 X113.013 Y102.167 E832.99749
G1 X112.884 Y102.303 E833.05983
G1 X112.652 Y102.393 E833.1426
G1 X110.91 Y102.398 E833.72199
G1 F712.9 X110.753 Y102.358 E833.77717
G1 F679.7 X110.497 Y102.19 E833.88655
G1 F593.5 X110.286 Y101.959 E834.01454
G1 F537.6 X110.284 Y100.677 E834.59359
G1 F538.8 X108.932 Y100.677 E835.2029
G1 F537.6 X108.93 Y101.959 E835.78195
G1 F593.5 X108.719 Y102.19 E835.90994
G1 F695.3 X108.489 Y102.341 E836.00602
G1 F730 X108.296 Y102.399 E836.07305
G1 X106.528 Y102.396 E836.66109
G1 X106.373 Y102.349 E836.71496
G1 X106.214 Y102.224 E836.78223
G1 X106.096 Y102.001 E836.86615
G1 X106.096 Y100.5 E837.36538
G1 X100.501 Y100.501 E839.22629
G1 X100.5 Y119.5 E845.54538
G1 X119.5 Y119.5 E851.86481
G1 X119.5 Y113.427 E853.88469
G1 X117.96 Y113.424 E854.3969
G1 X117.744 Y113.306 E854.47876
G0 F9000 X115.967 Y113.304
G0 X116.037 Y114.948
G0 X116.942 Y115.274
G0 X117.93 Y115.354
G0 X119.298 Y114.986
;TYPE:FILL
G1 F730 X114.984 Y119.3 E856.50794
G0 F9000 X114.984 Y117.9
G0 X105.015 Y117.9
G0 X105.015 Y119.3
G1 F730 X100.7 Y114.985 E858.53758
G0 F9000 X102.1 Y114.985
G0 X102.1 Y105.013
G0 X100.701 Y105.013
G1 F730 X105.014 Y100.7 E860.56628
G0 F9000 X104.528 Y102.07
G0 X104.569 Y103.929
G0 X114.624 Y103.927
G0 X114.985 Y102.1
G0 X114.985 Y100.7
G1 F730 X119.3 Y105.015 E862.59593
G0 F9000 X117.93 Y104.077
G0 X114.718 Y102.352
G0 X114.068 Y102.352
;TYPE:SKIN
G1 F579.4 X114.104 Y101.892 E862.78929
G1 F596.4 X114.104 Y101.512 E862.94399
G0 F9000 X114.688 Y102.07
G0 X116.037 Y114.948
G0 X116.942 Y115.274
G0 X117.93 Y115.354
G0 X118.24 Y114.593
G1 F462.9 X118.141 Y114.422 E863.04763
G1 X117.944 Y114.422 E863.15096
G1 X117.846 Y114.593 E863.25434
G1 X117.945 Y114.764 E863.35798
G1 X118.142 Y114.764 E863.4613
G1 X118.24 Y114.593 E863.56468
G0 F9000 X117 Y115.99
;MESH:NONMESH
G0 F300 X117 Y115.99 Z14.8
G0 F9000 X116.037 Y114.948
G0 X115.971 Y107.784
G0 X117.766 Y107.784
;TIME_ELAPSED:283.445838
;LAYER:18
;note -- min layer time used
;TYPE:WALL-OUTER
;MESH:xyzCalibration_cube.stl
G1 F745.3 X117.661 Y107.674 E863.61526
G1 X117.572 Y107.452 E863.69481
G1 X117.572 Y105.603 E864.30979
G1 X117.669 Y105.371 E864.39343
G1 X117.94 Y105.168 E864.50604
G1 X119.5 Y105.165 E865.0249
G1 X119.5 Y100.5 E866.57649
G1 X113.604 Y100.5 E868.53751
G1 X113.604 Y101.896 E869.00182
G1 X113.561 Y102.101 E869.07149
G1 X113.475 Y102.232 E869.12361
G1 X113.321 Y102.347 E869.18753
G1 X113.106 Y102.396 E869.26087
G1 X111.442 Y102.4 E869.81433
G1 X111.227 Y102.339 E869.88866
G1 X111.012 Y102.108 E869.99362
G1 X110.969 Y101.944 E870.05001
G1 X110.968 Y100.5 E870.53028
G1 X108.304 Y100.5 E871.41633
G1 X108.303 Y101.944 E871.89661
G1 X108.26 Y102.108 E871.953
G1 X108.045 Y102.339 E872.05796
G1 X107.873 Y102.396 E872.11823
G1 X106.078 Y102.396 E872.71525
G1 X105.917 Y102.344 E872.77152
G1 X105.691 Y102.105 E872.88092
G1 X105.648 Y101.9 E872.95059
G1 X105.648 Y100.5 E873.41623
G1 X100.501 Y100.501 E875.12813
G1 X100.5 Y119.5 E881.44722
G1 X119.5 Y119.5 E887.76665
G1 X119.5 Y113.879 E889.6362
G1 X118.066 Y113.876 E890.11315
G1 X117.844 Y113.824 E890.18899
G1 X117.62 Y113.6 E890.29435
G1 X117.572 Y113.444 E890.34864
G1 X117.569 Y111.627 E890.95298
G1 X117.657 Y111.385 E891.03862
G1 X117.867 Y111.213 E891.12891
G1 X118.016 Y111.174 E891.18013
G1 X119.5 Y111.174 E891.67371
G1 X119.5 Y107.888 E892.76664
G1 X118.019 Y107.886 E893.25922
G1 X117.766 Y107.784 E893.34995
G0 F9000 X117.766 Y109.49
G0 X116.044 Y109.418
G0 X116.044 Y103.643
G0 X117.93 Y103.599
G0 X118.452 Y104.968
;TYPE:FILL
G1 F745.3 X114.185 Y100.7 E895.35726
G0 F9000 X115.177 Y102.07
G0 X115.137 Y103.927
G0 X104.119 Y103.929
G0 X104.078 Y102.07
G0 X105.448 Y101.067
G1 F745.3 X100.701 Y105.814 E897.5901
G0 F9000 X102.1 Y105.814
G0 X102.1 Y114.184
G0 X100.7 Y114.184
G1 F745.3 X105.815 Y119.3 E899.99627
G0 F9000 X105.815 Y117.9
G0 X114.184 Y117.9
G0 X114.184 Y119.3
G1 F745.3 X119.3 Y114.184 E902.40268
G0 F9000 X117.93 Y115.447
G0 X116.04 Y115.401
G0 X110.003 Y104.002
G0 X110.003 Y102.356
;TYPE:SKIN
G1 F593.4 X109.967 Y102.078 E902.51979
G1 F613.4 X109.963 Y101.505 E902.75135
;MESH:NONMESH
G0 F300 X109.963 Y101.505 Z15.6
G0 F9000 X109.36 Y101.505
G0 X109.434 Y102.928
G0 X117.759 Y115.476
G0 X117.762 Y114.225
;TIME_ELAPSED:296.258295
;LAYER:19
;note -- min layer time used
;TYPE:WALL-OUTER
;MESH:xyzCalibration_cube.stl
G1 F730.5 X117.625 Y114.061 E902.82242
G1 X117.572 Y113.899 E902.87911
G1 X117.573 Y112.044 E903.49609
G1 X117.627 Y111.878 E903.55415
G1 X117.728 Y111.748 E903.6089
G1 X117.96 Y111.616 E903.69768
G1 X119.5 Y111.618 E904.20989
G1 X119.5 Y107.42 E905.60615
G1 X118.072 Y107.42 E906.0811
G1 X117.81 Y107.347 E906.17156
G1 X117.651 Y107.192 E906.24542
G1 X117.572 Y106.994 E906.31632
G1 X117.572 Y105.119 E906.93995
G1 X117.615 Y104.985 E906.98676
G1 X117.77 Y104.789 E907.06987
G1 X117.972 Y104.688 E907.14498
G1 X119.5 Y104.688 E907.6532
G1 X119.5 Y100.5 E909.04613
G1 X114.116 Y100.5 E910.83686
G1 X114.116 Y101.9 E911.3025
G1 X114.086 Y102.071 E911.36024
G1 X113.945 Y102.277 E911.44327
G1 X113.724 Y102.4 E911.52739
G1 X111.93 Y102.399 E912.12408
G1 X111.791 Y102.367 E912.17152
G1 X111.595 Y102.23 E912.25106
G1 X111.472 Y101.972 E912.34612
G1 X111.472 Y100.5 E912.83571
G1 X107.852 Y100.5 E914.03973
G1 X107.852 Y101.972 E914.52932
G1 X107.729 Y102.23 E914.62438
G1 X107.586 Y102.343 E914.685
G1 X107.403 Y102.398 E914.74856
G1 X105.623 Y102.395 E915.34059
G1 X105.455 Y102.339 E915.39949
G1 X105.288 Y102.19 E915.47393
G1 X105.196 Y101.9 E915.57512
G1 X105.196 Y100.5 E916.04076
G1 X100.501 Y100.501 E917.60232
G1 X100.5 Y119.5 E923.92142
G1 X119.5 Y119.5 E930.24084
G1 X119.5 Y114.331 E931.96006
G1 X118.066 Y114.328 E932.43701
G1 X117.762 Y114.225 E932.54377
;TYPE:FILL
G1 X118.157 Y114.528
G1 X113.385 Y119.3 E934.78837
G0 F9000 X113.385 Y117.9
G0 X106.614 Y117.9
G0 X106.614 Y119.3
G1 F730.5 X100.7 Y113.385 E937.57037
G0 F9000 X102.1 Y113.385
G0 X102.1 Y106.613
G0 X100.7 Y106.613
G1 F730.5 X105.085 Y102.229 E939.6327
G0 F9000 X103.598 Y102.228
G0 X103.669 Y103.93
G0 X115.647 Y103.928
G0 X115.688 Y102.07
G0 X114.352 Y101.666
G1 F730.5 X117.496 Y104.811 E941.11178
G0 F9000 X115.973 Y104.811
G0 X109.95 Y103.931
G0 X109.866 Y102.358
G0 X110.509 Y102.358
;TYPE:SKIN
G1 F584.4 X110.473 Y102.129 E941.20816
G1 F603.2 X110.469 Y101.503 E941.4603
;MESH:NONMESH
G0 F300 X110.469 Y101.503 Z16.4
G0 F9000 X109.896 Y102.07
G0 X109.95 Y103.931
G0 X116.041 Y115.856
G0 X117.779 Y115.93
G0 X117.781 Y114.694
;TIME_ELAPSED:308.488936
;LAYER:20
;TYPE:WALL-OUTER
;MESH:xyzCalibration_cube.stl
G1 F1500 X117.63 Y114.526 E941.53543
G1 X117.573 Y114.357 E941.59475
G1 X117.58 Y112.471 E942.22204
G1 X117.667 Y112.269 E942.29519
G1 X117.807 Y112.139 E942.35874
G1 X118.074 Y112.064 E942.45098
G1 X119.5 Y112.066 E942.92527
G1 X119.5 Y100.5 E946.77214
G1 X100.5 Y100.5 E953.09156
G1 X100.5 Y119.5 E959.41099
G1 X119.5 Y119.5 E965.73041
G1 X119.5 Y114.787 E967.29796
G1 X118.066 Y114.784 E967.77492
G1 X117.781 Y114.694 E967.87432
;TYPE:FILL
G1 F3000 X117.411 Y114.474
G1 X114.627 Y117.257 E969.18359
G0 F9000 X114.627 Y117.418
G0 X105.706 Y117.591
G1 F3000 X100.7 Y112.585 E971.53826
G0 F9000 X102.1 Y112.585
G0 X102.1 Y107.414
G0 X100.7 Y107.414
G1 F3000 X105.512 Y102.602 E973.80168
G0 F9000 X105.512 Y103.002
G0 X114.646 Y102.927
G0 X114.718 Y102.433
G0 X114.318 Y102.433
G1 F3000 X116.376 Y104.491 E974.7697
G0 F9000 X117.044 Y108.417
G0 X117.93 Y108.459
G0 X118.568 Y107.956
;TYPE:SKIN
G1 F1409.8 X118.568 Y104.621 E975.94992
G1 X117.504 Y104.623 E976.32645
G1 X117.504 Y107.956 E977.50596
G1 X118.568 Y107.956 E977.8825
G0 F9000 X117.93 Y108.459
G0 X112.981 Y111.635
G0 X111.696 Y112.291
G1 F1712.3 X109.418 Y107.831 E979.34165
G1 F1714.3 X108.53 Y108.013 E979.60545
G1 F1712.3 X110.807 Y112.475 E981.06499
G1 X111.696 Y112.291 E981.32949
G0 F9000 X112.981 Y111.635
G0 X114.965 Y115.648
G0 X114.955 Y117.346
G0 X105.378 Y117.346
G0 X105.378 Y113.777
G0 X109.898 Y113.753
G0 X110.151 Y114.079
G1 F1500 X109.882 Y114.204 E981.42815
G1 X105.804 Y114.204 E982.7845
G1 X105.804 Y116.916 E983.68651
G1 X114.524 Y116.916 E986.5868
G1 X114.524 Y115.753 E986.97361
G1 X109.966 Y106.848 E990.30086
G1 X109.914 Y106.674 E990.36127
G1 X109.925 Y106.502 E990.41859
G1 X110.082 Y106.244 E990.51904
G1 X110.35 Y106.12 E990.61726
G1 X114.712 Y106.12 E992.06806
G1 X114.712 Y103.404 E992.97141
G1 X105.72 Y103.404 E995.96216
G1 X105.72 Y104.571 E996.35031
G1 X110.292 Y113.526 E999.69448
G1 X110.307 Y113.821 E999.79273
G1 X110.151 Y114.079 E999.89301
G0 F9000 X109.898 Y113.753
G0 X105.378 Y113.777
G0 X105.378 Y117.346
G0 X106.516 Y117.418
G0 X106.516 Y116.416
G1 F1500 X106.304 Y116.203 E999.99296
G0 F9000 X105.306 Y116.203
G0 X105.306 Y114.789
G0 X106.304 Y114.789
G1 F1500 X107.931 Y116.416 E1000.75825
G0 F9000 X107.931 Y117.418
G0 X109.345 Y117.418
G0 X109.345 Y116.416
G1 F1500 X107.633 Y114.704 E1001.56352
G0 F9000 X107.633 Y113.705
G0 X109.047 Y113.705
G0 X109.047 Y114.704
G1 F1500 X110.759 Y116.416 E1002.36879
G0 F9000 X110.759 Y117.418
G0 X112.173 Y117.418
G0 X112.173 Y116.416
G1 F1500 X110.314 Y114.557 E1003.24321
G0 F9000 X109.898 Y113.753
G0 X110.811 Y113.64
G1 F1500 X113.588 Y116.416 E1004.54919
G0 F9000 X113.588 Y117.418
G0 X114.955 Y117.346
G0 X114.965 Y115.648
G0 X114.461 Y114.528
G0 X113.569 Y114.983
G1 F1500 X111.391 Y112.805 E1005.57366
G1 F3600 E1001.57366
G0 F9000 X109.779 Y113.626
G0 X105.378 Y113.777
G0 X105.378 Y117.346
G0 X114.955 Y117.346
G0 X114.965 Y115.648
G0 X110.456 Y106.701
G0 X108.907 Y107.493
G1 F3600 E1005.57366
G1 F1500 X106.594 Y105.179 E1006.66186
G0 F9000 X105.702 Y105.633
G0 X105.284 Y104.677
G0 X105.294 Y102.979
G0 X106.732 Y102.907
G0 X106.732 Y103.904
G1 F1500 X109.425 Y106.597 E1007.92856
G0 F9000 X110.336 Y106.572
G0 X109.975 Y105.732
G1 F1500 X108.146 Y103.904 E1008.78863
G0 F9000 X108.146 Y102.907
G0 X109.561 Y102.907
G0 X109.561 Y103.904
G1 F1500 X111.277 Y105.621 E1009.59602
G0 F9000 X111.277 Y106.62
G0 X112.692 Y106.62
G0 X112.692 Y105.621
G1 F1500 X110.975 Y103.904 E1010.40364
G0 F9000 X110.975 Y102.907
G0 X112.389 Y102.907
G0 X112.389 Y103.904
G1 F1500 X114.106 Y105.621 E1011.21127
G0 F9000 X114.106 Y106.62
G0 X115.14 Y106.548
G0 X115.212 Y104.312
G0 X114.212 Y104.312
G1 F1500 X113.803 Y103.904 E1011.40341
G0 F9000 X113.803 Y102.907
G0 X114.191 Y103
G0 X114.191 Y102.475
G1 F1428.6 X114.191 Y101.425 E1011.77011
G1 X110.894 Y101.425 E1012.92152
G1 X110.896 Y102.475 E1013.28822
G1 X114.191 Y102.475 E1014.43893
G0 F9000 X114.191 Y103
G0 X108.376 Y103.001
G0 X108.376 Y102.475
G1 F1429.9 X108.378 Y101.425 E1014.80528
G1 F1428.6 X105.121 Y101.425 E1015.94273
G1 X105.121 Y102.475 E1016.30942
G1 X108.376 Y102.475 E1017.44617
G1 F3600 E1013.44617
;MESH:NONMESH
G0 F300 X108.376 Y102.475 Z17.2
G0 F9000 X108.376 Y102.907
G0 X115.819 Y102.3
G0 X115.819 Y107.227
G0 X111.606 Y107.52
G0 X118.93 Y118.93
G0 X119.5 Y119.5
;TIME_ELAPSED:327.346268
;LAYER:21
;TYPE:WALL-OUTER
;MESH:xyzCalibration_cube.stl
G1 F3600 E1017.44617
G1 F1500 X119.5 Y100.5 E1023.76559
G1 X100.5 Y100.5 E1030.08502
G1 X100.5 Y119.5 E1036.40444
G1 X119.5 Y119.5 E1042.72387
G0 F9000 X118.93 Y118.93
G0 X115.027 Y116.457
G0 X114.627 Y116.457
;TYPE:FILL
G1 F3000 X117.371 Y113.713 E1044.01456
G0 F9000 X116.97 Y113.712
G0 X117.045 Y111.091
G0 X117.9 Y108.216
G0 X119.3 Y108.216
G1 F3000 X118.706 Y107.621 E1044.2942
G0 F9000 X117.93 Y107.991
G0 X117.045 Y107.949
G0 X115.577 Y104.492
G1 F3000 X114.812 Y103.727 E1044.65403
G0 F9000 X115.212 Y103.727
G0 X115.14 Y102.979
G0 X110.949 Y102.931
G0 X108.421 Y102.07
G0 X108.215 Y100.7
G1 F3000 X108.052 Y100.863 E1044.7307
G0 F9000 X108.421 Y102.07
G0 X108.378 Y102.93
G0 X105.622 Y102.907
G0 X105.622 Y103.293
G1 F3000 X100.7 Y108.215 E1047.04586
G0 F9000 X102.1 Y108.215
G0 X102.1 Y111.784
G0 X100.7 Y111.784
G1 F3000 X105.706 Y116.791 E1049.40076
G0 F9000 X105.306 Y116.791
G0 X105.378 Y113.777
G0 X109.898 Y113.753
G0 X110.151 Y114.079
;TYPE:SKIN
G1 F1500 X109.882 Y114.204 E1049.49942
G1 X105.804 Y114.204 E1050.85577
G1 X105.804 Y116.916 E1051.75778
G1 X114.524 Y116.916 E1054.65807
G1 X114.524 Y115.753 E1055.04488
G1 X109.966 Y106.848 E1058.37213
G1 X109.914 Y106.674 E1058.43253
G1 X109.925 Y106.502 E1058.48986
G1 X110.082 Y106.244 E1058.59031
G1 X110.35 Y106.12 E1058.68852
G1 X114.712 Y106.12 E1060.13933
G1 X114.712 Y103.404 E1061.04268
G1 X105.72 Y103.404 E1064.03343
G1 X105.72 Y104.571 E1064.42157
G1 X110.292 Y113.526 E1067.76575
G1 X110.307 Y113.821 E1067.864
G1 X110.151 Y114.079 E1067.96427
G0 F9000 X109.898 Y113.753
G0 X105.378 Y113.777
G0 X105.378 Y117.346
G0 X114.955 Y117.346
G0 X114.965 Y115.648
G0 X112.981 Y111.635
G0 X111.696 Y112.291
G1 F1712.3 X109.418 Y107.831 E1069.42342
G1 F1714.3 X108.53 Y108.013 E1069.68723
G1 F1712.3 X110.807 Y112.475 E1071.14676
G1 X111.696 Y112.291 E1071.41127
G0 F9000 X112.981 Y111.635
G0 X114.648 Y114.892
G0 X113.755 Y115.348
G1 F1500 X112.687 Y116.416 E1071.91362
G0 F9000 X112.687 Y117.418
G0 X111.272 Y117.418
G0 X111.272 Y116.416
G1 F1500 X113.276 Y114.413 E1072.85601
G0 F9000 X114.169 Y113.957
G0 X113.69 Y113.021
G0 X112.797 Y113.477
G1 F1500 X109.858 Y116.416 E1074.23842
G0 F9000 X109.858 Y117.418
G0 X108.444 Y117.418
G0 X108.444 Y116.416
G1 F1500 X110.287 Y114.573 E1075.10531
G0 F9000 X110.705 Y114.155
G1 F1500 X112.23 Y112.63 E1075.82263
G0 F9000 X113.229 Y112.12
G0 X114.965 Y115.648
G0 X114.955 Y117.346
G0 X105.378 Y117.346
G0 X105.378 Y113.777
G0 X108.742 Y113.705
G0 X108.742 Y114.704
G1 F1500 X107.03 Y116.416 E1076.6279
G0 F9000 X107.03 Y117.418
G0 X105.378 Y117.346
G0 X105.306 Y115.727
G0 X106.304 Y115.727
G1 F1500 X107.327 Y114.704 E1077.10909
G1 F3600 E1073.10909
G0 F9000 X107.327 Y113.705
G0 X105.284 Y104.677
G0 X105.294 Y102.979
G0 X115.14 Y102.979
G0 X115.14 Y106.548
G0 X110.453 Y106.694
G0 X108.874 Y107.501
G1 F3600 E1077.10909
G1 F1500 X109.4 Y106.975 E1077.3565
G0 F9000 X110.348 Y106.57
G0 X115.14 Y106.548
G0 X115.14 Y102.979
G0 X105.294 Y102.979
G0 X105.284 Y104.677
G0 X106.779 Y107.744
G0 X107.67 Y107.29
G1 F1500 X111.057 Y103.904 E1078.94941
G0 F9000 X111.057 Y102.907
G0 X112.471 Y102.907
G0 X112.471 Y103.904
G1 F1500 X110.754 Y105.621 E1079.75703
G0 F9000 X110.754 Y106.62
G0 X112.168 Y106.62
G0 X112.168 Y105.621
G1 F1500 X113.885 Y103.904 E1080.56466
G0 F9000 X113.885 Y102.907
G0 X115.14 Y102.979
G0 X115.212 Y104.991
G0 X114.212 Y104.991
G1 F1500 X113.583 Y105.621 E1080.86075
G0 F9000 X113.583 Y106.62
G0 X115.14 Y106.548
G0 X115.14 Y102.979
G0 X109.643 Y102.907
G0 X109.643 Y103.904
G1 F1500 X107.193 Y106.353 E1082.01292
G0 F9000 X106.301 Y106.807
G0 X105.823 Y105.871
G0 X106.715 Y105.417
G1 F1500 X108.228 Y103.904 E1082.72459
G0 F9000 X108.228 Y102.907
G0 X106.814 Y102.907
G0 X106.814 Y103.904
G1 F1500 X106.238 Y104.48 E1082.99552
G0 F9000 X105.346 Y104.934
G0 X105.284 Y104.677
G0 X105.294 Y102.979
G0 X115.14 Y102.979
G0 X117.043 Y115.31
G0 X117.93 Y115.354
G0 X118.567 Y114.85
G1 F1408.5 X118.568 Y111.548 E1084.16516
G1 F1409.8 X117.504 Y111.548 E1084.5417
G1 F1408.5 X117.501 Y114.848 E1085.71063
G1 F1407.1 X118.567 Y114.85 E1086.08858
G0 F9000 X117.93 Y115.354
G0 X117.043 Y115.31
G0 X117.045 Y111.091
G0 X117.93 Y107.991
G0 X118.568 Y107.488
G1 F1409.8 X118.568 Y104.621 E1087.10318
G1 X117.504 Y104.623 E1087.47971
G1 X117.504 Y107.488 E1088.4936
G1 X118.568 Y107.488 E1088.87014
G0 F9000 X117.93 Y107.991
G0 X117.045 Y107.949
G0 X115.14 Y102.979
G0 X114.191 Y103
G0 X114.191 Y102.475
G1 F1427.2 X114.191 Y101.425 E1089.23718
G1 F1425.9 X111.399 Y101.426 E1090.21409
G1 X111.401 Y102.477 E1090.58183
G1 X114.191 Y102.475 E1091.55805
G0 F9000 X114.191 Y103
G0 X110.949 Y102.931
G0 X108.45 Y102.476
G0 X107.924 Y102.475
G1 F1429.9 X107.926 Y101.425 E1091.92439
G1 F1428.6 X105.121 Y101.425 E1092.90398
G1 X105.121 Y102.475 E1093.27068
G1 X107.924 Y102.475 E1094.24957
G0 F9000 X109.35 Y103
;MESH:NONMESH
G0 F300 X109.35 Y103 Z18
G0 F9000 X109.35 Y102.907
G0 X115.819 Y102.3
G0 X115.819 Y107.227
G0 X112.217 Y107.52
G0 X118.93 Y118.93
G0 X119.5 Y119.5
;TIME_ELAPSED:349.805109
;LAYER:22
;TYPE:WALL-OUTER
;MESH:xyzCalibration_cube.stl
G1 F1500 X119.5 Y100.5 E1100.569
G1 X100.5 Y100.5 E1106.88842
G1 X100.5 Y119.5 E1113.20785
G1 X119.5 Y119.5 E1119.52728
G0 F9000 X118.6 Y118.6
;TYPE:SKIN
G1 F1500 X118.6 Y101.4 E1125.24802
G1 X101.4 Y101.4 E1130.96876
G1 X101.4 Y118.6 E1136.68951
G1 X118.6 Y118.6 E1142.41025
G1 F3600 E1138.41025
G0 F9000 X120.665 Y118.6
G0 X120.653 Y99.347
G0 X117.456 Y99.335
G0 X117.456 Y101.9
G1 F3600 E1142.41025
G1 F1500 X118.1 Y102.544 E1142.71317
G0 F9000 X118.1 Y103.958
G1 F1500 X116.042 Y101.9 E1143.68119
G0 F9000 X114.628 Y101.9
G1 F1500 X118.1 Y105.372 E1145.31431
G0 F9000 X118.1 Y106.787
G1 F1500 X113.213 Y101.9 E1147.613
G0 F9000 X111.799 Y101.9
G1 F1500 X118.1 Y108.201 E1150.5768
G0 F9000 X118.1 Y109.615
G1 F1500 X110.385 Y101.9 E1154.2057
G0 F9000 X108.971 Y101.9
G1 F1500 X118.1 Y111.029 E1158.4997
G0 F9000 X118.1 Y112.443
G1 F1500 X107.557 Y101.9 E1163.45881
G0 F9000 X106.142 Y101.9
G1 F1500 X118.1 Y113.858 E1169.08348
G0 F9000 X118.1 Y115.272
G1 F1500 X104.728 Y101.9 E1175.37326
G0 F9000 X103.314 Y101.9
G1 F1500 X118.1 Y116.686 E1182.32814
G0 F9000 X118.1 Y118.1
G1 F1500 X101.9 Y101.9 E1189.94813
G0 F9000 X101.9 Y103.314
G1 F1500 X116.685 Y118.1 E1196.90277
G0 F9000 X115.271 Y118.1
G1 F1500 X101.9 Y104.728 E1203.19232
G0 F9000 X101.9 Y106.142
G1 F1500 X113.857 Y118.1 E1208.81676
G0 F9000 X112.443 Y118.1
G1 F1500 X101.9 Y107.557 E1213.77586
G0 F9000 X101.9 Y108.971
G1 F1500 X111.028 Y118.1 E1218.06963
G0 F9000 X109.614 Y118.1
G1 F1500 X101.9 Y110.385 E1221.69829
G0 F9000 X101.9 Y111.799
G1 F1500 X108.2 Y118.1 E1224.66185
G0 F9000 X106.786 Y118.1
G1 F1500 X101.9 Y113.213 E1226.96031
G0 F9000 X101.9 Y114.628
G1 F1500 X105.372 Y118.1 E1228.59344
G0 F9000 X103.957 Y118.1
G1 F1500 X101.9 Y116.042 E1229.56122
G0 F9000 X101.9 Y117.456
G1 F1500 X102.543 Y118.1 E1229.8639
G1 F3600 E1225.8639
;MESH:NONMESH
G0 F300 X102.543 Y118.1 Z18.8
G0 F9000 X102.543 Y120.665
G0 X114.48 Y120.665
G0 X114.48 Y116.684
;TIME_ELAPSED:371.002732
;LAYER:23
;TYPE:WALL-OUTER
;MESH:xyzCalibration_cube.stl
G1 F3600 E1229.8639
G1 F1500 X114.202 Y116.816 E1229.96626
G1 X106.404 Y116.816 E1232.55989
G1 X106.197 Y116.772 E1232.63027
G1 X106.039 Y116.659 E1232.69488
G1 X105.909 Y116.389 E1232.79455
G1 X105.904 Y114.707 E1233.35399
G1 X106.03 Y114.471 E1233.44297
G1 X106.191 Y114.351 E1233.50976
G1 X106.404 Y114.304 E1233.5823
G1 X110.795 Y114.304 E1235.04276
G1 X105.609 Y104.135 E1238.83941
G1 X105.624 Y103.861 E1238.93068
G1 X105.776 Y103.626 E1239.02377
G1 X106.042 Y103.504 E1239.1211
G1 X114.112 Y103.504 E1241.8052
G1 X114.286 Y103.534 E1241.86392
G1 X114.43 Y103.617 E1241.9192
G1 X114.612 Y103.879 E1242.02531
G1 X114.612 Y105.616 E1242.60304
G1 X114.541 Y105.779 E1242.66217
G1 X114.376 Y105.946 E1242.74025
G1 X114.177 Y106.02 E1242.81087
G1 X109.434 Y106.02 E1244.3884
G1 X114.635 Y116.183 E1248.18555
G1 X114.626 Y116.436 E1248.26975
G1 X114.48 Y116.684 E1248.36547
G1 F3600 E1244.36547
G0 F9000 X115.027 Y116.684
G0 X119.5 Y119.5
G1 F3600 E1248.36547
G1 F1500 X119.5 Y100.5 E1254.68489
G1 X100.501 Y100.501 E1261.00398
G1 X100.5 Y119.5 E1267.32308
G1 X119.5 Y119.5 E1273.6425
G0 F9000 X118.6 Y118.6
;TYPE:SKIN
G1 F1500 X118.6 Y101.4 E1279.36325
G1 X115.313 Y101.4 E1280.45651
G1 F1421.8 X114.298 Y101.456 E1280.81321
G1 F1351.4 X105.801 Y101.455 E1283.95019
G1 F1420.5 X104.846 Y101.401 E1284.28615
G1 F1498.5 X101.401 Y101.401 E1285.43311
G1 F1500 X101.4 Y118.6 E1291.15352
G1 X105.041 Y118.6 E1292.36452
G1 F1544.8 X106.412 Y118.629 E1292.80739
G1 F1592.4 X114.244 Y118.629 E1295.26124
G1 F1546.4 X115.356 Y118.601 E1295.62011
G1 F1501.5 X118.6 Y118.6 E1296.69799
G1 F3600 E1292.69799
G0 F9000 X105.302 Y104.589
G0 X109.323 Y113.404
G1 F3600 E1296.69799
G1 F1500 X104.858 Y104.648 E1299.96704
G1 X104.711 Y104.208 E1300.12133
G1 X104.744 Y103.638 E1300.31123
G1 F1494 X104.907 Y103.259 E1300.449
G1 F1479.3 X105.176 Y102.947 E1300.58793
G1 F1459.1 X105.609 Y102.654 E1300.76669
G1 F1396.6 X105.896 Y102.557 E1300.87491
G1 F1351.4 X114.201 Y102.557 E1303.94101
G1 F1396.6 X114.565 Y102.643 E1304.07462
G1 F1459.1 X115.013 Y102.923 E1304.25525
G1 F1486.6 X115.282 Y103.225 E1304.39098
G1 F1500 X115.434 Y103.55 E1304.51031
G1 X115.512 Y103.969 E1304.65207
G1 X115.508 Y105.583 E1305.18889
G1 X115.469 Y105.851 E1305.27896
G1 X115.34 Y106.185 E1305.39805
G1 X115.092 Y106.528 E1305.53883
G1 X114.603 Y106.841 E1305.73193
G1 X114.158 Y106.92 E1305.88226
G1 X110.902 Y106.92 E1306.96521
G1 X115.457 Y115.82 E1310.29052
G1 X115.512 Y116.043 E1310.36691
G1 X115.516 Y116.588 E1310.54819
G1 X115.371 Y117 E1310.69346
G1 X115.082 Y117.36 E1310.847
G1 F1527.5 X114.686 Y117.59 E1310.99657
G1 F1569 X114.326 Y117.684 E1311.11488
G1 F1577.3 X106.31 Y117.682 E1313.65037
G1 F1559.3 X105.809 Y117.583 E1313.81377
G1 F1524.4 X105.383 Y117.284 E1313.98411
G1 F1503 X105.118 Y116.889 E1314.142
G1 F1500 X105.01 Y116.493 E1314.27852
G1 X105.004 Y114.632 E1314.89749
G1 X105.061 Y114.398 E1314.9776
G1 X105.337 Y113.876 E1315.17399
G1 X105.807 Y113.522 E1315.36969
G1 X106.358 Y113.404 E1315.55711
G1 X109.323 Y113.404 E1316.54327
G1 F3600 E1312.54327
G0 F9000 X105.272 Y104.463
G0 X118.1 Y116.66
G1 F3600 E1316.54327
G1 F1500 X116.658 Y118.102 E1317.22155
G0 F9000 X114.997 Y116.794
G0 X115.236 Y118.109
G1 F1500 X118.1 Y115.246 E1318.56845
G0 F9000 X118.1 Y113.831
G1 F1500 X115.989 Y115.942 E1319.5614
G0 F9000 X115.015 Y116.101
G0 X114.95 Y115.754
G0 X115.572 Y114.945
G1 F1500 X118.1 Y112.417 E1320.75049
G0 F9000 X118.1 Y111.003
G1 F1500 X115.093 Y114.01 E1322.16489
G0 F9000 X114.95 Y115.754
G0 X114.614 Y113.074
G1 F1500 X118.1 Y109.589 E1323.80436
G0 F9000 X118.1 Y108.175
G1 F1500 X114.136 Y112.139 E1325.66891
G0 F9000 X113.657 Y111.203
G1 F1500 X118.1 Y106.76 E1327.75876
G0 F9000 X118.1 Y105.346
G1 F1500 X113.178 Y110.268 E1330.07392
G0 F9000 X112.699 Y109.332
G1 F1500 X114.703 Y107.329 E1331.0163
G1 F3600 E1327.0163
G0 F9000 X113.198 Y107.419
G1 F3600 E1331.0163
G1 F1500 X112.221 Y108.397 E1331.47609
G1 F3600 E1327.47609
G0 F9000 X115.886 Y106.145
G1 F3600 E1331.47609
G1 F1500 X118.1 Y103.932 E1332.51725
G0 F9000 X118.1 Y102.518
G1 F1500 X116.012 Y104.605 E1333.49915
G0 F9000 X114.029 Y102.957
G0 X115.879 Y103.325
G1 F1500 X117.303 Y101.9 E1334.16919
G0 F9000 X115.889 Y101.9
G1 F1500 X115.274 Y102.515 E1334.45847
G1 F3600 E1330.45847
G0 F9000 X114.029 Y102.957
G0 X104.574 Y101.901
G1 F3600 E1334.45847
G1 F1500 X101.901 Y104.574 E1335.71576
G0 F9000 X101.05 Y104.573
G0 X101.05 Y105.987
G0 X101.901 Y105.988
G1 F1500 X104.242 Y103.647 E1336.8169
G0 F9000 X105.23 Y103.809
G0 X105.311 Y104.432
G0 X104.418 Y104.886
G1 F1500 X101.901 Y107.402 E1338.00058
G0 F9000 X101.05 Y107.401
G0 X101.05 Y108.816
G0 X101.901 Y108.817
G1 F1500 X104.896 Y105.822 E1339.40934
G0 F9000 X105.272 Y104.463
G0 X105.373 Y106.759
G1 F1500 X101.9 Y110.232 E1341.04293
G0 F9000 X101.05 Y110.231
G0 X101.05 Y111.645
G0 X101.9 Y111.646
G1 F1500 X105.85 Y107.696 E1342.90089
G0 F9000 X105.272 Y104.463
G0 X106.328 Y108.632
G1 F1500 X101.9 Y113.06 E1344.98369
G0 F9000 X101.05 Y113.059
G0 X101.05 Y114.473
G0 X101.9 Y114.474
G1 F1500 X106.806 Y109.569 E1347.29108
G0 F9000 X105.272 Y104.463
G0 X107.284 Y110.505
G1 F1500 X101.9 Y115.888 E1349.82332
G0 F9000 X101.05 Y115.887
G0 X101.05 Y117.302
G0 X101.9 Y117.303
G1 F1500 X104.504 Y114.699 E1351.04816
G0 F9000 X105.356 Y114.81
G0 X105.356 Y116.113
G0 X104.504 Y116.113
G1 F1500 X102.517 Y118.1 E1351.98278
G0 F9000 X101.05 Y118.099
G0 X103.931 Y118.1
G1 F1500 X104.713 Y117.319 E1352.35037
G0 F9000 X105.356 Y116.334
G0 X105.494 Y117.952
G1 F1500 X105.333 Y118.113 E1352.4261
G1 F3600 E1348.4261
G0 F9000 X107.059 Y115.665
G0 X112.67 Y115.45
G0 X107.162 Y104.652
G0 X106.297 Y112.906
G1 F3600 E1352.4261
G1 F1500 X107.761 Y111.442 E1353.11473
G0 F9000 X105.272 Y104.463
G0 X108.239 Y112.378
G1 F1500 X107.714 Y112.904 E1353.3619
G1 F3600 E1349.3619
G0 F9000 X105.272 Y104.463
G0 X105.123 Y103.97
G0 X101.05 Y103.159
G0 X101.901 Y103.16
G1 F3600 E1353.3619
G1 F1500 X103.16 Y101.901 E1353.9541
G1 F3600 E1349.9541
;MESH:NONMESH
G0 F300 X103.16 Y101.901 Z19.6
G0 F9000 X114.931 Y115.676
G0 X114.48 Y116.684
;TIME_ELAPSED:398.731518
;LAYER:24
;TYPE:WALL-OUTER
;MESH:xyzCalibration_cube.stl
G1 F3600 E1353.9541
G1 F1500 X114.202 Y116.816 E1354.05646
G1 X106.404 Y116.816 E1356.65008
G1 X106.197 Y116.772 E1356.72047
G1 X106.039 Y116.659 E1356.78508
G1 X105.909 Y116.389 E1356.88475
G1 X105.904 Y114.707 E1357.44418
G1 X106.03 Y114.471 E1357.53316
G1 X106.191 Y114.351 E1357.59995
G1 X106.404 Y114.304 E1357.6725
G1 X110.795 Y114.304 E1359.13295
G1 X105.609 Y104.135 E1362.92961
G1 X105.624 Y103.861 E1363.02088
G1 X105.776 Y103.626 E1363.11396
G1 X106.042 Y103.504 E1363.2113
G1 X114.112 Y103.504 E1365.89539
G1 X114.286 Y103.534 E1365.95412
G1 X114.43 Y103.617 E1366.0094
G1 X114.612 Y103.879 E1366.1155
G1 X114.612 Y105.616 E1366.69323
G1 X114.541 Y105.779 E1366.75236
G1 X114.376 Y105.946 E1366.83045
G1 X114.177 Y106.02 E1366.90106
G1 X109.434 Y106.02 E1368.47859
G1 X114.635 Y116.183 E1372.27574
G1 X114.626 Y116.436 E1372.35994
G1 X114.48 Y116.684 E1372.45566
G1 F3600 E1368.45566
G0 F9000 X115.027 Y116.684
G0 X119.5 Y119.5
G1 F3600 E1372.45566
G1 F1500 X119.5 Y100.5 E1378.77509
G1 X100.501 Y100.501 E1385.09418
G1 X100.5 Y119.5 E1391.41327
G1 X119.5 Y119.5 E1397.7327
G0 F9000 X118.6 Y118.6
;TYPE:SKIN
G1 F1500 X118.6 Y101.4 E1403.45344
G1 X115.313 Y101.4 E1404.5467
G1 F1421.8 X114.298 Y101.456 E1404.9034
G1 F1351.4 X105.801 Y101.455 E1408.04039
G1 F1420.5 X104.846 Y101.401 E1408.37635
G1 F1498.5 X101.401 Y101.401 E1409.5233
G1 F1500 X101.4 Y118.6 E1415.24371
G1 X105.041 Y118.6 E1416.45472
G1 F1544.8 X106.412 Y118.629 E1416.89759
G1 F1592.4 X114.244 Y118.629 E1419.35143
G1 F1546.4 X115.356 Y118.601 E1419.71031
G1 F1501.5 X118.6 Y118.6 E1420.78819
G1 F3600 E1416.78819
G0 F9000 X105.302 Y104.589
G0 X109.323 Y113.404
G1 F3600 E1420.78819
G1 F1500 X104.858 Y104.648 E1424.05723
G1 X104.711 Y104.208 E1424.21153
G1 X104.744 Y103.638 E1424.40143
G1 F1494 X104.907 Y103.259 E1424.5392
G1 F1479.3 X105.176 Y102.947 E1424.67813
G1 F1459.1 X105.609 Y102.654 E1424.85689
G1 F1396.6 X105.896 Y102.557 E1424.96511
G1 F1351.4 X114.201 Y102.557 E1428.03121
G1 F1396.6 X114.565 Y102.643 E1428.16481
G1 F1459.1 X115.013 Y102.923 E1428.34545
G1 F1486.6 X115.282 Y103.225 E1428.48117
G1 F1500 X115.434 Y103.55 E1428.60051
G1 X115.512 Y103.969 E1428.74226
G1 X115.508 Y105.583 E1429.27908
G1 X115.469 Y105.851 E1429.36916
G1 X115.34 Y106.185 E1429.48824
G1 X115.092 Y106.528 E1429.62902
G1 X114.603 Y106.841 E1429.82213
G1 X114.158 Y106.92 E1429.97245
G1 X110.902 Y106.92 E1431.0554
G1 X115.457 Y115.82 E1434.38072
G1 X115.512 Y116.043 E1434.45711
G1 X115.516 Y116.588 E1434.63838
G1 X115.371 Y117 E1434.78365
G1 X115.082 Y117.36 E1434.9372
G1 F1527.5 X114.686 Y117.59 E1435.08677
G1 F1569 X114.326 Y117.684 E1435.20508
G1 F1577.3 X106.31 Y117.682 E1437.74057
G1 F1559.3 X105.809 Y117.583 E1437.90397
G1 F1524.4 X105.383 Y117.284 E1438.0743
G1 F1503 X105.118 Y116.889 E1438.23219
G1 F1500 X105.01 Y116.493 E1438.36871
G1 X105.004 Y114.632 E1438.98769
G1 X105.061 Y114.398 E1439.06779
G1 X105.337 Y113.876 E1439.26418
G1 X105.807 Y113.522 E1439.45989
G1 X106.358 Y113.404 E1439.64731
G1 X109.323 Y113.404 E1440.63347
G1 F3600 E1436.63347
G0 F9000 X105.272 Y104.463
G0 X109.721 Y113.292
G0 X109.875 Y113.599
G0 X101.05 Y118.099
G0 X102.543 Y118.1
G1 F3600 E1440.63347
G1 F1500 X101.9 Y117.456 E1440.93615
G0 F9000 X101.05 Y117.455
G0 X101.05 Y116.041
G0 X101.9 Y116.042
G1 F1500 X103.957 Y118.1 E1441.90394
G0 F9000 X105.356 Y116.334
G0 X105.386 Y118.114
G1 F1500 X101.9 Y114.628 E1443.54364
G0 F9000 X101.05 Y114.627
G0 X101.05 Y113.212
G0 X101.9 Y113.213
G1 F1500 X104.504 Y115.818 E1444.76872
G0 F9000 X105.356 Y115.818
G0 X105.356 Y114.888
G0 X104.55 Y114.449
G1 F1500 X101.9 Y111.799 E1446.0152
G0 F9000 X101.05 Y111.798
G0 X101.05 Y110.384
G0 X101.9 Y110.385
G1 F1500 X105.01 Y113.496 E1447.47828
G0 F9000 X105.356 Y114.888
G0 X109.464 Y112.794
G0 X105.915 Y112.986
G1 F1500 X101.9 Y108.972 E1449.36658
G0 F9000 X101.05 Y108.971
G0 X101.05 Y107.556
G0 X101.9 Y107.557
G1 F1500 X107.247 Y112.904 E1451.88165
G0 F9000 X105.272 Y104.463
G0 X108.347 Y112.59
G1 F1500 X101.9 Y106.143 E1454.91412
G0 F9000 X101.05 Y106.142
G0 X101.05 Y104.728
G0 X101.9 Y104.729
G1 F1500 X106.876 Y109.704 E1457.25444
G0 F9000 X105.272 Y104.463
G0 X105.404 Y106.818
G1 F1500 X101.9 Y103.315 E1458.90238
G0 F9000 X101.05 Y103.314
G0 X101.05 Y101.9
G0 X101.901 Y101.901
G1 F1500 X104.213 Y104.213 E1459.98987
G0 F9000 X105.216 Y104.158
G0 X105.272 Y103.533
G0 X104.466 Y103.052
G1 F1500 X103.316 Y101.902 E1460.5308
G0 F9000 X104.73 Y101.902
G1 F1500 X105.165 Y102.337 E1460.73541
G1 F3600 E1456.73541
G0 F9000 X107.162 Y104.652
G0 X109.5 Y108.706
G0 X111.78 Y107.538
G1 F3600 E1460.73541
G1 F1500 X118.1 Y113.858 E1463.70814
G0 F9000 X118.1 Y115.272
G1 F1500 X113.262 Y110.434 E1465.98379
G1 F3600 E1461.98379
G0 F9000 X113.076 Y107.419
G1 F3600 E1465.98379
G1 F1500 X118.1 Y112.443 E1468.34692
G0 F9000 X118.1 Y111.029
G1 F1500 X114.447 Y107.376 E1470.06518
G0 F9000 X115.39 Y106.905
G1 F1500 X118.1 Y109.615 E1471.33989
G0 F9000 X118.1 Y108.201
G1 F1500 X115.928 Y106.029 E1472.36153
G0 F9000 X116.012 Y104.698
G1 F1500 X118.1 Y106.787 E1473.34389
G0 F9000 X118.1 Y105.372
G1 F1500 X115.689 Y102.961 E1474.47795
G0 F9000 X115.137 Y102.409
G1 F1500 X114.696 Y101.968 E1474.68539
G0 F9000 X116.043 Y101.9
G1 F1500 X118.1 Y103.958 E1475.65317
G0 F9000 X118.1 Y102.544
G1 F1500 X117.457 Y101.9 E1475.95585
G1 F3600 E1471.95585
G0 F9000 X114.744 Y113.33
G1 F3600 E1475.95585
G1 F1500 X118.1 Y116.686 E1477.53441
G0 F9000 X118.1 Y118.1
G1 F1500 X116.003 Y116.003 E1478.52078
G0 F9000 X115.016 Y116.117
G0 X114.928 Y116.754
G0 X115.802 Y117.216
G1 F1500 X116.687 Y118.101 E1478.93706
G0 F9000 X114.997 Y116.794
G0 X115.277 Y118.106
G1 F1500 X115.095 Y117.923 E1479.0229
;TIME_ELAPSED:423.952387
G1 F3600 E1475.0229
M140 S0
G91 ;Relative positioning
G1 E-2 F2700 ;Retract a bit
G1 E-2 Z0.2 F2400 ;Retract and raise Z
G1 X5 Y5 F3000 ;Wipe out
G1 Z10 ;Raise Z more
G90 ;Absolute positioning

G1 X0 Y220 ;Present print
M106 S0 ;Turn-off fan
M104 S0 ;Turn-off hotend
M140 S0 ;Turn-off bed

M84 X Y E ;Disable all steppers but Z

;StarwarsI
M300 S1318 P600
M300 S1318 P600
M300 S1318 P600
M300 S1046 P300
M300 S0 P150
M300 S1567 P150
M300 S1318 P600
M300 S1046 P300
M300 S0 P150
M300 S1567 P150
M300 S1318 P600
M300 S0 P600
M300 S987 P600
M300 S987 P600
M300 S987 P600
M300 S2093 P300
M300 S0 P150
M300 S1567 P150
M300 S1244 P600
M300 S1046 P300
M300 S0 P150
M300 S1567 P150
M300 S1318 P600
M300 S0 P300
M82 ;absolute extrusion mode
M104 S0
;End of Gcode
;SETTING_3 {"global_quality": "[general]\\nversion = 4\\nname = PGDI_12\\ndefini
;SETTING_3 tion = creality_ender3pro\\n\\n[metadata]\\ntype = quality_changes\\n
;SETTING_3 quality_type = draft\\nsetting_version = 23\\n\\n[values]\\nadhesion_
;SETTING_3 type = brim\\nlayer_height = 0.8\\nlayer_height_0 = 0.4\\nmaterial_be
;SETTING_3 d_temperature_layer_0 = 120\\nsupport_enable = False\\nsupport_struct
;SETTING_3 ure = normal\\n\\n", "extruder_quality": ["[general]\\nversion = 4\\n
;SETTING_3 name = PGDI_12\\ndefinition = creality_ender3pro\\n\\n[metadata]\\nty
;SETTING_3 pe = quality_changes\\nquality_type = draft\\nintent_category = defau
;SETTING_3 lt\\nposition = 0\\nsetting_version = 23\\n\\n[values]\\nbottom_layer
;SETTING_3 s = 2\\ninfill_pattern = tetrahedral\\ninfill_sparse_density = 10\\ni
;SETTING_3 nset_direction = outside_in\\nmaterial_initial_print_temperature = 23
;SETTING_3 5\\nmaterial_print_temperature = 225\\nmaterial_print_temperature_lay
;SETTING_3 er_0 = 235\\nraft_airgap = 0.2\\nraft_interface_line_spacing = 1\\nra
;SETTING_3 ft_interface_line_width = 1\\nraft_margin = 5\\nraft_surface_layers =
;SETTING_3  1\\nskirt_height = 1\\nsupport_angle = 45\\ntop_layers = 3\\nwall_li
;SETTING_3 ne_count = 1\\nz_seam_type = sharpest_corner\\n\\n"]}
