;FLAVOR:Marlin
;TIME:398
;Filament used: 1.91097m
;Layer height: 0.8
;MINX:87.5
;MINY:87.5
;MINZ:0.4
;MAXX:132.5
;MAXY:132.5
;MAXZ:19.6
;TARGET_MACHINE.NAME:Creality Ender-3 Pro
;Generated with Cura_SteamEngine 5.8.1
M82 ;absolute extrusion mode
; Ender 3 Custom Start G-code
G92 E0 ; Reset Extruder
G28 ; Home all axes
G1 Z5.0 F3000 ; Move Z Axis up a bit during heating to not damage bed
M104 S180.0 ; Start heating up the nozzle most of the way
M190 S70 ; Start heating the bed, wait until target temperature reached
M109 S225 ; Finish heating the nozzle
G1 Z2.0 F3000 ; Move Z Axis up little to prevent scratching of Heat Bed
G1 X0.1 Y20 Z0.3 F5000.0 ; Move to start position
G1 X0.1 Y200.0 Z0.3 F1500.0 E15 ; Draw the first line
G1 X0.4 Y200.0 Z0.3 F5000.0 ; Move to side a little
G1 X0.4 Y20 Z0.3 F1500.0 E30 ; Draw the second line
G92 E0 ; Reset Extruder
G29 A L0
G1 Z2.0 F3000 ; Move Z Axis up little to prevent scratching of Heat Bed
G1 X5 Y20 Z0.3 F5000.0 ; Move over to prevent blob squish

M300 S2637 P150
M300 S2637 P150
M300 S0 P75
M300 S2637 P300
M300 S2093 P150
M300 S2637 P300
M300 S3135 P300
M300 S0 P300
M300 S1567 P300
M300 S0 P300
M300 S2093 P300
M300 S0 P150
M300 S1567 P300
M300 S0 P150
M300 S1318 P300
M300 S0 P150
M300 S880 P300
M300 S987 P300
M300 S932 P150
M300 S880 P300
M300 S1567 P225
M300 S2637 P150
M300 S3135 P150
M300 S1760 P300
M300 S2793 P150
M300 S3135 P300
M300 S2637 P300
M300 S2093 P150
M300 S2349 P150
M300 S987 P300
M300 S0 P150
M300 S2093 P300
M300 S0 P150
M300 S1567 P300
M300 S0 P150
M300 S1318 P300
M300 S0 P150
M300 S880 P300
M300 S987 P300
M300 S932 P150
M300 S880 P300
M300 S1567 P225
M300 S2637 P150
M300 S3135 P150
M300 S1760 P300
M300 S2793 P150
M300 S3135 P300
M300 S2637 P300
M300 S2093 P150
M300 S2349 P150
M300 S987 P300
M300 S0 P300
M300 S3135 P150
M300 S2959 P150
M300 S2793 P150
M300 S2489 P150
M300 S0 P150
M300 S2637 P150
M300 S0 P150
M300 S1661 P150
M300 S880 P150
M300 S2093 P150
M300 S0 P150
M300 S880 P150
M300 S2093 P150
M300 S2349 P150
M300 S0 P300
M300 S3135 P150
M300 S2959 P150
M300 S2793 P150
M300 S2489 P150
M300 S0 P150
M300 S2637 P150
M300 S0 P150
M300 S4186 P150
M300 S0 P150
M300 S4186 P150
M300 S4186 P150
M300 S0 P600
M300 S3135 P150
M300 S2959 P150
M300 S2793 P150
M300 S2489 P150
M300 S0 P150
M300 S2637 P150
M300 S0 P150
M300 S1661 P150
M300 S880 P150
M300 S2093 P150
M300 S0 P150
M300 S880 P150
M300 S2093 P150
M300 S2349 P150
M300 S0 P300
M300 S2489 P150
M300 S0 P300
M300 S2349 P150
M300 S0 P300
M300 S2093 P150
G92 E0
G92 E0
G1 F2700 E-9
;LAYER_COUNT:25
;LAYER:0
M107
G0 F6000 X91.358 Y90.988 Z0.4
;TYPE:SKIRT
G1 F2700 E0
G1 F1200 X92.11 Y90.322 E0.16705
G1 X93.059 Y89.621 E0.36326
G1 X93.99 Y89.056 E0.54437
G1 X94.967 Y88.573 E0.72561
G1 X95.985 Y88.176 E0.90732
G1 X97.031 Y87.871 E1.08852
G1 X98.098 Y87.658 E1.26946
G1 X99.14 Y87.539 E1.44387
G1 X99.673 Y87.513 E1.53262
G1 X100.288 Y87.5 E1.63492
G1 X119.319 Y87.5 E4.79978
G1 X120.167 Y87.511 E4.94082
G1 X121.35 Y87.586 E5.13795
G1 X122.427 Y87.752 E5.31917
G1 X123.486 Y88.011 E5.50047
G1 X124.519 Y88.361 E5.68185
G1 X125.519 Y88.801 E5.86354
G1 X126.473 Y89.324 E6.04447
G1 X127.382 Y89.931 E6.22624
G1 X128.229 Y90.61 E6.40677
G1 X128.957 Y91.302 E6.5738
G1 X129.682 Y92.118 E6.75533
G1 X130.383 Y93.067 E6.95154
G1 X130.948 Y93.996 E7.13236
G1 X131.359 Y94.815 E7.28475
G1 X131.767 Y95.821 E7.46528
G1 X132.109 Y96.954 E7.6621
G1 X132.343 Y98.11 E7.85824
G1 X132.461 Y99.148 E8.03197
G1 X132.487 Y99.674 E8.11955
G1 X132.5 Y100.33 E8.22867
G1 X132.499 Y119.418 E11.40301
G1 X132.49 Y120.145 E11.52392
G1 X132.418 Y121.326 E11.72069
G1 X132.255 Y122.403 E11.90183
G1 X132.022 Y123.38 E12.06887
G1 X131.648 Y124.497 E12.26476
G1 X131.212 Y125.495 E12.44588
G1 X130.689 Y126.454 E12.62753
G1 X130.085 Y127.362 E12.80889
G1 X129.404 Y128.214 E12.99028
G1 X128.713 Y128.943 E13.15732
G1 X127.836 Y129.721 E13.35228
G1 X127.102 Y130.27 E13.50471
G1 X126.102 Y130.893 E13.70065
G1 X125.045 Y131.422 E13.89721
G1 X124.028 Y131.82 E14.07883
G1 X122.983 Y132.126 E14.25991
G1 X121.916 Y132.34 E14.44089
G1 X120.873 Y132.46 E14.61548
G1 X120.326 Y132.487 E14.70656
G1 X119.67 Y132.5 E14.81568
G1 X100.546 Y132.499 E17.99601
G1 X99.848 Y132.49 E18.1121
G1 X98.673 Y132.418 E18.30787
G1 X97.766 Y132.287 E18.46027
G1 X96.53 Y131.995 E18.67147
G1 X95.499 Y131.647 E18.85243
G1 X94.497 Y131.209 E19.03429
G1 X93.616 Y130.731 E19.20098
G1 X92.631 Y130.08 E19.39733
G1 X91.782 Y129.4 E19.57822
G1 X90.992 Y128.646 E19.75983
G1 X90.273 Y127.828 E19.94095
G1 X89.625 Y126.948 E20.12269
G1 X89.059 Y126.017 E20.30388
G1 X88.611 Y125.12 E20.47062
G1 X88.178 Y124.021 E20.66706
G1 X87.873 Y122.977 E20.84793
G1 X87.659 Y121.908 E21.02924
G1 X87.54 Y120.867 E21.20348
G1 X87.513 Y120.316 E21.29522
G1 X87.5 Y119.658 E21.40467
G1 X87.501 Y100.504 E24.58999
G1 X87.51 Y99.839 E24.70059
G1 X87.582 Y98.664 E24.89636
G1 X87.714 Y97.757 E25.04879
G1 X87.982 Y96.611 E25.24451
G1 X88.354 Y95.494 E25.4403
G1 X88.755 Y94.572 E25.6075
G1 X89.318 Y93.536 E25.80359
G1 X89.871 Y92.698 E25.97056
G1 X90.549 Y91.841 E26.15228
G1 X91.358 Y90.988 E26.34779
G0 F6000 X92.021 Y91.737
G1 F1200 X92.773 Y91.071 E26.51484
G1 X93.581 Y90.474 E26.68191
G1 X94.436 Y89.951 E26.84859
G1 X95.334 Y89.503 E27.01548
G1 X96.268 Y89.135 E27.18243
G1 X97.23 Y88.851 E27.34924
G1 X98.213 Y88.651 E27.51606
G1 X99.19 Y88.538 E27.67962
G1 X99.694 Y88.513 E27.76354
G1 X100.309 Y88.5 E27.86583
G1 X119.306 Y88.5 E31.02505
G1 X120.154 Y88.511 E31.16608
G1 X121.201 Y88.575 E31.34052
G1 X122.193 Y88.724 E31.50734
G1 X123.168 Y88.959 E31.67413
G1 X124.12 Y89.278 E31.8411
G1 X125.041 Y89.679 E32.00815
G1 X125.921 Y90.158 E32.17477
G1 X126.759 Y90.713 E32.34192
G1 X127.543 Y91.338 E32.50866
G1 X128.209 Y91.966 E32.66089
G1 X128.934 Y92.782 E32.84242
G1 X129.53 Y93.589 E33.00926
G1 X130.054 Y94.445 E33.17616
G1 X130.465 Y95.264 E33.32855
G1 X130.839 Y96.194 E33.49525
G1 X131.151 Y97.24 E33.67677
G1 X131.35 Y98.224 E33.84373
G1 X131.462 Y99.198 E34.00677
G1 X131.487 Y99.694 E34.08936
G1 X131.5 Y100.33 E34.19515
G1 X131.499 Y119.406 E37.3675
G1 X131.49 Y120.133 E37.48841
G1 X131.429 Y121.179 E37.66266
G1 X131.282 Y122.171 E37.82943
G1 X131.049 Y123.148 E37.99646
G1 X130.731 Y124.099 E38.16322
G1 X130.332 Y125.019 E38.32999
G1 X129.854 Y125.903 E38.49711
G1 X129.302 Y126.74 E38.66385
G1 X128.678 Y127.526 E38.83075
G1 X127.987 Y128.255 E38.99779
G1 X127.237 Y128.92 E39.16448
G1 X126.503 Y129.469 E39.31691
G1 X125.576 Y130.043 E39.49823
G1 X124.678 Y130.492 E39.6652
G1 X123.744 Y130.861 E39.83221
G1 X122.783 Y131.146 E39.9989
G1 X121.8 Y131.347 E40.16576
G1 X120.823 Y131.461 E40.32933
G1 X120.306 Y131.487 E40.41542
G1 X119.67 Y131.5 E40.52121
G1 X100.559 Y131.499 E43.69938
G1 X99.861 Y131.49 E43.81547
G1 X98.816 Y131.428 E43.98956
G1 X97.909 Y131.297 E44.14196
G1 X96.847 Y131.047 E44.3234
G1 X95.896 Y130.729 E44.49016
G1 X94.974 Y130.33 E44.65723
G1 X94.093 Y129.852 E44.82391
G1 X93.254 Y129.298 E44.99111
G1 X92.47 Y128.674 E45.15775
G1 X91.741 Y127.983 E45.32479
G1 X91.076 Y127.232 E45.49161
G1 X90.478 Y126.426 E45.65851
G1 X89.954 Y125.57 E45.82542
G1 X89.506 Y124.673 E45.99216
G1 X89.137 Y123.738 E46.15932
G1 X88.853 Y122.777 E46.32597
G1 X88.652 Y121.793 E46.49299
G1 X88.539 Y120.817 E46.65638
G1 X88.513 Y120.296 E46.74313
G1 X88.5 Y119.658 E46.84925
G1 X88.501 Y100.518 E50.03225
G1 X88.51 Y99.853 E50.14285
G1 X88.572 Y98.808 E50.31694
G1 X88.704 Y97.901 E50.46936
G1 X88.955 Y96.841 E50.65052
G1 X89.273 Y95.889 E50.81743
G1 X89.635 Y95.047 E50.96985
G1 X90.153 Y94.087 E51.15126
G1 X90.706 Y93.249 E51.31823
G1 X91.331 Y92.464 E51.4851
G1 X92.021 Y91.737 E51.65178
G0 F6000 X92.687 Y92.483
G1 F1200 X93.371 Y91.873 E51.80419
G1 X94.106 Y91.325 E51.95666
G1 X94.886 Y90.844 E52.10905
G1 X95.704 Y90.432 E52.26137
G1 X96.555 Y90.093 E52.41371
G1 X97.433 Y89.83 E52.56613
G1 X98.33 Y89.644 E52.71847
G1 X99.24 Y89.537 E52.87085
G1 X99.715 Y89.513 E52.94994
G1 X100.33 Y89.5 E53.05224
G1 X119.293 Y89.5 E56.2058
G1 X120.141 Y89.511 E56.34683
G1 X121.056 Y89.564 E56.49926
G1 X121.963 Y89.697 E56.6517
G1 X122.854 Y89.908 E56.80397
G1 X123.724 Y90.196 E56.95638
G1 X124.566 Y90.559 E57.10886
G1 X125.372 Y90.994 E57.26118
G1 X126.138 Y91.497 E57.41357
G1 X126.857 Y92.066 E57.56605
G1 X127.523 Y92.694 E57.71828
G1 X128.132 Y93.379 E57.87071
G1 X128.679 Y94.114 E58.02308
G1 X129.16 Y94.894 E58.17547
G1 X129.571 Y95.713 E58.32786
G1 X129.91 Y96.564 E58.4802
G1 X130.172 Y97.442 E58.63257
G1 X130.357 Y98.34 E58.78505
G1 X130.463 Y99.25 E58.9374
G1 X130.487 Y99.715 E59.01483
G1 X130.5 Y100.33 E59.11713
G1 X130.499 Y119.394 E62.28749
G1 X130.49 Y120.121 E62.4084
G1 X130.439 Y121.036 E62.5608
G1 X130.308 Y121.943 E62.7132
G1 X130.099 Y122.835 E62.86556
G1 X129.812 Y123.705 E63.01791
G1 X129.451 Y124.547 E63.17026
G1 X129.018 Y125.355 E63.32271
G1 X128.516 Y126.121 E63.47501
G1 X127.949 Y126.841 E63.62742
G1 X127.321 Y127.509 E63.77989
G1 X126.638 Y128.119 E63.93218
G1 X125.904 Y128.668 E64.08461
G1 X125.125 Y129.15 E64.23695
G1 X124.307 Y129.563 E64.38934
G1 X123.456 Y129.903 E64.54174
G1 X122.579 Y130.167 E64.69405
G1 X121.682 Y130.354 E64.84643
G1 X120.772 Y130.462 E64.99883
G1 X120.285 Y130.487 E65.07992
G1 X119.67 Y130.5 E65.18222
G1 X100.572 Y130.499 E68.35823
G1 X99.874 Y130.49 E68.47432
G1 X98.959 Y130.438 E68.62673
G1 X98.052 Y130.307 E68.77913
G1 X97.16 Y130.097 E68.93152
G1 X96.29 Y129.81 E69.08388
G1 X95.448 Y129.449 E69.23623
G1 X94.641 Y129.015 E69.38861
G1 X93.874 Y128.513 E69.54105
G1 X93.155 Y127.945 E69.69343
G1 X92.487 Y127.317 E69.8459
G1 X91.877 Y126.634 E69.99819
G1 X91.329 Y125.9 E70.15053
G1 X90.847 Y125.12 E70.30301
G1 X90.435 Y124.302 E70.45532
G1 X90.095 Y123.451 E70.60772
G1 X89.832 Y122.573 E70.76014
G1 X89.645 Y121.676 E70.91252
G1 X89.538 Y120.766 E71.0649
G1 X89.513 Y120.275 E71.14666
G1 X89.5 Y119.658 E71.24929
G1 X89.501 Y100.532 E74.42995
G1 X89.51 Y99.867 E74.54055
G1 X89.562 Y98.952 E74.69297
G1 X89.694 Y98.045 E74.84539
G1 X89.905 Y97.154 E74.99766
G1 X90.192 Y96.284 E75.15001
G1 X90.554 Y95.442 E75.30243
G1 X90.989 Y94.635 E75.45489
G1 X91.491 Y93.869 E75.60719
G1 X92.059 Y93.15 E75.75957
G1 X92.687 Y92.483 E75.91192
G1 F2700 E66.91192
;MESH:xyzCalibration_cube.stl
G0 F6000 X101.014 Y99.335
G0 X119.5 Y119.5
;TYPE:WALL-OUTER
G1 F2700 E75.91192
G1 F1200 X119.5 Y100.5 E79.07164
G1 X100.5 Y100.5 E82.23135
G1 X100.5 Y119.5 E85.39106
G1 X119.5 Y119.5 E88.55078
G0 F6000 X118.93 Y118.93
G0 X118.5 Y118.5
;TYPE:WALL-INNER
G1 F1200 X118.5 Y101.5 E91.37789
G1 X101.5 Y101.5 E94.205
G1 X101.5 Y118.5 E97.03211
G1 X118.5 Y118.5 E99.85922
G0 F6000 X118.1 Y117.6
G0 X117.6 Y117.6
;TYPE:SKIN
G1 F1200 X117.6 Y102.4 E102.38699
G1 X102.4 Y102.4 E104.91476
G1 X102.4 Y117.6 E107.44253
G1 X117.6 Y117.6 E109.9703
G0 F6000 X118.1 Y117.6
G0 X118.028 Y101.972
G0 X115.628 Y101.9
G0 X115.628 Y102.9
G1 F1200 X117.1 Y104.372 E110.3165
G0 F6000 X118.1 Y104.372
G0 X118.1 Y105.786
G0 X117.1 Y105.786
G1 F1200 X114.214 Y102.9 E110.99524
G0 F6000 X114.214 Y101.9
G0 X112.8 Y101.9
G0 X112.8 Y102.9
G1 F1200 X117.1 Y107.2 E112.00653
G0 F6000 X118.1 Y107.2
G0 X118.1 Y108.614
G0 X117.1 Y108.614
G1 F1200 X111.386 Y102.9 E113.35038
G0 F6000 X111.386 Y101.9
G0 X109.971 Y101.9
G0 X109.971 Y102.9
G1 F1200 X117.1 Y110.029 E115.02701
G0 F6000 X118.1 Y110.029
G0 X118.1 Y111.443
G0 X117.1 Y111.443
G1 F1200 X108.557 Y102.9 E117.03619
G0 F6000 X108.557 Y101.9
G0 X107.143 Y101.9
G0 X107.143 Y102.9
G1 F1200 X117.1 Y112.857 E119.37793
G0 F6000 X118.1 Y112.857
G0 X118.1 Y114.271
G0 X117.1 Y114.271
G1 F1200 X105.729 Y102.9 E122.05221
G0 F6000 X105.729 Y101.9
G0 X104.315 Y101.9
G0 X104.315 Y102.9
G1 F1200 X117.1 Y115.685 E125.05905
G0 F6000 X118.1 Y115.685
G0 X118.1 Y117.1
G0 X117.1 Y117.1
G1 F1200 X102.9 Y102.9 E128.39867
G0 F6000 X101.9 Y102.9
G0 X101.9 Y104.314
G0 X102.9 Y104.314
G1 F1200 X115.685 Y117.1 E131.40562
G0 F6000 X115.685 Y118.1
G0 X114.271 Y118.1
G0 X114.271 Y117.1
G1 F1200 X102.9 Y105.728 E134.08002
G0 F6000 X101.9 Y105.728
G0 X101.9 Y107.142
G0 X102.9 Y107.142
G1 F1200 X112.857 Y117.1 E136.42188
G0 F6000 X112.857 Y118.1
G0 X111.443 Y118.1
G0 X111.443 Y117.1
M104 S215
G1 F1200 X102.9 Y108.556 E138.43118
G0 F6000 X101.9 Y108.556
G0 X101.9 Y109.971
G0 X102.9 Y109.971
G1 F1200 X110.029 Y117.1 E140.10781
G0 F6000 X110.029 Y118.1
G0 X108.614 Y118.1
G0 X108.614 Y117.1
G1 F1200 X102.9 Y111.385 E141.45177
G0 F6000 X101.9 Y111.385
G0 X101.9 Y112.799
G0 X102.9 Y112.799
G1 F1200 X107.2 Y117.1 E142.46318
G0 F6000 X107.2 Y118.1
G0 X105.786 Y118.1
G0 X105.786 Y117.1
G1 F1200 X102.9 Y114.213 E143.14204
G0 F6000 X101.9 Y114.213
G0 X101.9 Y115.628
G0 X102.9 Y115.628
G1 F1200 X104.372 Y117.1 E143.48823
G1 F2700 E134.48823
;MESH:NONMESH
G0 F300 X104.372 Y117.1 Z1.2
G0 F6000 X104.372 Y118.1
G0 X101.972 Y118.028
G0 X101.014 Y101.014
G0 X101.014 Y99.335
G0 X92.687 Y92.483
;TIME_ELAPSED:55.381106
;LAYER:1
M140 S60
M106 S85
;TYPE:SKIRT
G1 F2700 E143.48823
G1 F1200 X93.371 Y91.873 E143.79306
G1 X94.106 Y91.325 E144.09799
G1 X94.886 Y90.844 E144.40278
G1 X95.704 Y90.432 E144.70741
G1 X96.555 Y90.093 E145.01209
G1 X97.433 Y89.83 E145.31693
G1 X98.33 Y89.644 E145.62162
G1 X99.24 Y89.537 E145.92637
G1 X99.715 Y89.513 E146.08456
G1 X100.33 Y89.5 E146.28915
G1 X119.293 Y89.5 E152.59627
G1 X120.141 Y89.511 E152.87834
G1 X121.056 Y89.564 E153.18318
G1 X121.963 Y89.697 E153.48808
G1 X122.854 Y89.908 E153.79262
G1 X123.724 Y90.196 E154.09743
G1 X124.566 Y90.559 E154.4024
G1 X125.372 Y90.994 E154.70702
G1 X126.138 Y91.497 E155.01181
G1 X126.857 Y92.066 E155.31678
G1 X127.523 Y92.694 E155.62124
G1 X128.132 Y93.379 E155.92609
G1 X128.679 Y94.114 E156.23083
G1 X129.16 Y94.894 E156.53562
G1 X129.571 Y95.713 E156.84039
G1 X129.91 Y96.564 E157.14507
G1 X130.172 Y97.442 E157.44982
G1 X130.357 Y98.34 E157.75476
G1 X130.463 Y99.25 E158.05948
G1 X130.487 Y99.715 E158.21434
G1 X130.5 Y100.33 E158.41894
G1 X130.499 Y119.394 E164.75965
G1 X130.49 Y120.121 E165.00147
G1 X130.439 Y121.036 E165.30627
G1 X130.308 Y121.943 E165.61107
G1 X130.099 Y122.835 E165.91579
G1 X129.812 Y123.705 E166.22049
G1 X129.451 Y124.547 E166.52519
G1 X129.018 Y125.355 E166.83009
G1 X128.516 Y126.121 E167.1347
G1 X127.949 Y126.841 E167.43952
G1 X127.321 Y127.509 E167.74446
G1 X126.638 Y128.119 E168.04904
G1 X125.904 Y128.668 E168.3539
G1 X125.125 Y129.15 E168.65858
G1 X124.307 Y129.563 E168.96336
G1 X123.456 Y129.903 E169.26816
G1 X122.579 Y130.167 E169.57278
G1 X121.682 Y130.354 E169.87754
G1 X120.772 Y130.462 E170.18233
G1 X120.285 Y130.487 E170.34452
G1 X119.67 Y130.5 E170.54912
G1 X100.572 Y130.499 E176.90114
G1 X99.874 Y130.49 E177.13331
G1 X98.959 Y130.438 E177.43813
G1 X98.052 Y130.307 E177.74293
G1 X97.16 Y130.097 E178.04772
G1 X96.29 Y129.81 E178.35242
G1 X95.448 Y129.449 E178.65713
G1 X94.641 Y129.015 E178.96189
G1 X93.874 Y128.513 E179.26678
G1 X93.155 Y127.945 E179.57154
G1 X92.487 Y127.317 E179.87648
G1 X91.877 Y126.634 E180.18106
G1 X91.329 Y125.9 E180.48572
G1 X90.847 Y125.12 E180.79069
G1 X90.435 Y124.302 E181.09532
G1 X90.095 Y123.451 E181.40012
G1 X89.832 Y122.573 E181.70496
G1 X89.645 Y121.676 E182.00972
G1 X89.538 Y120.766 E182.31447
G1 X89.513 Y120.275 E182.47799
G1 X89.5 Y119.658 E182.68325
G1 X89.501 Y100.532 E189.04458
G1 X89.51 Y99.867 E189.26578
G1 X89.562 Y98.952 E189.5706
G1 X89.694 Y98.045 E189.87545
G1 X89.905 Y97.154 E190.18
G1 X90.192 Y96.284 E190.4847
G1 X90.554 Y95.442 E190.78953
G1 X90.989 Y94.635 E191.09445
G1 X91.491 Y93.869 E191.39906
G1 X92.059 Y93.15 E191.70382
G1 X92.687 Y92.483 E192.00852
G1 F2700 E183.00852
;MESH:xyzCalibration_cube.stl
G0 F7500 X101.014 Y99.335
G0 X119.5 Y119.5
;TYPE:WALL-OUTER
G1 F2700 E192.00852
G1 F1350 X119.5 Y100.5 E198.32795
G1 X100.5 Y100.5 E204.64737
G1 X100.5 Y119.5 E210.9668
G1 X119.5 Y119.5 E217.28623
G0 F7500 X118.93 Y118.93
G0 X118.5 Y118.5
;TYPE:WALL-INNER
G1 F1350 X118.5 Y101.5 E222.94045
G1 X101.5 Y101.5 E228.59467
G1 X101.5 Y118.5 E234.24889
G1 X118.5 Y118.5 E239.90312
G0 F7500 X118.1 Y117.6
G0 X117.6 Y117.6
;TYPE:SKIN
G1 F1350 X117.6 Y102.4 E244.95866
G1 X102.4 Y102.4 E250.0142
G1 X102.4 Y117.6 E255.06974
G1 X117.6 Y117.6 E260.12528
G0 F7500 X118.1 Y117.6
G0 X118.028 Y118.028
G0 X116.246 Y118.1
G0 X116.246 Y117.1
G1 F1350 X117.1 Y116.246 E260.52698
G0 F7500 X118.1 Y116.246
G0 X118.1 Y114.831
G0 X117.1 Y114.831
G1 F1350 X114.831 Y117.1 E261.59424
G0 F7500 X114.831 Y118.1
G0 X113.417 Y118.1
G0 X113.417 Y117.1
G1 F1350 X117.1 Y113.417 E263.32661
G0 F7500 X118.1 Y113.417
G0 X118.1 Y112.003
G0 X117.1 Y112.003
G1 F1350 X112.003 Y117.1 E265.72409
G0 F7500 X112.003 Y118.1
G0 X110.589 Y118.1
G0 X110.589 Y117.1
G1 F1350 X117.1 Y110.589 E268.78666
G0 F7500 X118.1 Y110.589
G0 X118.1 Y109.174
G0 X117.1 Y109.174
G1 F1350 X109.174 Y117.1 E272.51481
G0 F7500 X109.174 Y118.1
G0 X107.76 Y118.1
G0 X107.76 Y117.1
G1 F1350 X117.1 Y107.76 E276.90806
G0 F7500 X118.1 Y107.76
G0 X118.1 Y106.346
G0 X117.1 Y106.346
G1 F1350 X106.346 Y117.1 E281.96641
G0 F7500 X106.346 Y118.1
G0 X104.932 Y118.1
G0 X104.932 Y117.1
G1 F1350 X117.1 Y104.932 E287.68986
G0 F7500 X118.1 Y104.932
G0 X118.1 Y103.518
G0 X117.1 Y103.518
G1 F1350 X103.518 Y117.1 E294.07842
G0 F7500 X103.518 Y118.1
G0 X101.972 Y118.028
G0 X101.9 Y116.303
G0 X102.9 Y116.303
G1 F1350 X116.304 Y102.9 E300.38302
G0 F7500 X116.304 Y101.9
G0 X114.889 Y101.9
G0 X114.889 Y102.9
G1 F1350 X102.9 Y114.889 E306.02227
G0 F7500 X101.9 Y114.889
G0 X101.9 Y113.474
G0 X102.9 Y113.474
G1 F1350 X113.475 Y102.9 E310.99619
G0 F7500 X113.475 Y101.9
G0 X112.061 Y101.9
G0 X112.061 Y102.9
G1 F1350 X102.9 Y112.06 E315.30501
G0 F7500 X101.9 Y112.06
G0 X101.9 Y110.646
G0 X102.9 Y110.646
G1 F1350 X110.647 Y102.9 E318.94873
G0 F7500 X110.647 Y101.9
G0 X109.232 Y101.9
G0 X109.232 Y102.9
G1 F1350 X102.9 Y109.232 E321.92711
G0 F7500 X101.9 Y109.232
G0 X101.9 Y107.818
G0 X102.9 Y107.818
G1 F1350 X107.818 Y102.9 E324.24038
G0 F7500 X107.818 Y101.9
G0 X106.404 Y101.9
G0 X106.404 Y102.9
G1 F1350 X102.9 Y106.403 E325.88832
G0 F7500 X101.9 Y106.403
G0 X101.9 Y104.989
G0 X102.9 Y104.989
G1 F1350 X104.99 Y102.9 E326.87116
G0 F7500 X104.99 Y101.9
G0 X103.576 Y101.9
G0 X103.576 Y102.9
G1 F1350 X102.9 Y103.575 E327.18889
G1 F2700 E318.18889
;MESH:NONMESH
G0 F300 X102.9 Y103.575 Z2
G0 F7500 X101.9 Y103.575
G0 X101.014 Y101.014
G0 X101.014 Y99.335
G0 X92.687 Y92.483
;TIME_ELAPSED:88.488552
;LAYER:2
M106 S170
;TYPE:SKIRT
G1 F2700 E327.18889
G1 F1200 X93.371 Y91.873 E327.49372
G1 X94.106 Y91.325 E327.79865
G1 X94.886 Y90.844 E328.10344
G1 X95.704 Y90.432 E328.40807
G1 X96.555 Y90.093 E328.71274
G1 X97.433 Y89.83 E329.01759
G1 X98.33 Y89.644 E329.32228
G1 X99.24 Y89.537 E329.62703
G1 X99.715 Y89.513 E329.78522
G1 X100.33 Y89.5 E329.98981
G1 X119.293 Y89.5 E336.29693
G1 X120.141 Y89.511 E336.579
G1 X121.056 Y89.564 E336.88384
G1 X121.963 Y89.697 E337.18874
G1 X122.854 Y89.908 E337.49328
G1 X123.724 Y90.196 E337.79809
G1 X124.566 Y90.559 E338.10306
G1 X125.372 Y90.994 E338.40768
G1 X126.138 Y91.497 E338.71247
G1 X126.857 Y92.066 E339.01744
G1 X127.523 Y92.694 E339.3219
G1 X128.132 Y93.379 E339.62675
G1 X128.679 Y94.114 E339.93148
G1 X129.16 Y94.894 E340.23628
G1 X129.571 Y95.713 E340.54105
G1 X129.91 Y96.564 E340.84573
G1 X130.172 Y97.442 E341.15048
G1 X130.357 Y98.34 E341.45542
G1 X130.463 Y99.25 E341.76014
G1 X130.487 Y99.715 E341.915
G1 X130.5 Y100.33 E342.1196
G1 X130.499 Y119.394 E348.46031
G1 X130.49 Y120.121 E348.70213
G1 X130.439 Y121.036 E349.00693
G1 X130.308 Y121.943 E349.31173
G1 X130.099 Y122.835 E349.61645
G1 X129.812 Y123.705 E349.92115
G1 X129.451 Y124.547 E350.22585
G1 X129.018 Y125.355 E350.53075
G1 X128.516 Y126.121 E350.83536
G1 X127.949 Y126.841 E351.14017
G1 X127.321 Y127.509 E351.44512
G1 X126.638 Y128.119 E351.7497
G1 X125.904 Y128.668 E352.05456
G1 X125.125 Y129.15 E352.35924
G1 X124.307 Y129.563 E352.66402
G1 X123.456 Y129.903 E352.96882
G1 X122.579 Y130.167 E353.27344
G1 X121.682 Y130.354 E353.5782
G1 X120.772 Y130.462 E353.88299
G1 X120.285 Y130.487 E354.04518
G1 X119.67 Y130.5 E354.24977
G1 X100.572 Y130.499 E360.6018
G1 X99.874 Y130.49 E360.83397
G1 X98.959 Y130.438 E361.13879
G1 X98.052 Y130.307 E361.44359
G1 X97.16 Y130.097 E361.74838
G1 X96.29 Y129.81 E362.05308
G1 X95.448 Y129.449 E362.35779
G1 X94.641 Y129.015 E362.66255
G1 X93.874 Y128.513 E362.96744
G1 X93.155 Y127.945 E363.2722
G1 X92.487 Y127.317 E363.57714
G1 X91.877 Y126.634 E363.88172
G1 X91.329 Y125.9 E364.18638
G1 X90.847 Y125.12 E364.49135
G1 X90.435 Y124.302 E364.79598
G1 X90.095 Y123.451 E365.10078
G1 X89.832 Y122.573 E365.40562
G1 X89.645 Y121.676 E365.71038
G1 X89.538 Y120.766 E366.01513
G1 X89.513 Y120.275 E366.17865
G1 X89.5 Y119.658 E366.38391
G1 X89.501 Y100.532 E372.74524
G1 X89.51 Y99.867 E372.96644
G1 X89.562 Y98.952 E373.27126
G1 X89.694 Y98.045 E373.57611
G1 X89.905 Y97.154 E373.88066
G1 X90.192 Y96.284 E374.18536
G1 X90.554 Y95.442 E374.49019
G1 X90.989 Y94.635 E374.79511
G1 X91.491 Y93.869 E375.09972
G1 X92.059 Y93.15 E375.40448
G1 X92.687 Y92.483 E375.70918
G1 F2700 E366.70918
;MESH:xyzCalibration_cube.stl
G0 F9000 X101.014 Y99.335
G0 X119.5 Y119.5
;TYPE:WALL-OUTER
G1 F2700 E375.70918
G1 F1500 X119.5 Y100.5 E382.02861
G1 X100.5 Y100.5 E388.34803
G1 X100.5 Y119.5 E394.66746
G1 X119.5 Y119.5 E400.98689
G0 F9000 X118.93 Y118.93
G0 X117.93 Y117.93
G0 X118.5 Y118.5
;TYPE:WALL-INNER
G1 F1500 X118.5 Y101.5 E406.64111
G1 X101.5 Y101.5 E412.29533
G1 X101.5 Y118.5 E417.94955
G1 X118.5 Y118.5 E423.60378
G0 F9000 X117 Y117.293
;MESH:NONMESH
G0 F300 X117 Y117.293 Z2.8
G0 F9000 X118.93 Y118.93
G0 X119.5 Y119.5
;TIME_ELAPSED:103.784421
;LAYER:3
;note -- min layer time used
M106 S255
;TYPE:WALL-OUTER
;MESH:xyzCalibration_cube.stl
G1 F868.8 X119.5 Y100.5 E429.9232
G1 X100.5 Y100.5 E436.24263
G1 X100.5 Y119.5 E442.56205
G1 X119.5 Y119.5 E448.88148
G0 F9000 X118.93 Y118.93
G0 X117.93 Y117.93
G0 X118.5 Y118.5
;TYPE:WALL-INNER
G1 F868.8 X118.5 Y101.5 E454.5357
G1 X101.5 Y101.5 E460.18993
G1 X101.5 Y118.5 E465.84415
G1 X118.5 Y118.5 E471.49837
G0 F9000 X117 Y117.293
;MESH:NONMESH
G0 F300 X117 Y117.293 Z3.6
G0 F9000 X118.93 Y118.93
G0 X119.5 Y119.5
;TIME_ELAPSED:114.421991
;LAYER:4
;note -- min layer time used
;TYPE:WALL-OUTER
;MESH:xyzCalibration_cube.stl
G1 F868.8 X119.5 Y100.5 E477.8178
G1 X100.5 Y100.5 E484.13722
G1 X100.5 Y119.5 E490.45665
G1 X119.5 Y119.5 E496.77607
G0 F9000 X118.93 Y118.93
G0 X117.93 Y117.93
G0 X118.5 Y118.5
;TYPE:WALL-INNER
G1 F868.8 X118.5 Y101.5 E502.4303
G1 X101.5 Y101.5 E508.08452
G1 X101.5 Y118.5 E513.73874
G1 X118.5 Y118.5 E519.39297
G0 F9000 X117 Y117.293
;MESH:NONMESH
G0 F300 X117 Y117.293 Z4.4
G0 F9000 X117.798 Y110.936
;TIME_ELAPSED:125.122401
;LAYER:5
;note -- min layer time used
;TYPE:WALL-OUTER
;MESH:xyzCalibration_cube.stl
G1 F980.9 X117.606 Y110.732 E519.48614
G1 X117.552 Y110.53 E519.55569
G1 X117.553 Y108.78 E520.13774
G1 X117.582 Y108.65 E520.18204
G1 X117.692 Y108.476 E520.25051
G1 X117.934 Y108.324 E520.34556
G1 X119.5 Y108.324 E520.86641
G1 X119.5 Y100.5 E523.46868
G1 X114.612 Y100.5 E525.09444
G1 X114.612 Y101.892 E525.55742
G1 X114.575 Y102.083 E525.62213
G1 X114.436 Y102.274 E525.7007
G1 X114.167 Y102.39 E525.79813
G1 X112.283 Y102.39 E526.42475
G1 X112.006 Y102.269 E526.52529
G1 X111.868 Y102.071 E526.60556
G1 X111.836 Y101.89 E526.66669
G1 X111.838 Y100.5 E527.12901
G1 X107.34 Y100.5 E528.62505
G1 X107.34 Y101.888 E529.0867
G1 X107.307 Y102.068 E529.14757
G1 X107.17 Y102.265 E529.22738
G1 X106.935 Y102.388 E529.3156
G1 X105.141 Y102.387 E529.91229
G1 X104.964 Y102.325 E529.97466
G1 X104.793 Y102.16 E530.0537
G1 X104.716 Y101.892 E530.14644
G1 X104.716 Y100.5 E530.60942
G1 X100.5 Y100.5 E532.01167
G1 X100.5 Y119.5 E538.33109
G1 X119.5 Y119.5 E544.65052
G1 X119.5 Y111.004 E547.4763
G1 X118.052 Y111.004 E547.95791
G1 X117.798 Y110.936 E548.04536
G0 F9000 X117.797 Y112.605
G0 X117.93 Y117.93
G0 X118.5 Y118.5
;TYPE:WALL-INNER
G1 F980.9 X118.5 Y112.004 E550.20594
G1 X118.052 Y112.004 E550.35495
G1 X117.591 Y111.932 E550.51014
G1 X117.291 Y111.798 E550.61942
G1 X116.939 Y111.511 E550.77048
G1 X116.715 Y111.186 E550.90176
G1 X116.596 Y110.867 E551.015
G1 X116.553 Y110.582 E551.11087
G1 X116.557 Y108.694 E551.73882
G1 X116.644 Y108.303 E551.87205
G1 X116.763 Y108.056 E551.96324
G1 X116.972 Y107.782 E552.07785
G1 X117.284 Y107.535 E552.21021
G1 X117.585 Y107.398 E552.3202
G1 X118.052 Y107.324 E552.47747
G1 X118.5 Y107.324 E552.62647
G1 X118.5 Y101.5 E554.56354
G1 X115.612 Y101.5 E555.52409
G1 X115.612 Y101.892 E555.65447
G1 X115.499 Y102.465 E555.84872
G1 X115.318 Y102.787 E555.97158
G1 X115.083 Y103.036 E556.08546
G1 X114.734 Y103.274 E556.22596
G1 X114.231 Y103.392 E556.3978
G1 X112.336 Y103.392 E557.02808
G1 X111.942 Y103.355 E557.1597
G1 X111.557 Y103.175 E557.30106
G1 X111.347 Y103.021 E557.38767
G1 X111.069 Y102.697 E557.52966
G1 X110.934 Y102.428 E557.62977
G1 X110.836 Y101.888 E557.81231
G1 X110.836 Y101.5 E557.94136
G1 X108.34 Y101.5 E558.77153
G1 X108.34 Y101.888 E558.90058
G1 X108.241 Y102.426 E559.08252
G1 X108.106 Y102.694 E559.18233
G1 X107.828 Y103.018 E559.32432
G1 X107.547 Y103.223 E559.44001
G1 X107.08 Y103.388 E559.60475
G1 X105.059 Y103.392 E560.27694
G1 X104.735 Y103.314 E560.38778
G1 X104.461 Y103.189 E560.48795
G1 X104.189 Y102.986 E560.60083
G1 X103.949 Y102.696 E560.72603
G1 X103.78 Y102.327 E560.86102
G1 X103.716 Y101.892 E561.00726
G1 X103.716 Y101.5 E561.13764
G1 X101.5 Y101.5 E561.87469
G1 X101.5 Y118.5 E567.52891
G1 X118.5 Y118.5 E573.18313
G0 F9000 X117 Y117.293
;MESH:NONMESH
G0 F300 X117 Y117.293 Z5.2
G0 F9000 X116.027 Y112.533
G0 X115.955 Y110.832
G0 X117.684 Y110.832
;TIME_ELAPSED:136.103051
;LAYER:6
;note -- min layer time used
;TYPE:WALL-OUTER
;MESH:xyzCalibration_cube.stl
G1 F982.3 X117.586 Y110.67 E573.24611
G1 X117.556 Y110.523 E573.29601
G1 X117.558 Y108.761 E573.88205
G1 X117.63 Y108.553 E573.95526
G1 X117.726 Y108.439 E574.00483
G1 X117.939 Y108.316 E574.08664
G1 X119.5 Y108.316 E574.60583
G1 X119.5 Y100.5 E577.20544
G1 X114.107 Y100.5 E578.99916
G1 X114.104 Y101.894 E579.46281
G1 X114.054 Y102.112 E579.5372
G1 X113.881 Y102.309 E579.6244
G1 X113.667 Y102.388 E579.70027
G1 X111.823 Y102.392 E580.31359
G1 X111.67 Y102.359 E580.36564
G1 X111.473 Y102.22 E580.44584
G1 X111.352 Y101.959 E580.54152
G1 X111.352 Y100.5 E581.02678
G1 X107.816 Y100.5 E582.20286
G1 X107.816 Y101.956 E582.68713
G1 X107.694 Y102.216 E582.78265
G1 X107.55 Y102.331 E582.84395
G1 X107.367 Y102.386 E582.9075
G1 X105.588 Y102.387 E583.4992
G1 X105.419 Y102.331 E583.55842
G1 X105.252 Y102.182 E583.63285
G1 X105.16 Y101.892 E583.73405
G1 X105.16 Y100.5 E584.19703
G1 X100.5 Y100.5 E585.74695
G1 X100.5 Y119.5 E592.06638
G1 X119.5 Y119.5 E598.3858
G1 X119.5 Y110.996 E601.21424
G1 X117.938 Y110.996 E601.73377
G1 X117.684 Y110.832 E601.83433
G0 F9000 X115.956 Y110.832
G0 X116.028 Y112.524
G0 X117.93 Y117.93
G0 X118.5 Y118.5
;TYPE:WALL-INNER
G1 F982.3 X118.5 Y111.996 E603.99757
G1 X118.056 Y111.996 E604.14524
G1 X117.593 Y111.923 E604.30114
G1 X117.293 Y111.789 E604.41042
G1 X116.942 Y111.502 E604.56122
G1 X116.719 Y111.178 E604.69204
G1 X116.6 Y110.86 E604.80497
G1 X116.557 Y110.575 E604.90084
G1 X116.564 Y108.548 E605.57502
G1 X116.691 Y108.193 E605.70042
G1 X116.904 Y107.854 E605.83358
G1 X117.264 Y107.541 E605.99225
G1 X117.57 Y107.396 E606.10487
G1 X118.056 Y107.316 E606.26869
G1 X118.5 Y107.316 E606.41637
G1 X118.5 Y101.5 E608.35078
G1 X115.105 Y101.5 E609.47996
G1 X115.104 Y101.896 E609.61167
G1 X114.953 Y102.55 E609.83491
G1 X114.72 Y102.895 E609.97338
G1 X114.435 Y103.142 E610.09882
G1 X114.001 Y103.339 E610.25734
G1 X113.73 Y103.392 E610.34918
G1 X111.651 Y103.39 E611.04066
G1 X111.308 Y103.291 E611.1594
G1 X111.038 Y103.153 E611.26025
G1 X110.717 Y102.874 E611.40171
G1 X110.523 Y102.589 E611.51638
G1 X110.376 Y102.162 E611.66658
G1 X110.352 Y101.892 E611.75673
G1 X110.352 Y101.5 E611.88711
G1 X108.816 Y101.5 E612.39799
G1 X108.816 Y101.888 E612.52704
G1 X108.792 Y102.161 E612.61819
G1 X108.645 Y102.587 E612.76808
G1 X108.45 Y102.872 E612.88293
G1 X108.129 Y103.15 E613.02417
G1 X107.802 Y103.308 E613.14496
G1 X107.424 Y103.388 E613.27347
G1 X105.512 Y103.392 E613.9094
G1 X105.2 Y103.321 E614.01583
G1 X104.939 Y103.208 E614.11043
G1 X104.675 Y103.024 E614.21745
G1 X104.436 Y102.761 E614.33565
G1 X104.256 Y102.422 E614.46331
G1 X104.16 Y101.892 E614.64246
G1 X104.16 Y101.5 E614.77284
G1 X101.5 Y101.5 E615.65756
G1 X101.5 Y118.5 E621.31178
G1 X118.5 Y118.5 E626.96601
G0 F9000 X117 Y117.293
;MESH:NONMESH
G0 F300 X117 Y117.293 Z6
G0 F9000 X117.735 Y112.596
G0 X117.736 Y110.873
;TIME_ELAPSED:147.063231
;LAYER:7
;note -- min layer time used
;TYPE:WALL-OUTER
;MESH:xyzCalibration_cube.stl
G1 F978.6 X117.642 Y110.77 E627.01238
G1 X117.556 Y110.579 E627.08205
G1 X117.556 Y108.791 E627.67675
G1 X117.65 Y108.514 E627.77404
G1 X117.784 Y108.388 E627.83521
G1 X118.056 Y108.308 E627.92951
G1 X119.5 Y108.308 E628.40979
G1 X119.5 Y100.5 E631.00674
G1 X113.6 Y100.5 E632.96909
G1 X113.6 Y101.892 E633.43207
G1 X113.537 Y102.136 E633.51589
G1 X113.411 Y102.285 E633.58079
G1 X113.169 Y102.388 E633.66826
G1 X111.3 Y102.389 E634.2899
G1 X111.126 Y102.333 E634.35069
G1 X110.91 Y102.103 E634.45564
G1 X110.865 Y101.936 E634.51316
G1 X110.864 Y100.5 E634.99078
G1 X108.288 Y100.5 E635.84756
G1 X108.287 Y101.936 E636.32517
G1 X108.242 Y102.103 E636.3827
G1 X108.08 Y102.298 E636.46702
G1 X107.876 Y102.392 E636.54173
G1 X106.034 Y102.388 E637.15438
G1 X105.872 Y102.336 E637.21097
G1 X105.647 Y102.096 E637.32039
G1 X105.604 Y101.892 E637.38973
G1 X105.604 Y100.5 E637.85271
G1 X100.5 Y100.5 E639.55031
G1 X100.5 Y119.5 E645.86973
G1 X119.5 Y119.5 E652.18916
G1 X119.5 Y110.988 E655.02026
G1 X117.945 Y110.988 E655.53745
G1 X117.736 Y110.873 E655.6168
G0 F9000 X117.735 Y112.588
G0 X116.028 Y112.516
G0 X109.575 Y103.992
G0 X109.576 Y102.048
;TYPE:WALL-INNER
G1 F656.3 X109.407 Y102.305 E655.76933
G1 F757.4 X109.237 Y102.563 E655.9021
G1 F892.8 X108.889 Y102.912 E656.08176
G1 F978.6 X108.664 Y103.11 E656.18145
G1 X108.282 Y103.328 E656.32774
G1 X107.788 Y103.392 E656.49342
G1 X105.957 Y103.392 E657.10241
G1 X105.66 Y103.326 E657.2036
G1 X105.41 Y103.223 E657.29353
G1 X105.156 Y103.055 E657.39482
G1 X104.921 Y102.815 E657.50654
G1 X104.733 Y102.503 E657.62769
G1 X104.604 Y101.892 E657.83539
G1 X104.604 Y101.5 E657.96577
G1 X101.5 Y101.5 E658.99817
G1 X101.5 Y118.5 E664.65239
G1 X118.5 Y118.5 E670.30661
G1 X118.5 Y111.988 E672.47251
G1 X118.056 Y111.988 E672.62019
G1 X117.592 Y111.915 E672.77641
G1 X117.293 Y111.78 E672.88553
G1 X116.942 Y111.493 E673.03633
G1 X116.719 Y111.17 E673.16688
G1 X116.6 Y110.853 E673.27949
G1 X116.557 Y110.546 E673.3826
G1 X116.556 Y108.758 E673.97729
G1 X116.635 Y108.325 E674.12368
G1 X116.84 Y107.928 E674.27229
G1 X117.017 Y107.725 E674.36187
G1 X117.24 Y107.548 E674.45657
G1 X117.55 Y107.395 E674.57155
G1 X118.056 Y107.308 E674.74231
G1 X118.5 Y107.308 E674.88999
G1 X118.5 Y101.5 E676.82174
G1 X114.6 Y101.5 E678.11888
G1 X114.6 Y101.892 E678.24926
G1 X114.535 Y102.33 E678.39653
G1 X114.411 Y102.622 E678.50205
G1 X114.237 Y102.873 E678.60363
G1 X114.031 Y103.069 E678.6982
G1 X113.792 Y103.224 E678.79295
G1 X113.542 Y103.326 E678.88275
G1 X113.244 Y103.392 E678.98427
G1 X111.314 Y103.392 E679.62619
G1 X111.047 Y103.359 E679.71567
G1 X110.572 Y103.184 E679.88404
G1 X110.263 Y102.912 E680.02096
G1 F892.8 X109.915 Y102.563 E680.20062
G1 F757.4 X109.746 Y102.306 E680.33279
G1 F656.3 X109.576 Y102.048 E680.48602
G0 F9000 X109.575 Y104.892
;MESH:NONMESH
G0 F300 X109.575 Y104.892 Z6.8
G0 F9000 X116.028 Y112.516
G0 X117.735 Y112.588
G0 X117.736 Y110.865
;TIME_ELAPSED:158.416576
;LAYER:8
;note -- min layer time used
;TYPE:WALL-OUTER
;MESH:xyzCalibration_cube.stl
G1 F969.4 X117.642 Y110.762 E680.5324
G1 X117.556 Y110.568 E680.60298
G1 X117.559 Y108.744 E681.20964
G1 X117.67 Y108.481 E681.30459
G1 X117.88 Y108.331 E681.39042
G1 X118.056 Y108.3 E681.44986
G1 X119.5 Y108.3 E681.93014
G1 X119.5 Y100.5 E684.52443
G1 X113.096 Y100.5 E686.65441
G1 X113.096 Y102.014 E687.15797
G1 X112.935 Y102.26 E687.25575
G1 X112.818 Y102.341 E687.30308
G1 X112.644 Y102.39 E687.3632
G1 X110.794 Y102.391 E687.97852
G1 X110.568 Y102.287 E688.06126
G1 F967.5 X110.454 Y102.163 E688.1174
G1 F837.9 X110.223 Y101.949 E688.23857
G1 F741.1 X110.223 Y100.653 E688.80239
G1 F742.3 X108.917 Y100.653 E689.36969
G1 F741.1 X108.917 Y101.949 E689.9335
G1 F838.6 X108.495 Y102.336 E690.15365
G1 F969.4 X108.307 Y102.391 E690.2188
G1 X106.48 Y102.388 E690.82647
G1 X106.325 Y102.34 E690.88043
G1 X106.102 Y102.119 E690.98486
G1 X106.048 Y101.892 E691.06247
G1 X106.048 Y100.5 E691.52545
G1 X100.5 Y100.5 E693.37072
G1 X100.501 Y119.499 E699.68981
G1 X119.5 Y119.5 E706.0089
G1 X119.5 Y110.98 E708.84267
G1 X117.945 Y110.98 E709.35986
G1 X117.736 Y110.865 E709.43921
G0 F9000 X117.735 Y112.579
G0 X117.93 Y117.93
G0 X118.5 Y118.5
;TYPE:WALL-INNER
G1 F969.4 X118.5 Y111.98 E711.60777
G1 X118.056 Y111.98 E711.75544
G1 X117.592 Y111.907 E711.91167
G1 X117.292 Y111.772 E712.02108
G1 X117.098 Y111.635 E712.10008
G1 X116.816 Y111.326 E712.23922
G1 X116.649 Y111.001 E712.36075
G1 X116.557 Y110.644 E712.48336
G1 X116.556 Y108.568 E713.17384
G1 X116.696 Y108.165 E713.31574
G1 X116.9 Y107.843 E713.44252
G1 X117.216 Y107.556 E713.5845
G1 X117.53 Y107.394 E713.70202
G1 X118.056 Y107.3 E713.87974
G1 X118.5 Y107.3 E714.02741
G1 X118.5 Y101.5 E715.9565
G1 X114.096 Y101.5 E717.42128
G1 X114.096 Y101.892 E717.55166
G1 X114.016 Y102.377 E717.71515
G1 X113.871 Y102.684 E717.82808
G1 X113.612 Y102.996 E717.96294
G1 X113.182 Y103.291 E718.13638
G1 X112.739 Y103.386 E718.28707
G1 X110.755 Y103.388 E718.94696
G1 X110.429 Y103.325 E719.05739
G1 X110.184 Y103.224 E719.14553
G1 X109.954 Y103.076 E719.2365
G1 F967.5 X109.609 Y102.705 E719.40534
G1 F966.5 X109.57 Y102.589 E719.44616
G1 X109.531 Y102.705 E719.48699
G1 F967.5 X109.186 Y103.076 E719.65583
G1 F969.4 X108.956 Y103.224 E719.7468
G1 X108.711 Y103.325 E719.83494
G1 X108.422 Y103.392 E719.93361
G1 X106.404 Y103.392 E720.6048
G1 X106.121 Y103.33 E720.70116
G1 X105.88 Y103.236 E720.7872
G1 X105.634 Y103.083 E720.88355
G1 X105.403 Y102.861 E720.99011
G1 X105.21 Y102.573 E721.10542
G1 X105.048 Y101.892 E721.33824
G1 X105.048 Y101.5 E721.46862
G1 X101.5 Y101.5 E722.64869
G1 X101.501 Y118.499 E728.30258
G1 X118.5 Y118.5 E733.95647
G0 F9000 X117 Y117.293
;MESH:NONMESH
G0 F300 X117 Y117.293 Z7.6
G0 F9000 X109.848 Y102.922
G0 X109.562 Y101.1
G0 X109.562 Y100.826
;TIME_ELAPSED:169.510879
;LAYER:9
;note -- min layer time used
;TYPE:WALL-OUTER
;MESH:xyzCalibration_cube.stl
G1 F600.2 X109.562 Y101.964 E734.58289
G1 F2700 E725.58289
G0 F9000 X109.562 Y103.995
G0 X116.032 Y112.498
G0 X117.738 Y112.57
G0 X117.739 Y110.853
G1 F2700 E734.58289
G1 F993.4 X117.646 Y110.75 E734.62904
G1 X117.56 Y110.557 E734.69932
G1 X117.56 Y108.703 E735.31596
G1 X117.71 Y108.43 E735.41957
G1 X117.877 Y108.322 E735.48572
G1 X118.06 Y108.288 E735.54762
G1 X119.5 Y108.288 E736.02657
G1 X119.5 Y100.5 E738.61687
G1 X112.591 Y100.5 E740.91481
G1 X112.588 Y101.894 E741.37846
G1 X112.502 Y102.174 E741.47588
G1 X112.382 Y102.298 E741.53327
G1 X112.138 Y102.39 E741.62001
G1 X110.305 Y102.386 E742.22966
G1 F886.2 X109.915 Y102.295 E742.37898
G1 F685.1 X109.562 Y101.964 E742.61236
G1 X109.209 Y102.295 E742.84573
G1 F886.2 X108.765 Y102.392 E743.01518
G1 F993.4 X106.926 Y102.388 E743.62684
G1 X106.777 Y102.344 E743.67851
G1 X106.622 Y102.229 E743.7427
G1 X106.492 Y102.003 E743.82942
G1 X106.492 Y100.5 E744.32932
G1 X100.5 Y100.5 E746.32227
G1 X100.5 Y119.5 E752.64169
G1 X119.5 Y119.5 E758.96112
G1 X119.5 Y110.971 E761.79788
G1 X117.947 Y110.968 E762.31441
G1 X117.739 Y110.853 E762.39346
G0 F9000 X117.738 Y112.57
G0 X117.93 Y117.93
G0 X118.5 Y118.5
;TYPE:WALL-INNER
G1 F993.4 X118.5 Y111.969 E764.56568
G1 X118.056 Y111.968 E764.71335
G1 X117.593 Y111.894 E764.8693
G1 X117.294 Y111.758 E764.97855
G1 X116.944 Y111.472 E765.12889
G1 X116.723 Y111.15 E765.25878
G1 X116.605 Y110.835 E765.37066
G1 X116.561 Y110.544 E765.46855
G1 X116.56 Y108.632 E766.10448
G1 X116.655 Y108.261 E766.23186
G1 X116.855 Y107.894 E766.37087
G1 X117.194 Y107.562 E766.52869
G1 X117.513 Y107.39 E766.64923
G1 X118.06 Y107.288 E766.8343
G1 X118.5 Y107.288 E766.98064
G1 X118.5 Y101.5 E768.90574
G1 X113.589 Y101.5 E770.53914
G1 X113.588 Y101.896 E770.67085
G1 X113.492 Y102.423 E770.84902
G1 X113.328 Y102.737 E770.96684
G1 X112.999 Y103.085 E771.12613
G1 X112.599 Y103.303 E771.27764
G1 X112.194 Y103.392 E771.41556
G1 X110.276 Y103.392 E772.05349
G1 X109.842 Y103.289 E772.20185
G1 X109.562 Y103.13 E772.30894
G1 X109.495 Y103.187 E772.3382
G1 X109.079 Y103.353 E772.48717
G1 X108.786 Y103.392 E772.58548
G1 X106.854 Y103.392 E773.22807
G1 X106.452 Y103.308 E773.36466
G1 X106.109 Y103.106 E773.49706
G1 X105.882 Y102.902 E773.59857
G1 X105.687 Y102.634 E773.7088
G1 X105.559 Y102.339 E773.81576
G1 X105.492 Y101.892 E773.96609
G1 X105.492 Y101.5 E774.09647
G1 X101.5 Y101.5 E775.42422
G1 X101.5 Y118.5 E781.07844
G1 X118.5 Y118.5 E786.73266
G0 F9000 X117 Y117.293
;MESH:NONMESH
G0 F300 X117 Y117.293 Z8.4
G0 F9000 X117.738 Y112.57
G0 X117.739 Y110.844
;TIME_ELAPSED:181.134793
;LAYER:10
;note -- min layer time used
;TYPE:WALL-OUTER
;MESH:xyzCalibration_cube.stl
G1 F945.5 X117.646 Y110.742 E786.77857
G1 X117.56 Y110.549 E786.84885
G1 X117.56 Y108.749 E787.44753
G1 X117.643 Y108.503 E787.53388
G1 X117.87 Y108.317 E787.63149
G1 X118.06 Y108.28 E787.69587
G1 X119.5 Y108.28 E788.17482
G1 X119.5 Y100.5 E790.76246
G1 X112.084 Y100.5 E793.22903
G1 X112.084 Y101.896 E793.69334
G1 X112.047 Y102.086 E793.75772
G1 X111.969 Y102.217 E793.80843
G1 X111.763 Y102.364 E793.8926
G1 X111.635 Y102.394 E793.93633
G1 X107.381 Y102.39 E795.35122
G1 X107.129 Y102.288 E795.44164
G1 X107.011 Y102.157 E795.50028
G1 X106.936 Y101.892 E795.59188
G1 X106.936 Y100.5 E796.05486
G1 X100.5 Y100.5 E798.19548
G1 X100.5 Y119.5 E804.51491
G1 X119.5 Y119.5 E810.83434
G1 X119.5 Y110.963 E813.67375
G1 X117.947 Y110.96 E814.19028
G1 X117.739 Y110.844 E814.2695
G0 F9000 X117.738 Y112.562
G0 X117.93 Y117.93
G0 X118.5 Y118.5
;TYPE:WALL-INNER
G1 F945.5 X118.5 Y111.961 E816.44438
G1 X118.056 Y111.96 E816.59205
G1 X117.593 Y111.886 E816.748
G1 X117.293 Y111.75 E816.85756
G1 X116.944 Y111.463 E817.00784
G1 X116.723 Y111.142 E817.13746
G1 X116.605 Y110.827 E817.24934
G1 X116.561 Y110.539 E817.34624
G1 X116.562 Y108.689 E817.96156
G1 X116.62 Y108.358 E818.07332
G1 X116.811 Y107.949 E818.22346
G1 X116.972 Y107.746 E818.30964
G1 X117.171 Y107.571 E818.39778
G1 X117.492 Y107.391 E818.52018
G1 X118.06 Y107.28 E818.71267
G1 X118.5 Y107.28 E818.85902
G1 X118.5 Y101.5 E820.78145
G1 X113.084 Y101.5 E822.58282
G1 X113.084 Y101.896 E822.71453
G1 X112.973 Y102.464 E822.90702
G1 X112.792 Y102.787 E823.03017
G1 X112.55 Y103.045 E823.14782
G1 X112.224 Y103.274 E823.28033
G1 X111.695 Y103.396 E823.46089
G1 X107.325 Y103.393 E824.91436
G1 X106.91 Y103.297 E825.05604
G1 X106.516 Y103.078 E825.20596
G1 X106.328 Y102.905 E825.29094
G1 X106.163 Y102.687 E825.38187
G1 X106.017 Y102.38 E825.49494
G1 X105.936 Y101.892 E825.65947
G1 X105.936 Y101.5 E825.78985
G1 X101.5 Y101.5 E827.26527
G1 X101.5 Y118.5 E832.91949
G1 X118.5 Y118.5 E838.57372
G0 F9000 X117 Y117.293
;MESH:NONMESH
G0 F300 X117 Y117.293 Z9.2
G0 F9000 X117.738 Y112.562
G0 X117.739 Y110.836
;TIME_ELAPSED:191.964381
;LAYER:11
;note -- min layer time used
;TYPE:WALL-OUTER
;MESH:xyzCalibration_cube.stl
G1 F945.6 X117.591 Y110.627 E838.65889
G1 X117.56 Y110.479 E838.70919
G1 X117.561 Y108.734 E839.28958
G1 X117.618 Y108.537 E839.35779
G1 X117.695 Y108.429 E839.4019
G1 X117.866 Y108.31 E839.47119
G1 X118.06 Y108.272 E839.53694
G1 X119.5 Y108.272 E840.01589
G1 X119.5 Y100.5 E842.60087
G1 X111.579 Y100.5 E845.2354
G1 X111.576 Y101.898 E845.70038
G1 X111.535 Y102.096 E845.76763
G1 X111.373 Y102.299 E845.85402
G1 X111.175 Y102.396 E845.92735
G1 X107.827 Y102.394 E847.0409
G1 X107.582 Y102.299 E847.1283
G1 X107.411 Y102.072 E847.22282
G1 X107.38 Y101.896 E847.28226
G1 X107.38 Y100.5 E847.74657
G1 X100.5 Y100.5 E850.03487
G1 X100.5 Y119.5 E856.3543
G1 X119.5 Y119.5 E862.67372
G1 X119.5 Y110.952 E865.5168
G1 X117.947 Y110.952 E866.03333
G1 X117.739 Y110.836 E866.11254
G0 F9000 X117.738 Y112.553
G0 X117.93 Y117.93
G0 X118.5 Y118.5
;TYPE:WALL-INNER
G1 F945.6 X118.5 Y111.952 E868.29041
G1 X118.06 Y111.952 E868.43676
G1 X117.594 Y111.878 E868.59369
G1 X117.293 Y111.742 E868.70355
G1 X117.098 Y111.604 E868.78301
G1 X116.761 Y111.233 E868.94971
G1 X116.605 Y110.82 E869.09655
G1 X116.562 Y110.532 E869.1934
G1 X116.564 Y108.659 E869.81636
G1 X116.609 Y108.389 E869.9074
G1 X116.735 Y108.067 E870.0224
G1 X116.967 Y107.743 E870.15495
G1 X117.156 Y107.574 E870.23927
G1 X117.48 Y107.388 E870.36353
G1 X118.06 Y107.272 E870.56026
G1 X118.5 Y107.272 E870.7066
G1 X118.5 Y101.5 E872.62638
G1 X112.577 Y101.5 E874.59638
G1 X112.576 Y101.9 E874.72942
G1 X112.452 Y102.495 E874.93157
G1 X112.259 Y102.82 E875.05729
G1 X111.966 Y103.104 E875.193
G1 X111.637 Y103.288 E875.31838
G1 X111.258 Y103.396 E875.44946
G1 X107.773 Y103.396 E876.60857
G1 X107.371 Y103.308 E876.74544
G1 X106.894 Y103.053 E876.92534
G1 X106.637 Y102.737 E877.06081
G1 X106.474 Y102.422 E877.17878
G1 X106.38 Y101.896 E877.3565
G1 X106.38 Y101.5 E877.48821
G1 X101.5 Y101.5 E879.1113
G1 X101.5 Y118.5 E884.76553
G1 X118.5 Y118.5 E890.41975
G0 F9000 X117 Y117.293
;MESH:NONMESH
G0 F300 X117 Y117.293 Z10
G0 F9000 X117.688 Y112.553
G0 X117.689 Y110.993
;TIME_ELAPSED:202.791142
;LAYER:12
;note -- min layer time used
;TYPE:WALL-OUTER
;MESH:xyzCalibration_cube.stl
G1 F946.6 X117.564 Y110.721 E890.51931
G1 X117.562 Y108.488 E891.26201
G1 X117.658 Y108.237 E891.35139
G1 X117.872 Y108.072 E891.44127
G1 X118.06 Y108.036 E891.50494
G1 X119.5 Y108.036 E891.98388
G1 X119.5 Y100.5 E894.49037
G1 X111.072 Y100.5 E897.29353
G1 X111.072 Y101.896 E897.75784
G1 X111.008 Y102.142 E897.84238
G1 X110.911 Y102.264 E897.89422
G1 X110.632 Y102.393 E897.99646
G1 X108.273 Y102.394 E898.78107
G1 X108.035 Y102.305 E898.86558
G1 X107.86 Y102.083 E898.9596
G1 X107.824 Y101.896 E899.02294
G1 X107.824 Y100.5 E899.48725
G1 X100.5 Y100.5 E901.92322
G1 X100.501 Y119.499 E908.24231
G1 X119.5 Y119.5 E914.56141
G1 X119.5 Y111.159 E917.33564
G1 X117.942 Y111.156 E917.85383
G1 X117.689 Y110.993 E917.95393
G0 F9000 X115.962 Y110.992
G0 X116.033 Y112.683
G0 X117.93 Y117.93
G0 X118.5 Y118.5
;TYPE:WALL-INNER
G1 F946.6 X118.5 Y112.157 E920.06362
G1 X118.056 Y112.156 E920.2113
G1 X117.603 Y112.085 E920.3638
G1 X117.307 Y111.954 E920.47146
G1 X116.949 Y111.665 E920.62449
G1 X116.719 Y111.329 E920.75992
G1 X116.6 Y111.001 E920.87597
G1 X116.56 Y110.702 E920.9763
G1 X116.566 Y108.393 E921.74428
G1 X116.662 Y107.953 E921.89407
G1 X116.855 Y107.641 E922.01609
G1 X117.176 Y107.323 E922.16638
G1 X117.497 Y107.145 E922.28846
G1 X118.06 Y107.036 E922.47919
G1 X118.5 Y107.036 E922.62553
G1 X118.5 Y101.5 E924.46682
G1 X112.072 Y101.5 E926.60478
G1 X112.072 Y101.896 E926.73649
G1 X112.006 Y102.34 E926.88578
G1 X111.826 Y102.756 E927.03654
G1 X111.409 Y103.141 E927.22531
G1 X111.052 Y103.318 E927.35784
G1 X110.708 Y103.396 E927.47516
G1 X108.216 Y103.396 E928.30401
G1 X107.83 Y103.313 E928.43532
G1 X107.366 Y103.073 E928.60907
G1 X107.11 Y102.779 E928.73873
G1 X106.932 Y102.457 E928.8611
G1 X106.824 Y101.896 E929.05112
G1 X106.824 Y101.5 E929.18283
G1 X101.5 Y101.5 E930.9536
G1 X101.501 Y118.499 E936.60749
G1 X118.5 Y118.5 E942.26138
G0 F9000 X117 Y117.293
;MESH:NONMESH
G0 F300 X117 Y117.293 Z10.8
G0 F9000 X117.692 Y112.757
G0 X117.694 Y111.45
;TIME_ELAPSED:213.682511
;LAYER:13
;note -- min layer time used
;TYPE:WALL-OUTER
;MESH:xyzCalibration_cube.stl
G1 F945.9 X117.56 Y111.182 E942.36104
G1 X117.566 Y108.013 E943.41505
G1 X117.644 Y107.787 E943.49457
G1 X117.783 Y107.646 E943.56043
G1 X118.062 Y107.56 E943.65753
G1 X119.5 Y107.557 E944.13581
G1 X119.5 Y100.5 E946.48298
G1 X111.046 Y100.5 E949.29479
G1 X111.048 Y101.894 E949.75844
G1 X111.008 Y102.093 E949.82595
G1 X110.846 Y102.298 E949.91285
G1 X110.596 Y102.394 E950.00192
G1 X108.345 Y102.394 E950.75061
G1 X108.108 Y102.306 E950.83469
G1 X107.932 Y102.085 E950.92866
G1 X107.896 Y101.896 E950.99265
G1 X107.896 Y100.5 E951.45696
G1 X100.501 Y100.501 E953.91655
G1 X100.5 Y119.5 E960.23564
G1 X119.5 Y119.5 E966.55507
G1 X119.5 Y111.611 E969.17896
G1 X118.058 Y111.608 E969.65857
G1 X117.863 Y111.568 E969.72478
G1 X117.694 Y111.45 E969.79334
G0 F9000 X115.963 Y111.449
G0 X116.034 Y113.135
G0 X117.93 Y117.93
G0 X118.5 Y118.5
;TYPE:WALL-INNER
G1 F945.9 X118.5 Y112.609 E971.75269
G1 X118.056 Y112.608 E971.90037
G1 X117.47 Y112.488 E972.09932
G1 X117.146 Y112.299 E972.22407
G1 X116.964 Y112.133 E972.306
G1 X116.713 Y111.769 E972.45306
G1 X116.591 Y111.416 E972.57729
G1 X116.56 Y111.105 E972.68124
G1 X116.57 Y107.921 E973.74025
G1 X116.636 Y107.599 E973.84957
G1 X116.806 Y107.241 E973.98138
G1 X116.934 Y107.073 E974.05163
G1 X117.222 Y106.818 E974.17957
G1 X117.536 Y106.655 E974.29724
G1 X118.06 Y106.56 E974.47437
G1 X118.5 Y106.559 E974.62071
G1 X118.5 Y101.5 E976.30334
G1 X112.048 Y101.5 E978.44929
G1 X112.048 Y101.892 E978.57967
G1 X111.928 Y102.486 E978.78122
G1 X111.737 Y102.811 E978.9066
G1 X111.597 Y102.969 E978.97682
G1 X111.279 Y103.206 E979.10873
G1 X110.976 Y103.334 E979.21813
G1 X110.691 Y103.39 E979.31473
G1 X108.29 Y103.396 E980.11331
G1 X107.905 Y103.314 E980.24423
G1 X107.441 Y103.078 E980.41738
G1 X107.187 Y102.785 E980.54635
G1 X107.006 Y102.463 E980.66921
G1 X106.896 Y101.896 E980.86131
G1 X106.896 Y101.5 E980.99302
G1 X101.501 Y101.501 E982.7874
G1 X101.5 Y118.5 E988.44129
G1 X118.5 Y118.5 E994.09552
G0 F9000 X117 Y117.293
;MESH:NONMESH
G0 F300 X117 Y117.293 Z11.6
G0 F9000 X117.649 Y113.21
G0 X117.652 Y111.854
;TIME_ELAPSED:224.565953
;LAYER:14
;note -- min layer time used
;TYPE:WALL-OUTER
;MESH:xyzCalibration_cube.stl
G1 F945.4 X117.562 Y111.615 E994.18046
G1 X117.566 Y107.532 E995.53847
G1 X117.649 Y107.299 E995.62073
G1 X117.8 Y107.155 E995.69013
G1 X118.064 Y107.08 E995.78141
G1 X119.5 Y107.08 E996.25903
G1 X119.5 Y100.5 E998.44755
G1 X111.56 Y100.5 E1001.0884
G1 X111.56 Y101.896 E1001.55271
G1 X111.526 Y102.08 E1001.61495
G1 X111.369 Y102.29 E1001.70216
G1 X111.06 Y102.397 E1001.81092
G1 X107.896 Y102.394 E1002.86327
G1 X107.652 Y102.3 E1002.95024
G1 X107.48 Y102.074 E1003.0447
G1 X107.448 Y101.896 E1003.10485
G1 X107.448 Y100.5 E1003.56916
G1 X100.5 Y100.5 E1005.88008
G1 X100.5 Y119.5 E1012.1995
G1 X119.5 Y119.5 E1018.51893
G1 X119.5 Y112.067 E1020.99115
G1 X118.058 Y112.064 E1021.47077
G1 X117.874 Y112.029 E1021.53306
G1 X117.652 Y111.854 E1021.62708
G0 F9000 X115.964 Y111.853
G0 X116.035 Y113.588
G0 X117.93 Y117.93
G0 X118.5 Y118.5
;TYPE:WALL-INNER
G1 F945.4 X118.5 Y113.065 E1023.43477
G1 X118.056 Y113.064 E1023.58245
G1 X117.504 Y112.958 E1023.7694
G1 X117.185 Y112.783 E1023.89041
G1 X116.886 Y112.528 E1024.02112
G1 X116.643 Y112.059 E1024.1968
G1 X116.56 Y111.67 E1024.32909
G1 X116.57 Y107.437 E1025.737
G1 X116.642 Y107.102 E1025.85097
G1 X116.825 Y106.734 E1025.98766
G1 X116.96 Y106.563 E1026.06012
G1 X117.272 Y106.305 E1026.19478
G1 X117.578 Y106.16 E1026.3074
G1 X118.064 Y106.08 E1026.47122
G1 X118.5 Y106.08 E1026.61624
G1 X118.5 Y101.5 E1028.13955
G1 X112.56 Y101.5 E1030.1152
G1 X112.56 Y101.896 E1030.24691
G1 X112.456 Y102.448 E1030.43374
G1 X112.282 Y102.767 E1030.5546
G1 X111.986 Y103.077 E1030.69716
G1 X111.659 Y103.272 E1030.82379
G1 X111.371 Y103.364 E1030.92435
G1 X111.06 Y103.397 E1031.02837
G1 X107.842 Y103.396 E1032.09868
G1 X107.441 Y103.309 E1032.23515
G1 X106.964 Y103.055 E1032.41489
G1 X106.709 Y102.743 E1032.54892
G1 X106.545 Y102.428 E1032.66703
G1 X106.448 Y101.896 E1032.8469
G1 X106.448 Y101.5 E1032.97861
G1 X101.5 Y101.5 E1034.62432
G1 X101.5 Y118.5 E1040.27854
G1 X118.5 Y118.5 E1045.93276
G0 F9000 X117 Y117.293
;MESH:NONMESH
G0 F300 X117 Y117.293 Z12.4
G0 F9000 X116.035 Y113.588
G0 X115.966 Y109.564
G0 X118.001 Y109.566
;TIME_ELAPSED:235.599658
;LAYER:15
;note -- min layer time used
;TYPE:WALL-OUTER
;MESH:xyzCalibration_cube.stl
G1 F632.3 X119.226 Y109.566 E1046.5647
G1 F2700 E1037.5647
G0 F9000 X117.048 Y109.562
G0 X117.036 Y113.043
G0 X117.713 Y114.116
G0 X117.717 Y112.377
G1 F2700 E1046.5647
G1 F980.6 X117.621 Y112.25 E1046.61765
G1 X117.566 Y112.068 E1046.68088
G1 X117.574 Y110.256 E1047.28356
G1 F904.6 X117.658 Y109.924 E1047.40704
G1 F720.5 X118.001 Y109.566 E1047.63147
G1 X117.658 Y109.208 E1047.8559
G1 F904.6 X117.574 Y108.876 E1047.97937
G1 F980.6 X117.57 Y106.977 E1048.61098
G1 X117.709 Y106.75 E1048.69951
G1 X117.956 Y106.6 E1048.79563
G1 X119.5 Y106.6 E1049.30916
G1 X119.5 Y100.5 E1051.33803
G1 X112.07 Y100.5 E1053.80926
G1 X112.072 Y101.894 E1054.27291
G1 X112.043 Y102.066 E1054.33092
G1 X111.934 Y102.242 E1054.39978
G1 X111.781 Y102.351 E1054.46226
G1 X111.625 Y102.394 E1054.51608
G1 X107.442 Y102.394 E1055.90735
G1 X107.19 Y102.293 E1055.99765
G1 X107.072 Y102.163 E1056.05604
G1 X106.996 Y101.896 E1056.14837
G1 X106.996 Y100.5 E1056.61268
G1 X100.501 Y100.501 E1058.77293
G1 X100.5 Y119.5 E1065.09202
G1 X119.5 Y119.5 E1071.41145
G1 X119.5 Y112.519 E1073.73334
G1 X118.062 Y112.516 E1074.21162
G1 X117.89 Y112.485 E1074.26975
G1 X117.717 Y112.377 E1074.33758
G0 F9000 X117.713 Y114.116
G0 X117.93 Y117.93
G0 X118.5 Y118.5
;TYPE:WALL-INNER
G1 F980.6 X118.5 Y113.517 E1075.99493
G1 X118.06 Y113.516 E1076.14128
G1 X117.543 Y113.423 E1076.31599
G1 X117.23 Y113.263 E1076.43291
G1 X117.023 Y113.097 E1076.52116
G1 X116.859 Y112.91 E1076.60389
G1 X116.652 Y112.525 E1076.74928
G1 X116.564 Y112.126 E1076.88517
G1 X116.568 Y110.167 E1077.53674
G1 X116.646 Y109.859 E1077.64242
G1 X116.8 Y109.566 E1077.75251
G1 X116.599 Y109.184 E1077.89608
G1 X116.568 Y108.792 E1078.02687
G1 X116.568 Y106.997 E1078.62389
G1 X116.652 Y106.603 E1078.75788
G1 X116.85 Y106.224 E1078.9001
G1 X116.993 Y106.052 E1078.97449
G1 X117.331 Y105.792 E1079.11633
G1 X117.625 Y105.666 E1079.22271
G1 X118.068 Y105.6 E1079.37168
G1 X118.5 Y105.6 E1079.51536
G1 X118.5 Y101.5 E1080.87903
G1 X113.072 Y101.5 E1082.68439
G1 X113.072 Y101.892 E1082.81477
G1 X112.984 Y102.404 E1082.98756
G1 X112.829 Y102.716 E1083.10343
G1 X112.535 Y103.048 E1083.25093
G1 X112.199 Y103.26 E1083.38307
G1 X111.792 Y103.396 E1083.52579
G1 X107.383 Y103.396 E1084.99223
G1 X106.973 Y103.303 E1085.13206
G1 X106.58 Y103.085 E1085.28154
G1 X106.392 Y102.913 E1085.36629
G1 X106.226 Y102.696 E1085.45716
G1 X106.078 Y102.388 E1085.57081
G1 X105.996 Y101.896 E1085.73671
G1 X105.996 Y101.5 E1085.86842
G1 X101.501 Y101.501 E1087.36346
G1 X101.5 Y118.5 E1093.01735
G1 X118.5 Y118.5 E1098.67158
G0 F9000 X117 Y117.293
;MESH:NONMESH
G0 F300 X117 Y117.293 Z13.2
G0 F9000 X110.195 Y103.999
G0 X110.195 Y102.325
;TIME_ELAPSED:247.357530
;LAYER:16
;note -- min layer time used
;TYPE:WALL-OUTER
;MESH:xyzCalibration_cube.stl
G1 F1025.6 X110.088 Y102.199 E1098.72535
G1 F1092.6 X110.021 Y101.938 E1098.80762
G1 F1142.4 X110.019 Y100.438 E1099.24566
G1 F1145 X109.145 Y100.438 E1099.50031
G1 F1142.4 X109.143 Y101.938 E1099.93834
G1 F1092.6 X109.076 Y102.199 E1100.02062
G1 F1025.6 X108.969 Y102.325 E1100.07439
G1 F1003 X108.723 Y102.4 E1100.15993
G1 X106.982 Y102.396 E1100.73899
G1 X106.833 Y102.352 E1100.79066
G1 X106.678 Y102.238 E1100.85465
G1 X106.548 Y102.012 E1100.94137
G1 X106.548 Y100.5 E1101.44426
G1 X100.5 Y100.5 E1103.45584
G1 X100.5 Y119.5 E1109.77526
G1 X119.5 Y119.5 E1116.09469
G1 X119.5 Y112.971 E1118.26624
G1 X118.062 Y112.968 E1118.74452
G1 X117.801 Y112.894 E1118.83475
G1 X117.669 Y112.776 E1118.89364
G1 X117.566 Y112.522 E1118.98481
G1 X117.564 Y110.758 E1119.57151
G1 X117.625 Y110.544 E1119.64553
G1 F975.7 X117.788 Y110.332 E1119.73696
G1 F877.6 X118.067 Y110.169 E1119.8598
G1 F815.5 X119.385 Y110.172 E1120.399
G1 F814.8 X119.385 Y108.939 E1120.90383
G1 F815.5 X118.068 Y108.939 E1121.44261
G1 F877.6 X117.791 Y108.774 E1121.56518
G1 F975.7 X117.628 Y108.563 E1121.65635
G1 F1003 X117.568 Y108.399 E1121.71443
G1 X117.574 Y106.544 E1122.33141
G1 X117.65 Y106.349 E1122.40102
G1 X117.844 Y106.176 E1122.48747
G1 X118.066 Y106.124 E1122.56331
G1 X119.5 Y106.121 E1123.04026
G1 X119.5 Y100.5 E1124.90981
G1 X112.582 Y100.5 E1127.21075
G1 X112.584 Y102 E1127.70965
G1 X112.502 Y102.171 E1127.77272
G1 X112.361 Y102.313 E1127.83928
G1 X112.141 Y102.393 E1127.91714
G1 X110.433 Y102.4 E1128.48523
G1 X110.195 Y102.325 E1128.56823
G0 F9000 X110.195 Y104.001
G0 X117.93 Y117.93
G0 X118.5 Y118.5
;TYPE:WALL-INNER
G1 F1003 X118.5 Y113.969 E1130.07524
G1 X118.06 Y113.968 E1130.22159
G1 X117.581 Y113.889 E1130.38306
G1 X117.277 Y113.746 E1130.4948
G1 X117.057 Y113.58 E1130.58646
G1 X116.881 Y113.392 E1130.67211
G1 X116.659 Y112.996 E1130.82311
G1 X116.564 Y112.583 E1130.96406
G1 X116.565 Y110.576 E1131.63159
G1 X116.699 Y110.137 E1131.78425
G1 X116.903 Y109.833 E1131.90602
G1 X117.225 Y109.551 E1132.04838
G1 X116.904 Y109.27 E1132.19028
G1 X116.749 Y109.039 E1132.2828
G1 X116.619 Y108.715 E1132.39892
G1 X116.568 Y108.324 E1132.53006
G1 X116.568 Y106.458 E1133.1507
G1 X116.66 Y106.104 E1133.27235
G1 X116.808 Y105.808 E1133.38242
G1 X117.005 Y105.558 E1133.48828
G1 X117.396 Y105.282 E1133.64747
G1 X118.064 Y105.124 E1133.87578
G1 X118.5 Y105.123 E1134.02079
G1 X118.5 Y101.5 E1135.2258
G1 X113.584 Y101.5 E1136.86087
G1 X113.584 Y101.892 E1136.99125
G1 X113.512 Y102.357 E1137.14775
G1 X113.363 Y102.69 E1137.26909
G1 X113.169 Y102.933 E1137.37251
G1 X112.915 Y103.146 E1137.48277
G1 X112.659 Y103.282 E1137.57918
G1 X112.202 Y103.396 E1137.73584
G1 X110.282 Y103.398 E1138.37443
G1 X109.884 Y103.286 E1138.51195
G1 X109.582 Y103.099 E1138.63009
G1 X109.498 Y103.174 E1138.66755
G1 X109.067 Y103.356 E1138.82316
G1 X108.759 Y103.4 E1138.92664
G1 X106.909 Y103.4 E1139.54195
G1 X106.505 Y103.315 E1139.67926
G1 X106.168 Y103.115 E1139.8096
G1 X105.94 Y102.912 E1139.91114
G1 X105.745 Y102.645 E1140.0211
G1 X105.616 Y102.349 E1140.1285
G1 X105.548 Y101.9 E1140.27954
G1 X105.548 Y101.5 E1140.41258
G1 X101.5 Y101.5 E1141.75895
G1 X101.5 Y118.5 E1147.41317
G1 X118.5 Y118.5 E1153.06739
G0 F9000 X117 Y117.293
;MESH:NONMESH
G0 F300 X117 Y117.293 Z14
G0 F9000 X117.742 Y114.57
G0 X117.744 Y113.306
;TIME_ELAPSED:258.267032
;LAYER:17
;note -- min layer time used
;TYPE:WALL-OUTER
;MESH:xyzCalibration_cube.stl
G1 F996.3 X117.634 Y113.174 E1153.12454
G1 X117.571 Y112.98 E1153.19238
G1 X117.57 Y111.173 E1153.7934
G1 X117.632 Y110.982 E1153.86019
G1 X117.865 Y110.77 E1153.96496
G1 X118.024 Y110.729 E1154.01957
G1 X119.5 Y110.73 E1154.51049
G1 X119.5 Y108.356 E1155.30009
G1 X118.024 Y108.355 E1155.79101
G1 X117.736 Y108.231 E1155.8953
G1 X117.612 Y108.062 E1155.96502
G1 X117.568 Y107.92 E1156.01446
G1 X117.574 Y106.06 E1156.6331
G1 X117.647 Y105.873 E1156.69987
G1 X117.869 Y105.685 E1156.79663
G1 X118.068 Y105.644 E1156.8642
G1 X119.5 Y105.644 E1157.34049
G1 X119.5 Y100.5 E1159.05139
G1 X113.092 Y100.5 E1161.1827
G1 X113.092 Y101.993 E1161.67927
G1 X113.013 Y102.167 E1161.74283
G1 X112.884 Y102.303 E1161.80518
G1 X112.652 Y102.393 E1161.88794
G1 X110.91 Y102.398 E1162.46734
G1 X110.65 Y102.29 E1162.56098
G1 F844.3 X110.286 Y101.959 E1162.75407
G1 F733.7 X110.284 Y100.677 E1163.33312
G1 F735.3 X108.932 Y100.677 E1163.94243
G1 F733.7 X108.93 Y101.959 E1164.52147
G1 F844.3 X108.566 Y102.29 E1164.71456
G1 F996.3 X108.296 Y102.399 E1164.81141
G1 X106.528 Y102.396 E1165.39945
G1 X106.373 Y102.349 E1165.45332
G1 X106.214 Y102.224 E1165.52059
G1 X106.096 Y102.001 E1165.6045
G1 X106.096 Y100.5 E1166.10374
G1 X100.501 Y100.501 E1167.96464
G1 X100.5 Y119.5 E1174.28374
G1 X119.5 Y119.5 E1180.60316
G1 X119.5 Y113.427 E1182.62305
G1 X117.96 Y113.424 E1183.13526
G1 X117.744 Y113.306 E1183.21712
G0 F9000 X117.74 Y115.023
G0 X116.037 Y114.948
G0 X115.971 Y109.54
G0 X117.921 Y109.542
;TYPE:WALL-INNER
G1 F785.7 X117.43 Y109.297 E1183.44854
G1 F925.9 X117.073 Y108.98 E1183.6194
G1 F996.3 X116.801 Y108.685 E1183.75286
G1 X116.599 Y108.224 E1183.92026
G1 X116.568 Y107.856 E1184.0431
G1 X116.568 Y106.144 E1184.61251
G1 X116.588 Y105.893 E1184.69626
G1 X116.67 Y105.6 E1184.79745
G1 X116.807 Y105.331 E1184.89786
G1 X117.02 Y105.056 E1185.01355
G1 X117.472 Y104.767 E1185.19199
G1 X118.068 Y104.644 E1185.3944
G1 X118.5 Y104.644 E1185.53808
G1 X118.5 Y101.5 E1186.58378
G1 X114.092 Y101.5 E1188.04989
G1 X114.092 Y101.896 E1188.1816
G1 X114.036 Y102.306 E1188.31923
G1 X113.899 Y102.649 E1188.44207
G1 X113.694 Y102.916 E1188.55404
G1 X113.467 Y103.115 E1188.65444
G1 X113.202 Y103.267 E1188.75605
G1 X112.83 Y103.396 E1188.88701
G1 X110.777 Y103.399 E1189.56984
G1 X110.325 Y103.27 E1189.72617
G1 X110.022 Y103.068 E1189.8473
G1 F982.5 X109.654 Y102.713 E1190.01974
G1 F970.1 X109.608 Y102.573 E1190.07008
G1 X109.562 Y102.713 E1190.12042
G1 F982.5 X109.194 Y103.068 E1190.29286
G1 F996.3 X108.894 Y103.268 E1190.41278
G1 X108.469 Y103.395 E1190.56032
G1 X106.455 Y103.4 E1191.23018
G1 X106.17 Y103.339 E1191.32711
G1 X105.929 Y103.245 E1191.41315
G1 X105.684 Y103.092 E1191.50923
G1 X105.452 Y102.872 E1191.61557
G1 X105.26 Y102.584 E1191.73069
G1 X105.151 Y102.303 E1191.83094
G1 X105.096 Y101.9 E1191.96622
G1 X105.096 Y101.5 E1192.09926
G1 X101.501 Y101.501 E1193.29496
G1 X101.5 Y118.5 E1198.94885
G1 X118.5 Y118.5 E1204.60307
G1 X118.5 Y114.425 E1205.95842
G1 X118.064 Y114.424 E1206.10344
G1 X117.626 Y114.358 E1206.25076
G1 X117.334 Y114.233 E1206.35641
G1 X117.098 Y114.069 E1206.45199
G1 X116.909 Y113.878 E1206.54136
G1 X116.67 Y113.47 E1206.69863
G1 X116.568 Y113.04 E1206.84562
G1 X116.568 Y111.174 E1207.46625
G1 X116.604 Y110.897 E1207.55916
G1 X116.7 Y110.61 E1207.65982
G1 X116.869 Y110.325 E1207.77002
G1 X117.073 Y110.104 E1207.87005
G1 F925.9 X117.43 Y109.787 E1208.04091
G1 F785.7 X117.921 Y109.542 E1208.27234
G1 F723 X118.314 Y109.542 E1208.45246
;MESH:NONMESH
G0 F300 X118.314 Y109.542 Z14.8
G0 F9000 X117.043 Y108.886
G0 X115.971 Y107.784
G0 X117.766 Y107.784
;TIME_ELAPSED:269.456684
;LAYER:18
;note -- min layer time used
;TYPE:WALL-OUTER
;MESH:xyzCalibration_cube.stl
G1 F1010 X117.661 Y107.674 E1208.50304
G1 X117.572 Y107.452 E1208.58259
G1 X117.572 Y105.603 E1209.19757
G1 X117.669 Y105.371 E1209.2812
G1 X117.94 Y105.168 E1209.39382
G1 X119.5 Y105.165 E1209.91268
G1 X119.5 Y100.5 E1211.46427
G1 X113.604 Y100.5 E1213.42528
G1 X113.604 Y101.896 E1213.88959
G1 X113.561 Y102.101 E1213.95926
G1 X113.475 Y102.232 E1214.01138
G1 X113.321 Y102.347 E1214.07531
G1 X113.106 Y102.396 E1214.14865
G1 X111.442 Y102.4 E1214.7021
G1 X111.227 Y102.339 E1214.77643
G1 X111.012 Y102.108 E1214.88139
G1 X110.969 Y101.944 E1214.93778
G1 X110.968 Y100.5 E1215.41806
G1 X108.304 Y100.5 E1216.30411
G1 X108.303 Y101.944 E1216.78439
G1 X108.26 Y102.108 E1216.84078
G1 X108.045 Y102.339 E1216.94574
G1 X107.873 Y102.396 E1217.006
G1 X106.078 Y102.396 E1217.60302
G1 X105.917 Y102.344 E1217.6593
G1 X105.691 Y102.105 E1217.7687
G1 X105.648 Y101.9 E1217.83837
G1 X105.648 Y100.5 E1218.30401
G1 X100.501 Y100.501 E1220.01591
G1 X100.5 Y119.5 E1226.335
G1 X119.5 Y119.5 E1232.65443
G1 X119.5 Y113.879 E1234.52398
G1 X118.066 Y113.876 E1235.00093
G1 X117.844 Y113.824 E1235.07677
G1 X117.62 Y113.6 E1235.18213
G1 X117.572 Y113.444 E1235.23641
G1 X117.569 Y111.627 E1235.84075
G1 X117.657 Y111.385 E1235.9264
G1 X117.867 Y111.213 E1236.01668
G1 X118.016 Y111.174 E1236.06791
G1 X119.5 Y111.174 E1236.56149
G1 X119.5 Y107.888 E1237.65442
G1 X118.019 Y107.886 E1238.147
G1 X117.766 Y107.784 E1238.23773
G0 F9000 X117.766 Y109.49
G0 X116.044 Y109.418
G0 X109.636 Y104.002
G0 X109.636 Y102.06
;TYPE:WALL-INNER
G1 F669.7 X109.403 Y102.291 E1238.40229
G1 F863.2 X109.17 Y102.523 E1238.53025
G1 F1010 X108.913 Y102.911 E1238.68504
G1 X108.615 Y103.178 E1238.81812
G1 X108.253 Y103.332 E1238.94896
G1 X107.948 Y103.4 E1239.05289
G1 X106.001 Y103.4 E1239.70047
G1 X105.705 Y103.334 E1239.80134
G1 X105.455 Y103.231 E1239.89127
G1 X105.201 Y103.065 E1239.99219
G1 X104.966 Y102.825 E1240.10391
G1 X104.779 Y102.514 E1240.22461
G1 X104.648 Y101.9 E1240.43342
G1 X104.648 Y101.5 E1240.56646
G1 X101.501 Y101.501 E1241.61316
G1 X101.5 Y118.5 E1247.26705
G1 X118.5 Y118.5 E1252.92127
G1 X118.5 Y114.877 E1254.12629
G1 X118.064 Y114.876 E1254.2713
G1 X117.396 Y114.718 E1254.49961
G1 X117.104 Y114.526 E1254.61584
G1 X116.881 Y114.294 E1254.72287
G1 X116.726 Y114.047 E1254.81986
G1 X116.63 Y113.805 E1254.90645
G1 X116.568 Y113.519 E1255.00379
G1 X116.573 Y111.43 E1255.69859
G1 X116.713 Y111.026 E1255.8408
G1 X116.957 Y110.663 E1255.98628
G1 X117.153 Y110.482 E1256.07501
G1 X117.467 Y110.297 E1256.19623
G1 X117.913 Y110.18 E1256.34959
G1 X118.5 Y110.172 E1256.54484
G1 X118.5 Y108.888 E1256.9719
G1 X117.914 Y108.88 E1257.16682
G1 X117.468 Y108.762 E1257.32027
G1 X117.155 Y108.576 E1257.44137
G1 X116.959 Y108.394 E1257.53033
G1 X116.716 Y108.031 E1257.67562
G1 X116.596 Y107.659 E1257.80562
G1 X116.572 Y107.388 E1257.89611
G1 X116.572 Y105.668 E1258.46818
G1 X116.595 Y105.403 E1258.55666
G1 X116.685 Y105.094 E1258.6637
G1 X116.803 Y104.867 E1258.74879
G1 X117.039 Y104.556 E1258.87864
G1 X117.562 Y104.257 E1259.07901
G1 X118.068 Y104.168 E1259.24989
G1 X118.5 Y104.167 E1259.39358
G1 X118.5 Y101.5 E1260.28062
G1 X114.604 Y101.5 E1261.57644
G1 X114.604 Y101.896 E1261.70815
G1 X114.458 Y102.585 E1261.9424
G1 X114.216 Y102.904 E1262.07558
G1 X114.029 Y103.077 E1262.16031
G1 X113.755 Y103.247 E1262.26755
G1 X113.507 Y103.341 E1262.35577
G1 X113.108 Y103.396 E1262.48973
G1 X111.367 Y103.4 E1263.06879
G1 X111.019 Y103.332 E1263.18672
G1 X110.657 Y103.178 E1263.31757
G1 X110.359 Y102.911 E1263.45065
G1 X110.102 Y102.523 E1263.60544
G1 F863.2 X109.869 Y102.292 E1263.73312
G1 F669.7 X109.636 Y102.06 E1263.89803
G0 F9000 X109.636 Y104.902
;MESH:NONMESH
G0 F300 X109.636 Y104.902 Z15.6
G0 F9000 X116.04 Y115.401
G0 X117.759 Y115.476
G0 X117.762 Y114.225
;TIME_ELAPSED:280.896421
;LAYER:19
;note -- min layer time used
;TYPE:WALL-OUTER
;MESH:xyzCalibration_cube.stl
G1 F1019.1 X117.625 Y114.061 E1263.96911
G1 X117.572 Y113.899 E1264.0258
G1 X117.573 Y112.044 E1264.64277
G1 X117.627 Y111.878 E1264.70083
G1 X117.728 Y111.748 E1264.75559
G1 X117.96 Y111.616 E1264.84437
G1 X119.5 Y111.618 E1265.35657
G1 X119.5 Y107.42 E1266.75283
G1 X118.072 Y107.42 E1267.22779
G1 X117.81 Y107.347 E1267.31825
G1 X117.651 Y107.192 E1267.3921
G1 X117.572 Y106.994 E1267.46301
G1 X117.572 Y105.119 E1268.08663
G1 X117.615 Y104.985 E1268.13344
G1 X117.77 Y104.789 E1268.21655
G1 X117.972 Y104.688 E1268.29167
G1 X119.5 Y104.688 E1268.79988
G1 X119.5 Y100.5 E1270.19282
G1 X114.116 Y100.5 E1271.98354
G1 X114.116 Y101.9 E1272.44919
G1 X114.086 Y102.071 E1272.50693
G1 X113.945 Y102.277 E1272.58996
G1 X113.724 Y102.4 E1272.67408
G1 X111.93 Y102.399 E1273.27077
G1 X111.791 Y102.367 E1273.31821
G1 X111.595 Y102.23 E1273.39774
G1 X111.472 Y101.972 E1273.49281
G1 X111.472 Y100.5 E1273.9824
G1 X107.852 Y100.5 E1275.18641
G1 X107.852 Y101.972 E1275.676
G1 X107.729 Y102.23 E1275.77107
G1 X107.586 Y102.343 E1275.83169
G1 X107.403 Y102.398 E1275.89524
G1 X105.623 Y102.395 E1276.48727
G1 X105.455 Y102.339 E1276.54617
G1 X105.288 Y102.19 E1276.62061
G1 X105.196 Y101.9 E1276.7218
G1 X105.196 Y100.5 E1277.18745
G1 X100.501 Y100.501 E1278.74901
G1 X100.5 Y119.5 E1285.0681
G1 X119.5 Y119.5 E1291.38753
G1 X119.5 Y114.331 E1293.10674
G1 X118.066 Y114.328 E1293.5837
G1 X117.762 Y114.225 E1293.69045
G0 F9000 X117.759 Y115.93
G0 X117.93 Y117.93
G0 X118.5 Y118.5
;TYPE:WALL-INNER
G1 F1019.1 X118.5 Y115.329 E1294.74513
G1 X118.064 Y115.328 E1294.89015
G1 X117.468 Y115.204 E1295.09262
G1 X117.152 Y115.017 E1295.21475
G1 X116.909 Y114.781 E1295.32741
G1 X116.739 Y114.526 E1295.42935
G1 X116.635 Y114.274 E1295.52002
G1 X116.568 Y113.977 E1295.62128
G1 X116.568 Y111.976 E1296.28682
G1 X116.626 Y111.7 E1296.38062
G1 X116.747 Y111.403 E1296.48729
G1 X116.967 Y111.075 E1296.61865
G1 X117.285 Y110.835 E1296.75116
G1 X117.635 Y110.679 E1296.87861
G1 X118.072 Y110.616 E1297.02546
G1 X118.5 Y110.616 E1297.16781
G1 X118.5 Y108.42 E1297.8982
G1 X118.072 Y108.42 E1298.04056
G1 X117.637 Y108.356 E1298.18679
G1 X117.287 Y108.199 E1298.31438
G1 X117.053 Y108.021 E1298.41217
G1 X116.811 Y107.734 E1298.53703
G1 X116.61 Y107.327 E1298.68801
G1 X116.572 Y106.92 E1298.82396
G1 X116.572 Y105.188 E1299.40003
G1 X116.598 Y104.906 E1299.49422
G1 X116.729 Y104.492 E1299.63865
G1 X116.946 Y104.195 E1299.76099
G1 X117.166 Y103.992 E1299.86055
G1 X117.666 Y103.743 E1300.04633
G1 X118.072 Y103.688 E1300.1826
G1 X118.5 Y103.688 E1300.32496
G1 X118.5 Y101.5 E1301.05269
G1 X115.116 Y101.5 E1302.17821
G1 X115.116 Y101.9 E1302.31125
G1 X115.026 Y102.413 E1302.48448
G1 X114.896 Y102.683 E1302.58415
G1 X114.68 Y102.977 E1302.70549
G1 X114.32 Y103.225 E1302.85089
G1 X114.059 Y103.334 E1302.94496
G1 X113.616 Y103.4 E1303.09393
G1 X111.808 Y103.4 E1303.69527
G1 X111.429 Y103.299 E1303.82573
G1 X111.16 Y103.162 E1303.92613
G1 X110.843 Y102.889 E1304.06528
G1 X110.649 Y102.61 E1304.1783
G1 X110.5 Y102.19 E1304.32653
G1 X110.472 Y101.9 E1304.42343
G1 X110.472 Y101.5 E1304.55647
G1 X108.852 Y101.5 E1305.09528
G1 X108.852 Y101.9 E1305.22832
G1 X108.824 Y102.19 E1305.32523
G1 X108.675 Y102.61 E1305.47345
G1 X108.412 Y102.988 E1305.62661
G1 X108.052 Y103.227 E1305.77033
G1 X107.754 Y103.346 E1305.87706
G1 X107.466 Y103.4 E1305.97451
G1 X105.541 Y103.4 E1306.61477
G1 X105.234 Y103.328 E1306.71965
G1 X104.973 Y103.215 E1306.81425
G1 X104.711 Y103.032 E1306.92054
G1 X104.473 Y102.77 E1307.03827
G1 X104.293 Y102.433 E1307.16534
G1 X104.196 Y101.9 E1307.34553
G1 X104.196 Y101.5 E1307.47857
G1 X101.501 Y101.501 E1308.37493
G1 X101.5 Y118.5 E1314.02882
G1 X118.5 Y118.5 E1319.68304
G0 F9000 X117 Y117.293
;MESH:NONMESH
G0 F300 X117 Y117.293 Z16.4
G0 F9000 X117.779 Y115.93
G0 X117.781 Y114.694
;TIME_ELAPSED:291.702110
;LAYER:20
;TYPE:WALL-OUTER
;MESH:xyzCalibration_cube.stl
G1 F1500 X117.63 Y114.526 E1319.75818
G1 X117.573 Y114.357 E1319.8175
G1 X117.58 Y112.471 E1320.44479
G1 X117.667 Y112.269 E1320.51794
G1 X117.807 Y112.139 E1320.58148
G1 X118.074 Y112.064 E1320.67372
G1 X119.5 Y112.066 E1321.14801
G1 X119.5 Y100.5 E1324.99488
G1 X100.5 Y100.5 E1331.31431
G1 X100.5 Y119.5 E1337.63373
G1 X119.5 Y119.5 E1343.95316
G1 X119.5 Y114.787 E1345.52071
G1 X118.066 Y114.784 E1345.99766
G1 X117.781 Y114.694 E1346.09706
G0 F9000 X117.777 Y116.383
G0 X117.93 Y117.93
G0 X118.5 Y118.5
;TYPE:WALL-INNER
G1 F1500 X118.5 Y115.785 E1347.00008
G1 X118.064 Y115.784 E1347.14509
G1 X117.551 Y115.693 E1347.31838
G1 X117.207 Y115.513 E1347.44751
G1 X116.941 Y115.274 E1347.56645
G1 X116.754 Y115.01 E1347.67405
G1 X116.64 Y114.747 E1347.76939
G1 X116.568 Y114.435 E1347.87589
G1 X116.572 Y112.452 E1348.53544
G1 X116.626 Y112.163 E1348.63322
G1 X116.715 Y111.923 E1348.71836
G1 X116.859 Y111.68 E1348.81231
G1 X117.083 Y111.436 E1348.92248
G1 X117.277 Y111.291 E1349.00303
G1 X117.584 Y111.144 E1349.11624
G1 X118.076 Y111.064 E1349.28203
G1 X118.5 Y111.064 E1349.42305
G1 X118.5 Y101.5 E1352.60405
G1 X101.5 Y101.5 E1358.25828
G1 X101.5 Y118.5 E1363.9125
G1 X118.5 Y118.5 E1369.56672
G1 F2700 E1360.56672
G0 F9000 X117.93 Y117.93
G0 X116.042 Y116.308
G0 X116.045 Y115.628
G0 X114.946 Y113.455
G0 X111.945 Y114.99
;TYPE:SKIN
G1 F2700 E1369.56672
G1 F1497 X111.527 Y115.129 E1369.71353
G1 F1744.2 X106.732 Y115.132 E1371.08508
G1 F1752.3 X106.732 Y115.988 E1371.32879
G1 F1744.2 X111.601 Y115.985 E1372.7215
G1 F1609.4 X112.019 Y115.916 E1372.85283
G1 F1400.6 X112.438 Y115.846 E1373.00415
G1 F1315.8 X113.37 Y115.846 E1373.35753
G1 X112.946 Y115.017 E1373.71059
G1 F1395.3 X112.787 Y114.562 E1373.88292
G1 F1589 X112.627 Y114.106 E1374.03465
G1 F1712.3 X108.391 Y105.819 E1376.74629
G1 F1491.1 X108.29 Y105.331 E1376.91304
G1 F1497 X108.705 Y105.194 E1377.05868
G1 F1740.1 X113.783 Y105.191 E1378.51456
G1 F1748.3 X113.783 Y104.333 E1378.75941
G1 F1740.1 X108.631 Y104.336 E1380.2365
G1 F1607.7 X108.216 Y104.404 E1380.367
G1 F1401.9 X107.8 Y104.473 E1380.51707
G1 F1318.1 X106.872 Y104.473 E1380.86831
G1 X107.293 Y105.3 E1381.21956
G1 F1399.3 X107.453 Y105.758 E1381.39254
G1 F1595.7 X107.613 Y106.216 E1381.54421
G1 F1712.3 X111.844 Y114.504 E1384.25545
G1 F1485.1 X111.945 Y114.99 E1384.4222
G1 F2700 E1375.4222
G0 F9000 X114.946 Y113.455
G0 X115.965 Y115.407
G0 X116.027 Y116.671
G0 X114.545 Y116.671
G1 F2700 E1384.4222
G1 F1519.8 X114.218 Y116.759 E1384.53337
G1 F1674.1 X106.404 Y116.762 E1386.86203
G1 F1472 X105.927 Y116.635 E1387.02932
G1 F1361.2 X105.882 Y116.407 E1387.1145
G1 F1423.1 X105.879 Y114.804 E1387.67645
G1 F1315.8 X105.969 Y114.369 E1387.84488
G1 F1311.2 X106.313 Y114.282 E1387.9799
G1 F1416.4 X108.37 Y114.275 E1388.70443
G1 F1316.9 X108.866 Y114.195 E1388.89476
G1 F1155.6 X109.362 Y114.115 E1389.11166
G1 F1088.5 X110.487 Y114.115 E1389.62727
G1 X109.976 Y113.114 E1390.14238
G1 F1157.4 X109.782 Y112.552 E1390.39865
G1 F1327.4 X109.588 Y111.989 E1390.62246
G1 F1429.9 X105.737 Y104.441 E1393.5789
G1 F1464.8 X105.66 Y104.231 E1393.65508
G1 F1535.3 X105.64 Y103.885 E1393.7677
G1 F1409.8 X105.747 Y103.539 E1393.89587
G1 F1345.3 X106.013 Y103.482 E1393.99675
G1 F1423.1 X114.112 Y103.479 E1396.83596
G1 F1315.8 X114.547 Y103.569 E1397.00439
G1 X114.637 Y104.004 E1397.17282
G1 F1423.1 X114.634 Y105.611 E1397.73617
G1 F1311.2 X114.547 Y105.955 E1397.87118
G1 X114.203 Y106.042 E1398.00619
G1 F1416.4 X111.866 Y106.049 E1398.82935
G1 F1316.9 X111.369 Y106.129 E1399.02005
G1 F1154.7 X110.872 Y106.21 E1399.23761
G1 F1087.7 X109.744 Y106.21 E1399.75498
G1 X110.258 Y107.214 E1400.27231
G1 F1156.5 X110.452 Y107.775 E1400.52837
G1 F1325.1 X110.647 Y108.336 E1400.75199
G1 F1438.2 X112.613 Y112.178 E1402.24915
G1 F1456.3 X114.579 Y116.021 E1403.72796
G1 F1521.3 X114.608 Y116.398 E1403.85196
G1 F1482.2 X114.545 Y116.671 E1403.94627
G1 F2700 E1394.94627
G0 F9000 X116.027 Y116.671
G0 X115.965 Y115.407
G0 X116.14 Y107.548
G0 X116.14 Y101.979
G0 X104.294 Y101.979
G0 X104.284 Y104.917
G0 X108.265 Y112.753
G0 X108.775 Y113.065
G1 F2700 E1403.94627
G1 F1231.5 X108.279 Y113.226 E1404.15752
G1 F1416.4 X106.222 Y113.233 E1404.88205
G1 F1311.2 X105.534 Y113.319 E1405.14587
G1 F1219.5 X104.919 Y113.319 E1405.39747
G1 X104.919 Y113.934 E1405.64906
G1 F1315.8 X104.829 Y114.804 E1405.9807
G1 F1423.1 X104.833 Y116.498 E1406.57455
G1 F1361.2 X104.878 Y116.953 E1406.74214
G1 F1308.9 X104.878 Y117.526 E1406.96054
G1 X105.451 Y117.526 E1407.17895
G1 F1386.3 X105.927 Y117.59 E1407.35179
G1 F1569 X106.404 Y117.654 E1407.50482
G1 F1674.1 X114.295 Y117.651 E1409.85642
G1 F1519.8 X114.949 Y117.563 E1410.07305
G1 F1395.3 X115.487 Y117.563 E1410.26541
G1 X115.487 Y117.025 E1410.45777
G1 F1464.8 X115.558 Y116.406 E1410.66997
G1 F1483.7 X115.5 Y115.519 E1410.96887
G1 F1428.6 X111.581 Y107.859 E1413.97377
G1 F1325.1 X111.521 Y107.56 E1414.08859
G1 F1156.5 X111.46 Y107.26 E1414.22065
G1 F1230.5 X111.957 Y107.098 E1414.43259
G1 F1416.4 X114.294 Y107.091 E1415.25574
G1 F1311.2 X114.982 Y107.005 E1415.51956
G1 F1219.5 X115.597 Y107.005 E1415.77116
G1 X115.597 Y106.39 E1416.02275
G1 F1311.2 X115.684 Y105.702 E1416.28662
G1 F1423.1 X115.687 Y104.004 E1416.88187
G1 F1315.8 X115.597 Y103.134 E1417.21351
G1 F1219.5 X115.597 Y102.519 E1417.4651
G1 X114.982 Y102.519 E1417.7167
G1 F1315.8 X114.112 Y102.429 E1418.04834
G1 F1423.1 X105.922 Y102.433 E1420.91944
G1 F1345.3 X105.391 Y102.489 E1421.11745
G1 F1281 X104.805 Y102.489 E1421.34568
G1 X104.805 Y103.075 E1421.57392
G1 F1409.8 X104.698 Y103.766 E1421.82137
G1 F1574 X104.694 Y104.167 E1421.94848
G1 F1500 X104.745 Y104.679 E1422.11961
G1 F1428.6 X104.745 Y104.805 E1422.16362
G1 F1429.9 X108.655 Y112.465 E1425.16422
G1 F1327.4 X108.715 Y112.765 E1425.27921
G1 F1157.4 X108.775 Y113.065 E1425.41108
G0 F9000 X107.072 Y112.499
;MESH:NONMESH
G0 F300 X107.072 Y112.499 Z17.2
G0 F9000 X103.699 Y112.098
G0 X104.378 Y118.028
G0 X118.93 Y118.93
G0 X119.5 Y119.5
;TIME_ELAPSED:309.909191
;LAYER:21
;TYPE:WALL-OUTER
;MESH:xyzCalibration_cube.stl
G1 F1500 X119.5 Y100.5 E1431.73051
G1 X100.5 Y100.5 E1438.04993
G1 X100.5 Y119.5 E1444.36936
G1 X119.5 Y119.5 E1450.68879
G0 F9000 X118.93 Y118.93
G0 X117.93 Y117.93
G0 X118.5 Y118.5
;TYPE:WALL-INNER
G1 F1500 X118.5 Y101.5 E1456.34301
G1 X101.5 Y101.5 E1461.99723
G1 X101.5 Y118.5 E1467.65145
G1 X118.5 Y118.5 E1473.30568
G1 F2700 E1464.30568
G0 F9000 X117.93 Y117.93
G0 X114.946 Y113.455
G0 X111.945 Y114.99
;TYPE:SKIN
G1 F2700 E1473.30568
G1 F1497 X111.527 Y115.129 E1473.45248
G1 F1744.2 X106.732 Y115.132 E1474.82403
G1 F1752.3 X106.732 Y115.988 E1475.06774
G1 F1744.2 X111.601 Y115.985 E1476.46046
G1 F1609.4 X112.019 Y115.916 E1476.59178
G1 F1400.6 X112.438 Y115.846 E1476.74311
G1 F1315.8 X113.37 Y115.846 E1477.09649
G1 X112.946 Y115.017 E1477.44954
G1 F1395.3 X112.787 Y114.562 E1477.62187
G1 F1589 X112.627 Y114.106 E1477.7736
G1 F1712.3 X108.391 Y105.819 E1480.48525
G1 F1491.1 X108.29 Y105.331 E1480.65199
G1 F1497 X108.705 Y105.194 E1480.79764
G1 F1740.1 X113.783 Y105.191 E1482.25351
G1 F1748.3 X113.783 Y104.333 E1482.49836
G1 F1740.1 X108.631 Y104.336 E1483.97545
G1 F1607.7 X108.216 Y104.404 E1484.10595
G1 F1401.9 X107.8 Y104.473 E1484.25602
G1 F1318.1 X106.872 Y104.473 E1484.60727
G1 X107.293 Y105.3 E1484.95851
G1 F1399.3 X107.453 Y105.758 E1485.13149
G1 F1595.7 X107.613 Y106.216 E1485.28317
G1 F1712.3 X111.844 Y114.504 E1487.99441
G1 F1485.1 X111.945 Y114.99 E1488.16116
G1 F2700 E1479.16116
G0 F9000 X114.946 Y113.455
G0 X115.965 Y115.407
G0 X116.027 Y116.671
G0 X114.545 Y116.671
G1 F2700 E1488.16116
G1 F1519.8 X114.218 Y116.759 E1488.27232
G1 F1674.1 X106.404 Y116.762 E1490.60098
G1 F1472 X105.927 Y116.635 E1490.76828
G1 F1361.2 X105.882 Y116.407 E1490.85346
G1 F1423.1 X105.879 Y114.804 E1491.41541
G1 F1315.8 X105.969 Y114.369 E1491.58384
G1 F1311.2 X106.313 Y114.282 E1491.71885
G1 F1416.4 X108.37 Y114.275 E1492.44338
G1 F1316.9 X108.866 Y114.195 E1492.63371
G1 F1155.6 X109.362 Y114.115 E1492.85061
G1 F1088.5 X110.487 Y114.115 E1493.36623
G1 X109.976 Y113.114 E1493.88133
G1 F1157.4 X109.782 Y112.552 E1494.13761
G1 F1327.4 X109.588 Y111.989 E1494.36142
G1 F1429.9 X105.737 Y104.441 E1497.31786
G1 F1464.8 X105.66 Y104.231 E1497.39404
G1 F1535.3 X105.64 Y103.885 E1497.50666
G1 F1409.8 X105.747 Y103.539 E1497.63482
G1 F1345.3 X106.013 Y103.482 E1497.73571
G1 F1423.1 X114.112 Y103.479 E1500.57491
G1 F1315.8 X114.547 Y103.569 E1500.74334
G1 X114.637 Y104.004 E1500.91177
G1 F1423.1 X114.634 Y105.611 E1501.47512
G1 F1311.2 X114.547 Y105.955 E1501.61014
G1 X114.203 Y106.042 E1501.74515
G1 F1416.4 X111.866 Y106.049 E1502.5683
G1 F1316.9 X111.369 Y106.129 E1502.759
G1 F1154.7 X110.872 Y106.21 E1502.97657
G1 F1087.7 X109.744 Y106.21 E1503.49393
G1 X110.258 Y107.214 E1504.01126
G1 F1156.5 X110.452 Y107.775 E1504.26733
G1 F1325.1 X110.647 Y108.336 E1504.49094
G1 F1438.2 X112.613 Y112.178 E1505.98811
G1 F1456.3 X114.579 Y116.021 E1507.46692
G1 F1521.3 X114.608 Y116.398 E1507.59092
G1 F1482.2 X114.545 Y116.671 E1507.68522
G1 F2700 E1498.68522
G0 F9000 X116.027 Y116.671
G0 X116.14 Y107.548
G0 X116.14 Y101.979
G0 X104.294 Y101.979
G0 X104.284 Y104.917
G0 X108.265 Y112.753
G0 X108.775 Y113.065
G1 F2700 E1507.68522
G1 F1231.5 X108.279 Y113.226 E1507.89648
G1 F1416.4 X106.222 Y113.233 E1508.62101
G1 F1311.2 X105.534 Y113.319 E1508.88483
G1 F1219.5 X104.919 Y113.319 E1509.13642
G1 X104.919 Y113.934 E1509.38802
G1 F1315.8 X104.829 Y114.804 E1509.71965
G1 F1423.1 X104.833 Y116.498 E1510.31351
G1 F1361.2 X104.878 Y116.953 E1510.48109
G1 F1308.9 X104.878 Y117.526 E1510.6995
G1 X105.451 Y117.526 E1510.9179
G1 F1386.3 X105.927 Y117.59 E1511.09074
G1 F1569 X106.404 Y117.654 E1511.24377
G1 F1674.1 X114.295 Y117.651 E1513.59538
G1 F1519.8 X114.949 Y117.563 E1513.812
G1 F1395.3 X115.487 Y117.563 E1514.00436
G1 X115.487 Y117.025 E1514.19672
G1 F1464.8 X115.558 Y116.406 E1514.40893
G1 F1483.7 X115.5 Y115.519 E1514.70783
G1 F1428.6 X111.581 Y107.859 E1517.71272
G1 F1325.1 X111.521 Y107.56 E1517.82754
G1 F1156.5 X111.46 Y107.26 E1517.95961
G1 F1230.5 X111.957 Y107.098 E1518.17154
G1 F1416.4 X114.294 Y107.091 E1518.9947
G1 F1311.2 X114.982 Y107.005 E1519.25852
G1 F1219.5 X115.597 Y107.005 E1519.51011
G1 X115.597 Y106.39 E1519.76171
G1 F1311.2 X115.684 Y105.702 E1520.02557
G1 F1423.1 X115.687 Y104.004 E1520.62083
G1 F1315.8 X115.597 Y103.134 E1520.95246
G1 F1219.5 X115.597 Y102.519 E1521.20406
G1 X114.982 Y102.519 E1521.45566
G1 F1315.8 X114.112 Y102.429 E1521.78729
G1 F1423.1 X105.922 Y102.433 E1524.65839
G1 F1345.3 X105.391 Y102.489 E1524.85641
G1 F1281 X104.805 Y102.489 E1525.08464
G1 X104.805 Y103.075 E1525.31287
G1 F1409.8 X104.698 Y103.766 E1525.56032
G1 F1574 X104.694 Y104.167 E1525.68743
G1 F1500 X104.745 Y104.679 E1525.85857
G1 F1428.6 X104.745 Y104.805 E1525.90257
G1 F1429.9 X108.655 Y112.465 E1528.90318
G1 F1327.4 X108.715 Y112.765 E1529.01816
G1 F1157.4 X108.775 Y113.065 E1529.15004
G0 F9000 X107.072 Y112.499
;MESH:NONMESH
G0 F300 X107.072 Y112.499 Z18
G0 F9000 X103.699 Y112.098
G0 X104.378 Y118.028
G0 X118.93 Y118.93
G0 X119.5 Y119.5
;TIME_ELAPSED:327.680353
;LAYER:22
;TYPE:WALL-OUTER
;MESH:xyzCalibration_cube.stl
G1 F1500 X119.5 Y100.5 E1535.46946
G1 X100.5 Y100.5 E1541.78889
G1 X100.5 Y119.5 E1548.10831
G1 X119.5 Y119.5 E1554.42774
G0 F9000 X118.93 Y118.93
G0 X118.5 Y118.5
;TYPE:WALL-INNER
G1 F1500 X118.5 Y101.5 E1560.08196
G1 X101.5 Y101.5 E1565.73619
G1 X101.5 Y118.5 E1571.39041
G1 X118.5 Y118.5 E1577.04463
G0 F9000 X118.1 Y117.6
G0 X117.6 Y117.6
;TYPE:SKIN
G1 F1500 X117.6 Y102.4 E1582.10017
G1 X102.4 Y102.4 E1587.15571
G1 X102.4 Y117.6 E1592.21125
G1 X117.6 Y117.6 E1597.26679
G0 F9000 X118.1 Y117.6
G0 X118.1 Y104.372
G0 X117.1 Y104.372
G1 F1500 X115.628 Y102.9 E1597.95918
G0 F9000 X115.628 Y101.9
G0 X114.214 Y101.9
G0 X114.214 Y102.9
G1 F1500 X117.1 Y105.786 E1599.31666
G0 F9000 X118.1 Y105.786
G0 X118.1 Y107.2
G0 X117.1 Y107.2
G1 F1500 X112.8 Y102.9 E1601.33925
G0 F9000 X112.8 Y101.9
G0 X111.386 Y101.9
G0 X111.386 Y102.9
G1 F1500 X117.1 Y108.614 E1604.02694
G0 F9000 X118.1 Y108.614
G0 X118.1 Y110.029
G0 X117.1 Y110.029
G1 F1500 X109.971 Y102.9 E1607.38021
G0 F9000 X109.971 Y101.9
G0 X108.557 Y101.9
G0 X108.557 Y102.9
G1 F1500 X117.1 Y111.443 E1611.39857
G0 F9000 X118.1 Y111.443
G0 X118.1 Y112.857
G0 X117.1 Y112.857
G1 F1500 X107.143 Y102.9 E1616.08204
G0 F9000 X107.143 Y101.9
G0 X105.729 Y101.9
G0 X105.729 Y102.9
G1 F1500 X117.1 Y114.271 E1621.43061
G0 F9000 X118.1 Y114.271
G0 X118.1 Y115.685
G0 X117.1 Y115.685
G1 F1500 X104.315 Y102.9 E1627.44428
G0 F9000 X104.315 Y101.9
G0 X101.972 Y101.972
G0 X101.9 Y102.9
G0 X102.9 Y102.9
G1 F1500 X117.1 Y117.1 E1634.12352
G0 F9000 X118.1 Y117.1
G0 X118.028 Y118.028
G0 X115.685 Y118.1
G0 X115.685 Y117.1
G1 F1500 X102.9 Y104.314 E1640.13743
G0 F9000 X101.9 Y104.314
G0 X101.9 Y105.728
G0 X102.9 Y105.728
G1 F1500 X114.271 Y117.1 E1645.48624
G0 F9000 X114.271 Y118.1
G0 X112.857 Y118.1
G0 X112.857 Y117.1
G1 F1500 X102.9 Y107.142 E1650.16994
G0 F9000 X101.9 Y107.142
G0 X101.9 Y108.556
G0 X102.9 Y108.556
G1 F1500 X111.443 Y117.1 E1654.18854
G0 F9000 X111.443 Y118.1
G0 X110.029 Y118.1
G0 X110.029 Y117.1
G1 F1500 X102.9 Y109.971 E1657.5418
G0 F9000 X101.9 Y109.971
G0 X101.9 Y111.385
G0 X102.9 Y111.385
G1 F1500 X108.614 Y117.1 E1660.22973
G0 F9000 X108.614 Y118.1
G0 X107.2 Y118.1
G0 X107.2 Y117.1
G1 F1500 X102.9 Y112.799 E1662.25255
G0 F9000 X101.9 Y112.799
G0 X101.9 Y114.213
G0 X102.9 Y114.213
G1 F1500 X105.786 Y117.1 E1663.61027
G0 F9000 X105.786 Y118.1
G0 X104.372 Y118.1
G0 X104.372 Y117.1
G1 F1500 X102.9 Y115.628 E1664.30266
;MESH:NONMESH
G0 F300 X102.9 Y115.628 Z18.8
G0 F9000 X101.9 Y115.628
G0 X101.972 Y118.028
G0 X114.48 Y118.1
G0 X114.48 Y116.684
;TIME_ELAPSED:350.245846
;LAYER:23
;TYPE:WALL-OUTER
;MESH:xyzCalibration_cube.stl
G1 F1500 X114.202 Y116.816 E1664.40501
G1 X106.404 Y116.816 E1666.99864
G1 X106.197 Y116.772 E1667.06903
G1 X106.039 Y116.659 E1667.13363
G1 X105.909 Y116.389 E1667.2333
G1 X105.904 Y114.707 E1667.79274
G1 X106.03 Y114.471 E1667.88172
G1 X106.191 Y114.351 E1667.94851
G1 X106.404 Y114.304 E1668.02106
G1 X110.795 Y114.304 E1669.48151
G1 X105.609 Y104.135 E1673.27817
G1 X105.624 Y103.861 E1673.36944
G1 X105.776 Y103.626 E1673.46252
G1 X106.042 Y103.504 E1673.55986
G1 X114.112 Y103.504 E1676.24395
G1 X114.286 Y103.534 E1676.30267
G1 X114.43 Y103.617 E1676.35796
G1 X114.612 Y103.879 E1676.46406
G1 X114.612 Y105.616 E1677.04179
G1 X114.541 Y105.779 E1677.10092
G1 X114.376 Y105.946 E1677.179
G1 X114.177 Y106.02 E1677.24962
G1 X109.434 Y106.02 E1678.82715
G1 X114.635 Y116.183 E1682.6243
G1 X114.626 Y116.436 E1682.7085
G1 X114.48 Y116.684 E1682.80422
G1 F2700 E1673.80422
G0 F9000 X116.01 Y116.682
G0 X115.12 Y118.012
G0 X118.93 Y118.93
G0 X119.5 Y119.5
G1 F2700 E1682.80422
G1 F1500 X119.5 Y100.5 E1689.12364
G1 X100.501 Y100.501 E1695.44274
G1 X100.5 Y119.5 E1701.76183
G1 X119.5 Y119.5 E1708.08126
G0 F9000 X118.93 Y118.93
G0 X115.12 Y118.012
G0 X115.87 Y117.063
G0 X114.46 Y118.145
;TYPE:WALL-INNER
G1 F882.9 X114.14 Y118.158 E1708.26223
G1 F890.7 X106.404 Y118.158 E1712.59517
G1 F942.2 X106.189 Y118.021 E1712.73016
G1 F1063.8 X105.973 Y117.883 E1712.85037
G1 F1223.5 X105.757 Y117.745 E1712.95489
G1 F1404.5 X105.311 Y117.344 E1713.16794
G1 F1500 X105.034 Y116.929 E1713.33389
G1 X104.904 Y116.481 E1713.48904
G1 X104.904 Y114.804 E1714.04681
G1 X104.951 Y114.428 E1714.17284
G1 X105.085 Y114.088 E1714.29439
G1 X105.284 Y113.805 E1714.40946
G1 X105.519 Y113.592 E1714.51495
G1 X105.766 Y113.446 E1714.61038
G1 X106.05 Y113.346 E1714.71053
G1 X106.404 Y113.304 E1714.82909
G1 X109.163 Y113.304 E1715.74674
G1 X104.767 Y104.686 E1718.96447
G1 X104.629 Y104.306 E1719.09893
G1 X104.604 Y103.953 E1719.21664
G1 X104.666 Y103.577 E1719.34338
G1 X104.825 Y103.218 E1719.47397
G1 X105.122 Y102.87 E1719.62614
G1 F1492.5 X105.562 Y102.6 E1719.7987
G1 F1479.3 X105.843 Y102.518 E1719.89742
G1 F1485.1 X106.104 Y102.503 E1719.98525
G1 F1497 X114.112 Y102.503 E1722.65404
G1 F1498.5 X114.632 Y102.596 E1722.82992
G1 F1500 X115.064 Y102.844 E1722.99559
G1 X115.362 Y103.174 E1723.14348
G1 X115.532 Y103.518 E1723.27111
G1 X115.612 Y104.004 E1723.43492
G1 X115.612 Y105.52 E1723.93915
G1 X115.582 Y105.869 E1724.05565
G1 X115.397 Y106.296 E1724.21043
G1 X115.167 Y106.588 E1724.33406
G1 X114.902 Y106.796 E1724.44611
G1 X114.521 Y106.982 E1724.58712
G1 X114.112 Y107.02 E1724.72374
G1 X111.069 Y107.02 E1725.73585
G1 X115.476 Y115.632 E1728.95347
G1 X115.613 Y116.001 E1729.08438
G1 X115.64 Y116.318 E1729.1902
G1 X115.613 Y116.634 E1729.29568
G1 X115.451 Y117.047 E1729.44324
G1 X115.159 Y117.418 E1729.60027
G1 F1356.2 X114.973 Y117.66 E1729.71255
G1 F1138.1 X114.786 Y117.902 E1729.84661
G1 F956 X114.46 Y118.145 E1730.0588
G1 X114.861 Y118.288 E1730.28097
G1 F1138.1 X115.222 Y118.394 E1730.4459
G1 F1356.2 X115.583 Y118.5 E1730.5843
G1 F1500 X118.5 Y118.5 E1731.5545
G1 X118.5 Y101.5 E1737.20873
G1 F1498.5 X106.104 Y101.501 E1741.33578
G1 F1485.1 X105.756 Y101.508 E1741.4527
G1 F1488.1 X104.611 Y101.5 E1741.83659
G1 F1500 X101.501 Y101.501 E1742.87098
G1 X101.5 Y118.5 E1748.52487
G1 X104.811 Y118.5 E1749.62611
G1 F1404.5 X105.607 Y118.433 E1749.90986
G1 F1223.5 X105.872 Y118.342 E1750.02412
G1 F1063.8 X106.138 Y118.25 E1750.15611
G1 F942.2 X106.404 Y118.158 E1750.30515
G0 F9000 X105.378 Y117.346
G0 X105.378 Y113.777
G0 X108.38 Y112.824
G0 X104.319 Y104.612
G0 X107.691 Y112.404
;TYPE:SKIN
G1 F1488.1 X103.96 Y105.107 E1753.05279
G1 F1456.3 X103.919 Y105.051 E1753.07657
G1 F1348.9 X103.656 Y104.482 E1753.30841
G1 F1287.6 X103.628 Y104.004 E1753.49394
G1 F1286.4 X103.664 Y103.353 E1753.74679
G1 F1254.2 X103.927 Y102.764 E1754.00339
G1 F1238.6 X104.115 Y102.505 E1754.1323
G1 X102.505 Y102.505 E1754.78077
G1 X102.505 Y103.111 E1755.02486
G1 F1258.4 X102.486 Y103.456 E1755.16184
G1 F1290.9 X102.476 Y104.004 E1755.37367
G1 F1287.6 X102.488 Y104.583 E1755.59807
G1 F1368.6 X102.408 Y105.48 E1755.92635
G1 F1488.1 X102.4 Y113.003 E1758.44853
G1 F1453.5 X102.432 Y113.365 E1758.57327
G1 F1311.2 X102.511 Y113.828 E1758.75199
G1 F1171.9 X102.568 Y114.161 E1758.89582
G1 F1134.6 X102.553 Y114.641 E1759.10697
G1 F1142.4 X102.559 Y117.441 E1760.32975
G1 F1137.2 X104.114 Y117.441 E1761.01193
G1 X104.034 Y117.27 E1761.09475
G1 X103.871 Y116.685 E1761.36117
G1 F1143.3 X103.854 Y116.355 E1761.50536
G1 F1148.5 X103.855 Y114.722 E1762.2147
G1 F1196.2 X103.898 Y114.266 E1762.40574
G1 F1323.9 X104.236 Y113.703 E1762.65319
G1 F1453.5 X104.322 Y113.609 E1762.69692
G1 F1500 X104.607 Y113.202 E1762.86218
G1 X104.982 Y112.863 E1763.03032
G1 X105.383 Y112.627 E1763.18507
G1 X105.835 Y112.466 E1763.34466
G1 X106.346 Y112.407 E1763.51575
G1 X107.691 Y112.404 E1763.9631
G0 F9000 X104.319 Y104.612
G0 X105.795 Y102.012
G0 X104.611 Y101.961
G0 X101.973 Y101.973
G0 X101.901 Y106.387
G0 X102.914 Y106.389
G1 F1500 X103.662 Y105.642 E1764.3147
G0 F9000 X104.272 Y104.629
G0 X104.141 Y106.577
G1 F1500 X102.911 Y107.807 E1764.89326
G0 F9000 X101.901 Y107.805
G0 X101.901 Y109.222
G0 X102.908 Y109.224
G1 F1500 X104.621 Y107.511 E1765.699
G0 F9000 X104.272 Y104.629
G0 X105.101 Y108.445
G1 F1500 X102.905 Y110.641 E1766.73193
G0 F9000 X101.901 Y110.639
G0 X101.901 Y112.057
G0 X102.902 Y112.059
G1 F1500 X105.58 Y109.38 E1767.99181
G0 F9000 X104.272 Y104.629
G0 X106.06 Y110.315
G1 F1500 X102.976 Y113.399 E1769.44243
G0 F9000 X101.901 Y113.397
G0 X101.973 Y101.973
G0 X104.611 Y101.961
G0 X105.795 Y102.012
G0 X104.319 Y104.612
G0 X105.825 Y111.964
G1 F1500 X106.539 Y111.25 E1769.77828
G0 F9000 X104.319 Y104.612
G0 X105.294 Y102.979
G0 X115.14 Y102.979
G0 X115.14 Y106.548
G0 X111.636 Y107.371
G0 X112.094 Y108.146
G0 X112.538 Y107.92
G1 F1494 X116.302 Y115.268 E1772.5352
G1 F1472 X116.524 Y115.829 E1772.73968
G1 F1456.3 X116.552 Y116.316 E1772.90679
G1 F1425.9 X116.517 Y116.873 E1773.10207
G1 F1400.6 X116.249 Y117.565 E1773.36641
G1 X117.565 Y117.565 E1773.83519
G1 X117.565 Y117.029 E1774.02613
G1 F1425.9 X117.584 Y116.316 E1774.27569
G1 F1440.9 X117.575 Y115.835 E1774.44226
G1 F1462 X117.599 Y114.896 E1774.7628
G1 F1491.1 X117.596 Y106.991 E1777.40779
G1 F1442.3 X117.564 Y106.141 E1777.70201
G1 F1416.4 X117.577 Y105.606 E1777.89051
G1 F1435.4 X117.578 Y104.016 E1778.44314
G1 F1381.2 X117.537 Y103.027 E1778.80068
G1 F1331 X117.537 Y102.463 E1779.01209
G1 X116.009 Y102.463 E1779.58485
G1 X116.198 Y102.704 E1779.69965
G1 X116.439 Y103.205 E1779.90805
G1 F1376.1 X116.53 Y103.927 E1780.17187
G1 F1429.9 X116.533 Y105.559 E1780.74127
G1 F1438.2 X116.498 Y106.076 E1780.92103
G1 F1467.7 X116.176 Y106.754 E1781.17617
G1 F1495.5 X115.799 Y107.23 E1781.37873
G1 F1498.5 X115.378 Y107.562 E1781.55724
G1 F1500 X114.941 Y107.775 E1781.71893
G1 X114.605 Y107.867 E1781.8348
G1 X114.153 Y107.918 E1781.98609
G1 X112.538 Y107.92 E1782.52324
G0 F9000 X112.094 Y108.146
G0 X112.553 Y109.043
G0 X113.443 Y108.589
G1 F1500 X113.612 Y108.42 E1782.60273
G0 F9000 X113.612 Y107.42
G0 X111.852 Y107.5
G0 X113.032 Y109.978
G0 X113.922 Y109.524
G1 F1500 X115.28 Y108.165 E1783.24173
G0 F9000 X114.843 Y107.268
G0 X115.854 Y106.239
G0 X116.797 Y106.649
G1 F1500 X117.047 Y106.399 E1783.35932
G0 F9000 X118.1 Y106.399
G0 X118.1 Y107.76
G0 X117.1 Y107.76
G1 F1500 X114.401 Y110.459 E1784.62885
G0 F9000 X113.51 Y110.914
G0 X113.989 Y111.849
G0 X114.88 Y111.394
G1 F1500 X117.1 Y109.174 E1785.67307
G0 F9000 X118.1 Y109.174
G0 X118.1 Y110.589
G0 X117.099 Y110.589
G1 F1500 X115.36 Y112.329 E1786.49128
G0 F9000 X114.468 Y112.784
G0 X114.946 Y113.72
G0 X115.839 Y113.264
G1 F1500 X117.099 Y112.004 E1787.08394
G0 F9000 X118.1 Y112.004
G0 X118.1 Y113.419
G0 X117.098 Y113.419
G1 F1500 X116.318 Y114.198 E1787.45059
G0 F9000 X115.944 Y115.519
G0 X117.098 Y114.833
G1 F1500 X116.795 Y115.136 E1787.59312
;MESH:NONMESH
G0 F300 X116.795 Y115.136 Z19.6
G0 F9000 X115.977 Y115.698
G0 X116.027 Y116.684
G0 X114.48 Y116.684
;TIME_ELAPSED:374.411746
;LAYER:24
;TYPE:WALL-OUTER
;MESH:xyzCalibration_cube.stl
G1 F1500 X114.202 Y116.816 E1787.69547
G1 X106.404 Y116.816 E1790.2891
G1 X106.197 Y116.772 E1790.35949
G1 X106.039 Y116.659 E1790.42409
G1 X105.909 Y116.389 E1790.52376
G1 X105.904 Y114.707 E1791.0832
G1 X106.03 Y114.471 E1791.17218
G1 X106.191 Y114.351 E1791.23897
G1 X106.404 Y114.304 E1791.31152
G1 X110.795 Y114.304 E1792.77197
G1 X105.609 Y104.135 E1796.56863
G1 X105.624 Y103.861 E1796.6599
G1 X105.776 Y103.626 E1796.75298
G1 X106.042 Y103.504 E1796.85032
G1 X114.112 Y103.504 E1799.53441
G1 X114.286 Y103.534 E1799.59314
G1 X114.43 Y103.617 E1799.64842
G1 X114.612 Y103.879 E1799.75452
G1 X114.612 Y105.616 E1800.33225
G1 X114.541 Y105.779 E1800.39138
G1 X114.376 Y105.946 E1800.46946
G1 X114.177 Y106.02 E1800.54008
G1 X109.434 Y106.02 E1802.11761
G1 X114.635 Y116.183 E1805.91476
G1 X114.626 Y116.436 E1805.99896
G1 X114.48 Y116.684 E1806.09468
G1 F2700 E1797.09468
G0 F9000 X116.01 Y116.682
G0 X115.12 Y118.012
G0 X118.93 Y118.93
G1 F2700 E1806.09468
G0 F9000 X119.5 Y119.5
G1 F1500 X119.5 Y100.5 E1812.4141
G1 X100.501 Y100.501 E1818.7332
G1 X100.5 Y119.5 E1825.05229
G1 X119.5 Y119.5 E1831.37172
G0 F9000 X118.93 Y118.93
G0 X115.12 Y118.012
G0 X115.87 Y117.063
G0 X114.46 Y118.145
;TYPE:WALL-INNER
G1 F882.9 X114.14 Y118.158 E1831.55269
G1 F890.7 X106.404 Y118.158 E1835.88563
G1 F942.2 X106.189 Y118.021 E1836.02062
G1 F1063.8 X105.973 Y117.883 E1836.14083
G1 F1223.5 X105.757 Y117.745 E1836.24535
G1 F1404.5 X105.311 Y117.344 E1836.4584
G1 F1500 X105.034 Y116.929 E1836.62435
G1 X104.904 Y116.481 E1836.7795
G1 X104.904 Y114.804 E1837.33727
G1 X104.951 Y114.428 E1837.4633
G1 X105.085 Y114.088 E1837.58485
G1 X105.284 Y113.805 E1837.69992
G1 X105.519 Y113.592 E1837.80541
G1 X105.766 Y113.446 E1837.90084
G1 X106.05 Y113.346 E1838.00099
G1 X106.404 Y113.304 E1838.11955
G1 X109.163 Y113.304 E1839.0372
G1 X104.767 Y104.686 E1842.25493
G1 X104.629 Y104.306 E1842.3894
G1 X104.604 Y103.953 E1842.5071
G1 X104.666 Y103.577 E1842.63384
G1 X104.825 Y103.218 E1842.76444
G1 X105.122 Y102.87 E1842.9166
G1 F1492.5 X105.562 Y102.6 E1843.08916
G1 F1479.3 X105.843 Y102.518 E1843.18788
G1 F1485.1 X106.104 Y102.503 E1843.27571
G1 F1497 X114.112 Y102.503 E1845.9445
G1 F1498.5 X114.632 Y102.596 E1846.12038
G1 F1500 X115.064 Y102.844 E1846.28605
G1 X115.362 Y103.174 E1846.43394
G1 X115.532 Y103.518 E1846.56157
G1 X115.612 Y104.004 E1846.72539
G1 X115.612 Y105.52 E1847.22961
G1 X115.582 Y105.869 E1847.34611
G1 X115.397 Y106.296 E1847.50089
G1 X115.167 Y106.588 E1847.62452
G1 X114.902 Y106.796 E1847.73657
G1 X114.521 Y106.982 E1847.87758
G1 X114.112 Y107.02 E1848.0142
G1 X111.069 Y107.02 E1849.02631
G1 X115.476 Y115.632 E1852.24393
G1 X115.613 Y116.001 E1852.37484
G1 X115.64 Y116.318 E1852.48066
G1 X115.613 Y116.634 E1852.58615
G1 X115.451 Y117.047 E1852.7337
G1 X115.159 Y117.418 E1852.89073
G1 F1356.2 X114.973 Y117.66 E1853.00301
G1 F1138.1 X114.786 Y117.902 E1853.13707
G1 F956 X114.46 Y118.145 E1853.34926
G1 X114.861 Y118.288 E1853.57143
G1 F1138.1 X115.222 Y118.394 E1853.73636
G1 F1356.2 X115.583 Y118.5 E1853.87477
G1 F1500 X118.5 Y118.5 E1854.84496
G1 X118.5 Y101.5 E1860.49919
G1 F1498.5 X106.104 Y101.501 E1864.62624
G1 F1485.1 X105.756 Y101.508 E1864.74316
G1 F1488.1 X104.611 Y101.5 E1865.12705
G1 F1500 X101.501 Y101.501 E1866.16144
G1 X101.5 Y118.5 E1871.81533
G1 X104.811 Y118.5 E1872.91657
G1 F1404.5 X105.607 Y118.433 E1873.20032
G1 F1223.5 X105.872 Y118.342 E1873.31458
G1 F1063.8 X106.138 Y118.25 E1873.44657
G1 F942.2 X106.404 Y118.158 E1873.59561
G0 F9000 X105.378 Y117.346
G0 X105.378 Y113.777
G0 X108.38 Y112.824
G0 X104.319 Y104.612
G0 X107.691 Y112.404
;TYPE:SKIN
G1 F1488.1 X103.96 Y105.107 E1876.34325
G1 F1456.3 X103.919 Y105.051 E1876.36703
G1 F1348.9 X103.656 Y104.482 E1876.59887
G1 F1287.6 X103.628 Y104.004 E1876.7844
G1 F1286.4 X103.664 Y103.353 E1877.03726
G1 F1254.2 X103.927 Y102.764 E1877.29385
G1 F1238.6 X104.115 Y102.505 E1877.42276
G1 X102.505 Y102.505 E1878.07123
G1 X102.505 Y103.111 E1878.31532
G1 F1258.4 X102.486 Y103.456 E1878.4523
G1 F1290.9 X102.476 Y104.004 E1878.66413
G1 F1287.6 X102.488 Y104.583 E1878.88853
G1 F1368.6 X102.408 Y105.48 E1879.21681
G1 F1488.1 X102.4 Y113.003 E1881.73899
G1 F1453.5 X102.432 Y113.365 E1881.86373
G1 F1311.2 X102.511 Y113.828 E1882.04245
G1 F1171.9 X102.568 Y114.161 E1882.18628
G1 F1134.6 X102.553 Y114.641 E1882.39743
G1 F1142.4 X102.559 Y117.441 E1883.62021
G1 F1137.2 X104.114 Y117.441 E1884.30239
G1 X104.034 Y117.27 E1884.38521
G1 X103.871 Y116.685 E1884.65163
G1 F1143.3 X103.854 Y116.355 E1884.79583
G1 F1148.5 X103.855 Y114.722 E1885.50516
G1 F1196.2 X103.898 Y114.266 E1885.6962
G1 F1323.9 X104.236 Y113.703 E1885.94365
G1 F1453.5 X104.322 Y113.609 E1885.98738
G1 F1500 X104.607 Y113.202 E1886.15264
G1 X104.982 Y112.863 E1886.32078
G1 X105.383 Y112.627 E1886.47553
G1 X105.835 Y112.466 E1886.63512
G1 X106.346 Y112.407 E1886.80621
G1 X107.691 Y112.404 E1887.25356
G0 F9000 X104.272 Y104.629
G0 X104.558 Y107.386
G1 F1500 X102.915 Y105.744 E1888.02614
G0 F9000 X101.901 Y105.742
G0 X101.901 Y107.152
G0 X102.912 Y107.154
G1 F1500 X106.047 Y110.29 E1889.50099
G0 F9000 X104.272 Y104.629
G0 X106.257 Y111.914
G1 F1500 X102.909 Y108.566 E1891.07578
G0 F9000 X101.901 Y108.564
G0 X101.901 Y109.975
G0 X102.906 Y109.977
G1 F1500 X105.128 Y112.199 E1892.12094
G0 F9000 X104.319 Y104.612
G0 X108.38 Y112.824
G0 X105.384 Y113.669
G0 X104.504 Y114.888
G0 X104.31 Y112.795
G1 F1500 X102.902 Y111.388 E1892.78299
G0 F9000 X101.901 Y111.386
G0 X101.901 Y112.797
G0 X102.9 Y112.799
G1 F1500 X103.681 Y113.58 E1893.15035
G1 F2700 E1884.15035
G0 F9000 X104.504 Y114.888
G0 X105.378 Y113.777
G0 X108.38 Y112.824
G0 X105.284 Y104.676
G0 X105.294 Y102.979
G0 X115.14 Y102.979
G0 X115.14 Y106.548
G0 X111.207 Y106.542
G0 X112.094 Y108.146
G1 F2700 E1893.15035
G0 F9000 X112.538 Y107.92
G1 F1494 X116.302 Y115.268 E1895.90727
G1 F1472 X116.524 Y115.829 E1896.11175
G1 F1456.3 X116.552 Y116.316 E1896.27886
G1 F1425.9 X116.517 Y116.873 E1896.47414
G1 F1400.6 X116.249 Y117.565 E1896.73848
G1 X117.565 Y117.565 E1897.20726
G1 X117.565 Y117.029 E1897.39819
G1 F1425.9 X117.584 Y116.316 E1897.64776
G1 F1440.9 X117.575 Y115.835 E1897.81433
G1 F1462 X117.599 Y114.896 E1898.13487
G1 F1491.1 X117.596 Y106.991 E1900.77986
G1 F1442.3 X117.564 Y106.141 E1901.07408
G1 F1416.4 X117.577 Y105.606 E1901.26258
G1 F1435.4 X117.578 Y104.016 E1901.81521
G1 F1381.2 X117.537 Y103.027 E1902.17275
G1 F1331 X117.537 Y102.463 E1902.38416
G1 X116.009 Y102.463 E1902.95692
G1 X116.198 Y102.704 E1903.07172
G1 X116.439 Y103.205 E1903.28012
G1 F1376.1 X116.53 Y103.927 E1903.54394
G1 F1429.9 X116.533 Y105.559 E1904.11334
G1 F1438.2 X116.498 Y106.076 E1904.2931
G1 F1467.7 X116.176 Y106.754 E1904.54824
G1 F1495.5 X115.799 Y107.23 E1904.7508
G1 F1498.5 X115.378 Y107.562 E1904.92931
G1 F1500 X114.941 Y107.775 E1905.091
G1 X114.605 Y107.867 E1905.20687
G1 X114.153 Y107.918 E1905.35816
G1 X112.538 Y107.92 E1905.89531
G0 F9000 X112.094 Y108.146
G0 X111.852 Y107.5
G0 X115.781 Y106.408
G0 X116.712 Y106.812
G1 F1500 X117.097 Y107.197 E1906.0764
G0 F9000 X118.1 Y107.197
G0 X118.028 Y118.028
G0 X115.12 Y118.012
G0 X115.885 Y115.421
G0 X111.852 Y107.5
G0 X115.448 Y106.874
G0 X116.108 Y107.622
G1 F1500 X117.1 Y108.615 E1906.54324
G0 F9000 X118.1 Y108.615
G0 X118.1 Y110.029
G0 X117.1 Y110.029
G1 F1500 X115.251 Y108.18 E1907.41296
G0 F9000 X114.814 Y107.283
G0 X114.077 Y107.42
G0 X114.077 Y108.42
G1 F1500 X117.1 Y111.443 E1908.83488
G0 F9000 X118.1 Y111.443
G0 X118.1 Y112.856
G0 X117.099 Y112.856
G1 F1500 X114.084 Y109.841 E1910.25305
G0 F9000 X113.194 Y110.295
G0 X114.679 Y113.198
G0 X115.571 Y112.743
G1 F1500 X117.099 Y114.271 E1910.97177
;TIME_ELAPSED:398.616246
G1 F2700 E1901.97177
M140 S0
M107
G91 ;Relative positioning
G1 E-2 F2700 ;Retract a bit
G1 E-2 Z0.2 F2400 ;Retract and raise Z
G1 X5 Y5 F3000 ;Wipe out
G1 Z10 ;Raise Z more
G90 ;Absolute positioning

G1 X0 Y220 ;Present print
M106 S0 ;Turn-off fan
M104 S0 ;Turn-off hotend
M140 S0 ;Turn-off bed

M84 X Y E ;Disable all steppers but Z

;StarwarsI
M300 S1318 P600
M300 S1318 P600
M300 S1318 P600
M300 S1046 P300
M300 S0 P150
M300 S1567 P150
M300 S1318 P600
M300 S1046 P300
M300 S0 P150
M300 S1567 P150
M300 S1318 P600
M300 S0 P600
M300 S987 P600
M300 S987 P600
M300 S987 P600
M300 S2093 P300
M300 S0 P150
M300 S1567 P150
M300 S1244 P600
M300 S1046 P300
M300 S0 P150
M300 S1567 P150
M300 S1318 P600
M300 S0 P300
M82 ;absolute extrusion mode
M104 S0
;End of Gcode
;SETTING_3 {"global_quality": "[general]\\nversion = 4\\nname = PGDI_6 #2\\ndefi
;SETTING_3 nition = creality_ender3pro\\n\\n[metadata]\\ntype = quality_changes\
;SETTING_3 \nquality_type = draft\\nsetting_version = 23\\n\\n[values]\\nlayer_h
;SETTING_3 eight = 0.8\\nlayer_height_0 = 0.4\\nmaterial_bed_temperature_layer_0
;SETTING_3  = 70\\n\\n", "extruder_quality": ["[general]\\nversion = 4\\nname = 
;SETTING_3 PGDI_6 #2\\ndefinition = creality_ender3pro\\n\\n[metadata]\\ntype = 
;SETTING_3 quality_changes\\nquality_type = draft\\nintent_category = default\\n
;SETTING_3 position = 0\\nsetting_version = 23\\n\\n[values]\\nbottom_layers = 2
;SETTING_3 \\ninfill_pattern = tetrahedral\\ninfill_sparse_density = 5\\ninset_d
;SETTING_3 irection = outside_in\\nmaterial_initial_print_temperature = 225\\nma
;SETTING_3 terial_print_temperature_layer_0 = 225\\nroofing_layer_count = 3\\nto
;SETTING_3 p_layers = 3\\nz_seam_type = sharpest_corner\\n\\n"]}
